{"type": "FeatureCollection", "features": [{"type": "Feature", "geometry": {"type": "LineString", "coordinates": [[-74.345601, 40.400182], [-74.346271, 40.400653], [-74.346691, 40.401137], [-74.347234, 40.400927], [-74.347658, 40.400872], [-74.347815, 40.400875], [-74.349279, 40.40108], [-74.349815, 40.400656], [-74.350105, 40.400427], [-74.350324, 40.400272], [-74.348687, 40.398842], [-74.348483, 40.398673], [-74.346447, 40.396974], [-74.346217, 40.396778], [-74.34341, 40.394431], [-74.34317, 40.394228], [-74.342914, 40.394016], [-74.342683, 40.393823], [-74.34109, 40.392498], [-74.340965, 40.392394], [-74.340309, 40.391848], [-74.339225, 40.390954], [-74.33903, 40.390793], [-74.338188, 40.390099], [-74.338015, 40.389957], [-74.333925, 40.386585], [-74.332095, 40.385188], [-74.331505, 40.384772], [-74.331011, 40.38442], [-74.329671, 40.383602], [-74.329067, 40.383234], [-74.328046, 40.382611], [-74.327351, 40.382187], [-74.326034, 40.381384], [-74.320616, 40.378082], [-74.319715, 40.37753], [-74.318455, 40.376787], [-74.317627, 40.376285], [-74.316872, 40.375854], [-74.316645, 40.375553], [-74.316601, 40.375316], [-74.316636, 40.375206], [-74.316795, 40.374994], [-74.316858, 40.374866], [-74.316883, 40.374738], [-74.31658, 40.374783], [-74.316435, 40.374828], [-74.316129, 40.375008], [-74.315802, 40.375288], [-74.315621, 40.375452], [-74.315503, 40.375536], [-74.315396, 40.375562], [-74.315241, 40.375539], [-74.314736, 40.375458], [-74.314437, 40.375414], [-74.31382, 40.375348], [-74.313466, 40.375274], [-74.312706, 40.375044], [-74.311393, 40.374559], [-74.310368, 40.374205], [-74.309666, 40.373992], [-74.309239, 40.373863], [-74.308883, 40.373758], [-74.30864, 40.373686], [-74.308209, 40.373588], [-74.308038, 40.373598], [-74.307946, 40.373603], [-74.307819, 40.373641], [-74.307488, 40.373742], [-74.306921, 40.37395], [-74.306634, 40.374065], [-74.306066, 40.374231], [-74.305989, 40.374253], [-74.305895, 40.374281], [-74.305647, 40.374353], [-74.304746, 40.374649], [-74.303573, 40.375028], [-74.303398, 40.375067], [-74.303058, 40.3751], [-74.302763, 40.375083], [-74.302479, 40.375018], [-74.30082, 40.374372], [-74.300641, 40.374331], [-74.299769, 40.374249], [-74.29939, 40.37424], [-74.298645, 40.374141], [-74.298264, 40.374097], [-74.297189, 40.373927], [-74.291067, 40.373005], [-74.290852, 40.372974], [-74.289859, 40.372831], [-74.286333, 40.372279], [-74.284137, 40.371914], [-74.280778, 40.371385], [-74.279635, 40.371209], [-74.279139, 40.371102], [-74.277802, 40.370894], [-74.27726, 40.37081], [-74.2768, 40.370719], [-74.275553, 40.370527], [-74.273927, 40.370269], [-74.268949, 40.36944], [-74.265754, 40.368914], [-74.264374, 40.368697], [-74.264026, 40.368622], [-74.263788, 40.368837], [-74.263675, 40.368939], [-74.263213, 40.369358], [-74.263088, 40.36947], [-74.262298, 40.370185], [-74.262267, 40.370213], [-74.26191, 40.370536], [-74.261528, 40.370883], [-74.261293, 40.371099], [-74.260896, 40.371464], [-74.260615, 40.371722], [-74.260182, 40.37212], [-74.259674, 40.372584], [-74.258868, 40.37334], [-74.258065, 40.37415], [-74.257823, 40.374394], [-74.2577, 40.374515], [-74.257633, 40.374586], [-74.257439, 40.374782], [-74.257243, 40.37498], [-74.257079, 40.375145], [-74.256837, 40.37539], [-74.256538, 40.375662], [-74.256166, 40.375933], [-74.255994, 40.376036], [-74.255594, 40.376259], [-74.255302, 40.376409], [-74.254911, 40.376599], [-74.25475, 40.376677], [-74.25462, 40.37674], [-74.254227, 40.376935], [-74.253875, 40.377103], [-74.253383, 40.377339], [-74.253015, 40.377472], [-74.252349, 40.377655], [-74.252173, 40.377715], [-74.251911, 40.377836], [-74.2518, 40.377894], [-74.249902, 40.378972], [-74.248701, 40.379668], [-74.248509, 40.379771], [-74.248279, 40.379903], [-74.247854, 40.380147], [-74.247573, 40.380345], [-74.246567, 40.381115], [-74.246055, 40.381517], [-74.246001, 40.38156], [-74.24597, 40.381587], [-74.245574, 40.38188], [-74.245297, 40.382054], [-74.245072, 40.382159], [-74.244907, 40.382217], [-74.244658, 40.38228], [-74.244306, 40.382358], [-74.243927, 40.382447], [-74.243057, 40.382589], [-74.242648, 40.382671], [-74.242242, 40.382741], [-74.24208, 40.382775], [-74.241734, 40.382841], [-74.241291, 40.382916], [-74.241008, 40.383454], [-74.240972, 40.383511], [-74.240948, 40.383567], [-74.240629, 40.384183], [-74.24046, 40.384573], [-74.240385, 40.38477], [-74.240238, 40.385044], [-74.239904, 40.385181], [-74.238968, 40.385616], [-74.237399, 40.386348], [-74.236753, 40.386652], [-74.23611, 40.386953], [-74.235718, 40.387133], [-74.234313, 40.387989], [-74.23424, 40.387917], [-74.234113, 40.38727], [-74.233956, 40.386674], [-74.233876, 40.386507], [-74.233781, 40.386376], [-74.233027, 40.385467], [-74.232655, 40.384985], [-74.232291, 40.384598], [-74.231907, 40.384261], [-74.231719, 40.384117], [-74.230791, 40.383508], [-74.230493, 40.383256], [-74.229761, 40.382602], [-74.229577, 40.382421], [-74.228837, 40.381821], [-74.228473, 40.381572], [-74.228287, 40.381425], [-74.227978, 40.381165], [-74.227821, 40.381011], [-74.22769, 40.380844], [-74.227422, 40.380367], [-74.227277, 40.380179], [-74.227153, 40.380085], [-74.226996, 40.380019], [-74.226019, 40.379681], [-74.225852, 40.379611], [-74.225717, 40.379531], [-74.225572, 40.379384], [-74.225287, 40.379], [-74.224997, 40.378541], [-74.224549, 40.378046], [-74.224053, 40.377678], [-74.223434, 40.377237], [-74.222883, 40.376876], [-74.222299, 40.376542], [-74.222037, 40.376432], [-74.221831, 40.376377], [-74.221219, 40.376297], [-74.220859, 40.376217], [-74.220328, 40.376035], [-74.219354, 40.375627], [-74.219107, 40.375568], [-74.218901, 40.375548], [-74.218442, 40.375568], [-74.218299, 40.375596], [-74.217903, 40.375746], [-74.21747, 40.375847], [-74.217258, 40.375872], [-74.217041, 40.375838], [-74.217093, 40.37568], [-74.217119, 40.375333], [-74.2171, 40.375137], [-74.216956, 40.374571], [-74.216831, 40.374247], [-74.216709, 40.37404], [-74.216622, 40.373932], [-74.216495, 40.373805], [-74.216294, 40.373662], [-74.216132, 40.373582], [-74.215847, 40.37344], [-74.215719, 40.373377], [-74.215369, 40.373159], [-74.215204, 40.372997], [-74.215131, 40.37289], [-74.21497, 40.372512], [-74.214659, 40.371912], [-74.214606, 40.371749], [-74.214586, 40.37163], [-74.21459, 40.371504], [-74.21461, 40.371338], [-74.214669, 40.371109], [-74.214778, 40.370882], [-74.215055, 40.370483], [-74.215107, 40.370338], [-74.215118, 40.37013], [-74.215077, 40.369535], [-74.215079, 40.36929], [-74.215115, 40.369112], [-74.215293, 40.368547], [-74.215307, 40.368234], [-74.215235, 40.36797], [-74.215889, 40.367752], [-74.216949, 40.367361], [-74.217469, 40.367164], [-74.219282, 40.366507], [-74.21971, 40.366349], [-74.2199, 40.366254], [-74.219974, 40.366201], [-74.220117, 40.366069], [-74.220483, 40.365594], [-74.220953, 40.365024], [-74.221754, 40.364179], [-74.221975, 40.363975], [-74.222331, 40.363701], [-74.223226, 40.363222], [-74.225321, 40.362126], [-74.227357, 40.361049], [-74.228248, 40.360595], [-74.228385, 40.360503], [-74.228987, 40.360183], [-74.22941, 40.359961], [-74.229755, 40.35978], [-74.230666, 40.359303], [-74.23226, 40.358469], [-74.234902, 40.357076], [-74.235364, 40.356817], [-74.235961, 40.356438], [-74.236209, 40.356218], [-74.236504, 40.355758], [-74.236817, 40.35543], [-74.239014, 40.35321], [-74.239284, 40.352954], [-74.24, 40.352377], [-74.240697, 40.35184], [-74.241057, 40.351632], [-74.24382, 40.350402], [-74.245703, 40.349576], [-74.246778, 40.34907], [-74.247831, 40.348573], [-74.247885, 40.348546], [-74.249169, 40.347928], [-74.249752, 40.347662], [-74.250065, 40.347539], [-74.249604, 40.346028], [-74.249758, 40.345972], [-74.250583, 40.345468], [-74.252157, 40.3445], [-74.252533, 40.344274], [-74.2531, 40.343965], [-74.254463, 40.343229], [-74.255058, 40.342931], [-74.255461, 40.342729], [-74.255773, 40.342532], [-74.256048, 40.342315], [-74.256141, 40.342241], [-74.256351, 40.342008], [-74.256488, 40.341823], [-74.257945, 40.339681], [-74.259105, 40.339933], [-74.25958, 40.340001], [-74.259809, 40.340013], [-74.26013, 40.339981], [-74.260724, 40.339888], [-74.261314, 40.339777], [-74.26206, 40.339571], [-74.263988, 40.339021], [-74.265905, 40.338473], [-74.267388, 40.338059], [-74.269501, 40.337459], [-74.269785, 40.337334], [-74.270897, 40.33674], [-74.273309, 40.335466], [-74.274277, 40.334939], [-74.275919, 40.334038], [-74.276452, 40.33375], [-74.276963, 40.33348], [-74.278106, 40.332853], [-74.279474, 40.33211], [-74.280916, 40.331307], [-74.281849, 40.330793], [-74.282632, 40.330363], [-74.283314, 40.330013], [-74.28388, 40.329719], [-74.286522, 40.328278], [-74.287095, 40.327961], [-74.287203, 40.327901], [-74.288346, 40.327276], [-74.288438, 40.32723], [-74.289178, 40.326841], [-74.289319, 40.326767], [-74.290135, 40.326356], [-74.290336, 40.326234], [-74.290695, 40.326016], [-74.291436, 40.325553], [-74.292024, 40.325139], [-74.292126, 40.325062], [-74.292839, 40.324519], [-74.293236, 40.324216], [-74.29357, 40.323993], [-74.293932, 40.323783], [-74.294438, 40.323533], [-74.294679, 40.323393], [-74.294869, 40.323279], [-74.295529, 40.322796], [-74.295775, 40.322602], [-74.296087, 40.322457], [-74.296538, 40.322313], [-74.296594, 40.322308], [-74.296942, 40.322187], [-74.298062, 40.321784], [-74.299056, 40.32141], [-74.299996, 40.321048], [-74.300225, 40.320911], [-74.300581, 40.320682], [-74.301402, 40.320144], [-74.302029, 40.31981], [-74.302167, 40.319739], [-74.303623, 40.319003], [-74.304954, 40.318292], [-74.305068, 40.318242], [-74.305202, 40.318216], [-74.305389, 40.318206], [-74.305457, 40.318216], [-74.305526, 40.318245], [-74.305582, 40.318181], [-74.305611, 40.318152], [-74.305885, 40.317871], [-74.306092, 40.317635], [-74.306313, 40.317314], [-74.306498, 40.317008], [-74.306693, 40.316685], [-74.306761, 40.316582], [-74.306976, 40.31625], [-74.306191, 40.315964], [-74.305859, 40.315841], [-74.305255, 40.315612], [-74.305151, 40.315549], [-74.305054, 40.315464], [-74.304878, 40.315271], [-74.304786, 40.314949], [-74.304584, 40.314237], [-74.304516, 40.314003], [-74.30442, 40.313517], [-74.304376, 40.313248], [-74.304302, 40.312665], [-74.304243, 40.311902], [-74.304235, 40.311726], [-74.304212, 40.311204], [-74.3042, 40.31093], [-74.304194, 40.310778], [-74.304165, 40.310119], [-74.304145, 40.309656], [-74.304132, 40.309361], [-74.304109, 40.308836], [-74.304094, 40.308492], [-74.304077, 40.308117], [-74.304064, 40.307822], [-74.304058, 40.307679], [-74.304046, 40.307416], [-74.304028, 40.307009], [-74.304013, 40.30667], [-74.303915, 40.304477], [-74.303924, 40.30416], [-74.303891, 40.303495], [-74.304043, 40.303244], [-74.304521, 40.302671], [-74.304559, 40.302569], [-74.304679, 40.302344], [-74.304736, 40.302335], [-74.305194, 40.302238], [-74.305529, 40.302172], [-74.305804, 40.302115], [-74.306091, 40.302054], [-74.306651, 40.30194], [-74.307231, 40.301822], [-74.307647, 40.301701], [-74.307802, 40.301638], [-74.308111, 40.301471], [-74.308577, 40.301204], [-74.308773, 40.301079], [-74.30887, 40.301025], [-74.309527, 40.300651], [-74.310419, 40.300158], [-74.310856, 40.299948], [-74.311155, 40.299858], [-74.311332, 40.299825], [-74.311675, 40.299794], [-74.313295, 40.299685], [-74.31334, 40.300017], [-74.313377, 40.300152], [-74.313688, 40.300721], [-74.313377, 40.300152], [-74.31334, 40.300017], [-74.313295, 40.299685], [-74.314533, 40.299593], [-74.315459, 40.299523], [-74.316307, 40.299471], [-74.31664, 40.299454], [-74.316795, 40.299446], [-74.317094, 40.299432], [-74.317222, 40.299425], [-74.317684, 40.299401], [-74.317494, 40.299702], [-74.316177, 40.301777], [-74.316102, 40.301892], [-74.316079, 40.301927], [-74.315793, 40.302375], [-74.315615, 40.302655], [-74.315516, 40.302811], [-74.314602, 40.304266], [-74.313527, 40.305938], [-74.312883, 40.306971], [-74.312803, 40.307132], [-74.312704, 40.307271], [-74.311094, 40.309804], [-74.310806, 40.310272], [-74.310323, 40.311], [-74.31022, 40.311168], [-74.310104, 40.311352], [-74.309276, 40.312655], [-74.308939, 40.313183], [-74.308727, 40.313517], [-74.308614, 40.313696], [-74.308471, 40.31392], [-74.308136, 40.314434], [-74.307702, 40.315092], [-74.307414, 40.315545], [-74.307306, 40.315719], [-74.306976, 40.31625], [-74.306761, 40.316582], [-74.306693, 40.316685], [-74.306851, 40.316747], [-74.306991, 40.316767], [-74.307035, 40.316774], [-74.307158, 40.31685], [-74.307328, 40.317094], [-74.307314, 40.317122], [-74.307348, 40.317232], [-74.306553, 40.317699], [-74.306455, 40.317632], [-74.306329, 40.317603], [-74.306214, 40.317596], [-74.306092, 40.317635], [-74.305885, 40.317871], [-74.305611, 40.318152], [-74.305582, 40.318181], [-74.305526, 40.318245], [-74.305466, 40.318411], [-74.305445, 40.31857], [-74.305402, 40.318705], [-74.305152, 40.319109], [-74.305055, 40.31926], [-74.305019, 40.319317], [-74.304953, 40.31942], [-74.304756, 40.319738], [-74.304696, 40.319839], [-74.303794, 40.321263], [-74.303534, 40.321678], [-74.2999, 40.327447], [-74.298064, 40.330415], [-74.296593, 40.332725], [-74.295906, 40.333856], [-74.294306, 40.336367], [-74.293445, 40.337764], [-74.292913, 40.338607], [-74.292709, 40.338932], [-74.292255, 40.339642], [-74.292013, 40.34003], [-74.290981, 40.341666], [-74.290175, 40.342916], [-74.289532, 40.343932], [-74.288927, 40.344867], [-74.288191, 40.346019], [-74.287604, 40.346764], [-74.286696, 40.347865], [-74.286291, 40.348324], [-74.28592, 40.348093], [-74.28532, 40.347685], [-74.284961, 40.347494], [-74.28448, 40.347337], [-74.283603, 40.347124], [-74.282759, 40.346968], [-74.281786, 40.346775], [-74.281164, 40.346643], [-74.281731, 40.346843], [-74.282147, 40.347033], [-74.282476, 40.347263], [-74.283323, 40.347935], [-74.283579, 40.348203], [-74.284302, 40.349149], [-74.284536, 40.349407], [-74.285247, 40.350434], [-74.285987, 40.351431], [-74.287121, 40.353058], [-74.287263, 40.353303], [-74.288057, 40.354398], [-74.293063, 40.361563], [-74.293427, 40.362045], [-74.29395, 40.36268], [-74.294567, 40.363356], [-74.29501, 40.3638], [-74.295858, 40.364571], [-74.296447, 40.365057], [-74.296941, 40.365434], [-74.297709, 40.365978], [-74.29828, 40.366348], [-74.299112, 40.366837], [-74.301528, 40.368148], [-74.30404, 40.36943], [-74.304593, 40.369712], [-74.3061, 40.370505], [-74.306545, 40.370725], [-74.312291, 40.373746], [-74.314447, 40.374882], [-74.315621, 40.375452], [-74.316436, 40.375875], [-74.317293, 40.376354], [-74.318589, 40.377138], [-74.319538, 40.377722], [-74.320461, 40.378294], [-74.324041, 40.380468], [-74.324377, 40.380672], [-74.325857, 40.381543], [-74.326499, 40.381956], [-74.326968, 40.382258], [-74.327579, 40.382613], [-74.328292, 40.383026], [-74.3293, 40.383612], [-74.329983, 40.384029], [-74.331798, 40.385246], [-74.333727, 40.386745], [-74.336997, 40.389419], [-74.340095, 40.392036], [-74.34293, 40.394385], [-74.343239, 40.39466], [-74.346114, 40.397078], [-74.346912, 40.397699], [-74.349344, 40.399784], [-74.349972, 40.400315], [-74.350105, 40.400427], [-74.349815, 40.400656], [-74.349279, 40.40108], [-74.347815, 40.400875], [-74.347658, 40.400872], [-74.347621, 40.400773], [-74.347618, 40.400666], [-74.347573, 40.40052], [-74.347443, 40.400375], [-74.347299, 40.400288], [-74.347106, 40.400202], [-74.346881, 40.400131], [-74.345796, 40.399414], [-74.345174, 40.399882], [-74.345601, 40.400182]]}, "properties": {"seed": 1, "km": 44.6, "minutes": 51, "backroad_pct": 66, "state_road_pct": 34, "highway_pct": 10, "stroke": "#d33", "stroke-width": 3}}, {"type": "Feature", "geometry": {"type": "LineString", "coordinates": [[-74.345601, 40.400182], [-74.346271, 40.400653], [-74.346691, 40.401137], [-74.347234, 40.400927], [-74.347658, 40.400872], [-74.347815, 40.400875], [-74.349279, 40.40108], [-74.349815, 40.400656], [-74.350105, 40.400427], [-74.350324, 40.400272], [-74.348687, 40.398842], [-74.348483, 40.398673], [-74.346447, 40.396974], [-74.346217, 40.396778], [-74.34341, 40.394431], [-74.34317, 40.394228], [-74.342914, 40.394016], [-74.342683, 40.393823], [-74.34109, 40.392498], [-74.340965, 40.392394], [-74.340309, 40.391848], [-74.339225, 40.390954], [-74.33903, 40.390793], [-74.338188, 40.390099], [-74.338015, 40.389957], [-74.333925, 40.386585], [-74.332095, 40.385188], [-74.331505, 40.384772], [-74.331011, 40.38442], [-74.329671, 40.383602], [-74.329067, 40.383234], [-74.328046, 40.382611], [-74.327351, 40.382187], [-74.326034, 40.381384], [-74.320616, 40.378082], [-74.319715, 40.37753], [-74.318455, 40.376787], [-74.317627, 40.376285], [-74.316872, 40.375854], [-74.316645, 40.375553], [-74.316601, 40.375316], [-74.316636, 40.375206], [-74.316795, 40.374994], [-74.316858, 40.374866], [-74.316883, 40.374738], [-74.31658, 40.374783], [-74.316435, 40.374828], [-74.316129, 40.375008], [-74.315802, 40.375288], [-74.315621, 40.375452], [-74.315503, 40.375536], [-74.315396, 40.375562], [-74.315241, 40.375539], [-74.314736, 40.375458], [-74.314437, 40.375414], [-74.31382, 40.375348], [-74.313466, 40.375274], [-74.312706, 40.375044], [-74.311393, 40.374559], [-74.310368, 40.374205], [-74.309666, 40.373992], [-74.309239, 40.373863], [-74.308883, 40.373758], [-74.30864, 40.373686], [-74.308209, 40.373588], [-74.308038, 40.373598], [-74.307946, 40.373603], [-74.307819, 40.373641], [-74.307488, 40.373742], [-74.306921, 40.37395], [-74.30625, 40.370186], [-74.305687, 40.366618], [-74.305383, 40.365033], [-74.305196, 40.363853], [-74.305119, 40.362509], [-74.305122, 40.362351], [-74.305142, 40.362011], [-74.30524, 40.361213], [-74.305258, 40.36106], [-74.305404, 40.360129], [-74.30557, 40.35944], [-74.305661, 40.359057], [-74.305883, 40.358122], [-74.305911, 40.358001], [-74.306153, 40.357048], [-74.306194, 40.356859], [-74.306287, 40.356432], [-74.306417, 40.355902], [-74.306519, 40.355559], [-74.306919, 40.353971], [-74.307055, 40.353389], [-74.307139, 40.353145], [-74.307411, 40.351971], [-74.307561, 40.351321], [-74.307642, 40.350929], [-74.307652, 40.350817], [-74.307673, 40.350649], [-74.307747, 40.350055], [-74.307792, 40.349651], [-74.30781, 40.349411], [-74.307901, 40.347977], [-74.307915, 40.347755], [-74.307945, 40.347247], [-74.307954, 40.347086], [-74.307979, 40.346671], [-74.307985, 40.346564], [-74.308015, 40.34598], [-74.308027, 40.345779], [-74.30805, 40.345383], [-74.308073, 40.344994], [-74.308086, 40.344758], [-74.308101, 40.344512], [-74.308128, 40.344052], [-74.308149, 40.343698], [-74.308159, 40.343532], [-74.30818, 40.343176], [-74.3082, 40.342508], [-74.308207, 40.342216], [-74.3082, 40.341767], [-74.308193, 40.341633], [-74.308066, 40.340489], [-74.307933, 40.339779], [-74.307674, 40.338578], [-74.307282, 40.33679], [-74.307212, 40.336458], [-74.306972, 40.335381], [-74.306894, 40.335025], [-74.306556, 40.333491], [-74.306414, 40.33285], [-74.3063, 40.332331], [-74.306174, 40.331763], [-74.306151, 40.331577], [-74.306071, 40.331203], [-74.305981, 40.330788], [-74.305875, 40.33031], [-74.305816, 40.330087], [-74.305716, 40.329519], [-74.305691, 40.329293], [-74.305628, 40.32836], [-74.305615, 40.327806], [-74.305633, 40.327679], [-74.305614, 40.32714], [-74.305588, 40.32691], [-74.305575, 40.326446], [-74.30559, 40.326255], [-74.30555, 40.325474], [-74.305524, 40.324492], [-74.305483, 40.322829], [-74.305488, 40.322411], [-74.305525, 40.321943], [-74.305666, 40.321256], [-74.305742, 40.320857], [-74.305951, 40.320107], [-74.305994, 40.319817], [-74.306009, 40.319514], [-74.306002, 40.318906], [-74.305958, 40.318524], [-74.305892, 40.318217], [-74.305723, 40.317673], [-74.305235, 40.316316], [-74.305041, 40.315777], [-74.304878, 40.315271], [-74.304786, 40.314949], [-74.304584, 40.314237], [-74.304516, 40.314003], [-74.30442, 40.313517], [-74.304376, 40.313248], [-74.304302, 40.312665], [-74.304243, 40.311902], [-74.304235, 40.311726], [-74.304212, 40.311204], [-74.3042, 40.31093], [-74.304194, 40.310778], [-74.304165, 40.310119], [-74.304145, 40.309656], [-74.304132, 40.309361], [-74.304109, 40.308836], [-74.304094, 40.308492], [-74.304077, 40.308117], [-74.304064, 40.307822], [-74.304058, 40.307679], [-74.304046, 40.307416], [-74.304028, 40.307009], [-74.304013, 40.30667], [-74.303915, 40.304477], [-74.303924, 40.30416], [-74.303891, 40.303495], [-74.304043, 40.303244], [-74.304521, 40.302671], [-74.304559, 40.302569], [-74.304514, 40.302482], [-74.304385, 40.302389], [-74.304168, 40.302435], [-74.303822, 40.302508], [-74.303621, 40.302551], [-74.303183, 40.302647], [-74.303017, 40.302682], [-74.302778, 40.302736], [-74.302708, 40.302751], [-74.30214, 40.302853], [-74.301925, 40.302892], [-74.301667, 40.30297], [-74.301221, 40.303159], [-74.300559, 40.303428], [-74.300353, 40.303496], [-74.300018, 40.303581], [-74.299652, 40.303628], [-74.298678, 40.303697], [-74.297896, 40.303758], [-74.297993, 40.305953], [-74.298009, 40.306566], [-74.298059, 40.307861], [-74.29805, 40.308047], [-74.297988, 40.30834], [-74.297882, 40.308607], [-74.297743, 40.308851], [-74.297551, 40.309096], [-74.297409, 40.309242], [-74.297229, 40.309394], [-74.296371, 40.309977], [-74.295392, 40.310653], [-74.295128, 40.310806], [-74.294472, 40.311205], [-74.294161, 40.311371], [-74.291142, 40.312582], [-74.291088, 40.312604], [-74.290987, 40.312644], [-74.290658, 40.312776], [-74.29052, 40.312837], [-74.290405, 40.312878], [-74.290314, 40.312914], [-74.290023, 40.313031], [-74.289867, 40.313094], [-74.288991, 40.313458], [-74.288865, 40.313343], [-74.288084, 40.312419], [-74.28806, 40.312359], [-74.286985, 40.311093], [-74.285362, 40.309212], [-74.284788, 40.308536], [-74.283728, 40.307348], [-74.282206, 40.30557], [-74.282073, 40.305424], [-74.281363, 40.30579], [-74.281119, 40.305947], [-74.280925, 40.306097], [-74.280643, 40.306393], [-74.28008, 40.307027], [-74.279781, 40.30735], [-74.279499, 40.307584], [-74.278778, 40.308118], [-74.277624, 40.308986], [-74.277541, 40.309047], [-74.277279, 40.309237], [-74.276901, 40.309472], [-74.276467, 40.309738], [-74.276124, 40.309894], [-74.27543, 40.310182], [-74.27422, 40.310519], [-74.274548, 40.31119], [-74.275463, 40.310939], [-74.275721, 40.310892], [-74.275939, 40.310891], [-74.276165, 40.310927], [-74.27628, 40.310959], [-74.27647, 40.311044], [-74.277471, 40.311687], [-74.277579, 40.311567], [-74.277673, 40.3114], [-74.27779, 40.310893], [-74.277825, 40.310696], [-74.277821, 40.310549], [-74.27777, 40.310373], [-74.277654, 40.310188], [-74.276901, 40.309472], [-74.276319, 40.308912], [-74.275884, 40.308514], [-74.275206, 40.308098], [-74.274872, 40.307754], [-74.274651, 40.307543], [-74.274242, 40.307295], [-74.274182, 40.307216], [-74.273897, 40.306943], [-74.273741, 40.306765], [-74.274108, 40.306559], [-74.277606, 40.304623], [-74.279416, 40.303645], [-74.279354, 40.303539], [-74.278312, 40.300232], [-74.278151, 40.299812], [-74.277975, 40.299183], [-74.277943, 40.299091], [-74.277794, 40.298737], [-74.277603, 40.298449], [-74.276488, 40.296785], [-74.277562, 40.296668], [-74.278216, 40.29662], [-74.279793, 40.296412], [-74.281891, 40.296159], [-74.283241, 40.296004], [-74.284899, 40.295813], [-74.286222, 40.295667], [-74.287606, 40.295521], [-74.288192, 40.295441], [-74.290284, 40.295198], [-74.293095, 40.294881], [-74.294235, 40.294751], [-74.294493, 40.294704], [-74.294793, 40.294618], [-74.295881, 40.294206], [-74.297019, 40.29378], [-74.297535, 40.293563], [-74.297696, 40.293495], [-74.29775, 40.293472], [-74.298372, 40.293243], [-74.298576, 40.293165], [-74.299729, 40.293018], [-74.299985, 40.292981], [-74.301585, 40.292746], [-74.303006, 40.292509], [-74.303861, 40.292366], [-74.304871, 40.292198], [-74.306097, 40.292008], [-74.30625, 40.291964], [-74.306534, 40.29184], [-74.306662, 40.291762], [-74.307131, 40.291378], [-74.307521, 40.291075], [-74.307747, 40.290935], [-74.307988, 40.290825], [-74.308211, 40.290752], [-74.308465, 40.29069], [-74.308973, 40.290647], [-74.309607, 40.290655], [-74.311505, 40.290734], [-74.31187, 40.290725], [-74.312382, 40.290699], [-74.313183, 40.290629], [-74.314851, 40.29047], [-74.316797, 40.290209], [-74.317083, 40.290158], [-74.31765, 40.290038], [-74.317727, 40.290033], [-74.31856, 40.289765], [-74.318715, 40.289699], [-74.319384, 40.289318], [-74.319876, 40.288982], [-74.320164, 40.288751], [-74.321268, 40.28788], [-74.321931, 40.287407], [-74.322109, 40.287276], [-74.322264, 40.287125], [-74.322387, 40.286969], [-74.322488, 40.286797], [-74.322514, 40.286739], [-74.322589, 40.286525], [-74.322682, 40.285816], [-74.325451, 40.286026], [-74.325823, 40.286091], [-74.326168, 40.28621], [-74.326542, 40.285614], [-74.327202, 40.284614], [-74.327288, 40.284506], [-74.32771, 40.283388], [-74.327818, 40.283186], [-74.327985, 40.283062], [-74.32816, 40.282957], [-74.329977, 40.281927], [-74.33029, 40.281746], [-74.330581, 40.281577], [-74.331789, 40.282568], [-74.331908, 40.282666], [-74.332214, 40.282918], [-74.332291, 40.282982], [-74.33249, 40.283146], [-74.33287, 40.283455], [-74.33314, 40.283681], [-74.333555, 40.284024], [-74.333808, 40.284237], [-74.333983, 40.284374], [-74.33413, 40.284498], [-74.335241, 40.285414], [-74.335684, 40.285782], [-74.336122, 40.286151], [-74.339048, 40.288597], [-74.339538, 40.288929], [-74.340089, 40.289238], [-74.340556, 40.289437], [-74.340933, 40.289568], [-74.341433, 40.289699], [-74.341747, 40.289765], [-74.342081, 40.289837], [-74.343505, 40.29012], [-74.344706, 40.29035], [-74.344929, 40.290396], [-74.345239, 40.29046], [-74.345447, 40.290502], [-74.345781, 40.290569], [-74.346283, 40.29067], [-74.346728, 40.290831], [-74.346929, 40.290933], [-74.347916, 40.291547], [-74.348565, 40.291956], [-74.349284, 40.292409], [-74.350456, 40.293151], [-74.350543, 40.293206], [-74.35063, 40.293261], [-74.350931, 40.293452], [-74.353014, 40.294766], [-74.353273, 40.294905], [-74.353467, 40.294979], [-74.353855, 40.29508], [-74.354541, 40.2952], [-74.355368, 40.295328], [-74.35584, 40.29538], [-74.356408, 40.295403], [-74.356594, 40.295408], [-74.357917, 40.295459], [-74.358355, 40.295469], [-74.358356, 40.295497], [-74.358381, 40.296154], [-74.358395, 40.296425], [-74.358405, 40.297003], [-74.358404, 40.297108], [-74.359045, 40.297124], [-74.359454, 40.297158], [-74.360121, 40.297212], [-74.361441, 40.297281], [-74.361621, 40.29732], [-74.361781, 40.297375], [-74.362268, 40.297674], [-74.362621, 40.297913], [-74.362973, 40.29743], [-74.363051, 40.297383], [-74.36315, 40.297354], [-74.363237, 40.297347], [-74.364743, 40.297406], [-74.365387, 40.297366], [-74.367235, 40.297227], [-74.367859, 40.297228], [-74.36842, 40.297269], [-74.368774, 40.297318], [-74.369176, 40.297399], [-74.36939, 40.297464], [-74.370351, 40.297816], [-74.371029, 40.298107], [-74.371248, 40.298233], [-74.371352, 40.298316], [-74.371654, 40.298625], [-74.372464, 40.299565], [-74.373229, 40.300447], [-74.373486, 40.300683], [-74.374061, 40.301156], [-74.374363, 40.301419], [-74.375075, 40.302101], [-74.375327, 40.302313], [-74.375996, 40.302828], [-74.37602, 40.302846], [-74.376092, 40.302899], [-74.37626, 40.303022], [-74.377163, 40.303657], [-74.377898, 40.30412], [-74.37817, 40.304276], [-74.378294, 40.30435], [-74.379265, 40.304884], [-74.379617, 40.305067], [-74.379773, 40.305115], [-74.379924, 40.305089], [-74.38016, 40.304961], [-74.380283, 40.304888], [-74.38069, 40.304639], [-74.382091, 40.303818], [-74.383677, 40.302886], [-74.385534, 40.301776], [-74.38694, 40.300935], [-74.38734, 40.300696], [-74.387979, 40.300301], [-74.388852, 40.299773], [-74.389461, 40.299974], [-74.391862, 40.30086], [-74.394313, 40.30177], [-74.394596, 40.301876], [-74.396199, 40.302473], [-74.39729, 40.302866], [-74.397726, 40.303027], [-74.399414, 40.303644], [-74.401582, 40.304445], [-74.403408, 40.305119], [-74.404675, 40.305593], [-74.404818, 40.305634], [-74.404968, 40.305657], [-74.406069, 40.305698], [-74.408636, 40.305738], [-74.409082, 40.305796], [-74.409405, 40.305901], [-74.409922, 40.306141], [-74.410273, 40.306253], [-74.411162, 40.306472], [-74.410857, 40.308096], [-74.410453, 40.310511], [-74.410281, 40.311554], [-74.410099, 40.312873], [-74.40993, 40.313815], [-74.409683, 40.315184], [-74.409083, 40.318608], [-74.40642, 40.318887], [-74.405963, 40.318953], [-74.404921, 40.319144], [-74.404519, 40.319227], [-74.404038, 40.319342], [-74.403906, 40.31939], [-74.403658, 40.319518], [-74.399644, 40.322417], [-74.396993, 40.324745], [-74.395622, 40.326001], [-74.395357, 40.326245], [-74.394841, 40.326718], [-74.394239, 40.327264], [-74.393521, 40.327857], [-74.393209, 40.328134], [-74.392867, 40.32843], [-74.392641, 40.328616], [-74.392236, 40.328757], [-74.391153, 40.329052], [-74.390871, 40.329122], [-74.389669, 40.329422], [-74.389438, 40.329433], [-74.389076, 40.329393], [-74.382663, 40.328261], [-74.382205, 40.328226], [-74.381545, 40.328265], [-74.380213, 40.328386], [-74.377329, 40.328667], [-74.376036, 40.328778], [-74.372464, 40.32912], [-74.371267, 40.329231], [-74.371036, 40.329238], [-74.369609, 40.329377], [-74.368939, 40.329441], [-74.367486, 40.329572], [-74.367202, 40.329572], [-74.366716, 40.329499], [-74.366072, 40.329351], [-74.365133, 40.329084], [-74.364715, 40.328977], [-74.363871, 40.328723], [-74.363342, 40.328577], [-74.362557, 40.328359], [-74.361766, 40.328128], [-74.361559, 40.328046], [-74.361449, 40.328545], [-74.361107, 40.330117], [-74.361074, 40.330233], [-74.361008, 40.330461], [-74.360442, 40.333106], [-74.359864, 40.33544], [-74.359628, 40.336647], [-74.358969, 40.339437], [-74.358717, 40.34065], [-74.358621, 40.341116], [-74.358521, 40.3416], [-74.358445, 40.341964], [-74.35836, 40.342374], [-74.358348, 40.342432], [-74.358258, 40.342864], [-74.358142, 40.343431], [-74.357948, 40.344365], [-74.357508, 40.346322], [-74.357464, 40.346517], [-74.357461, 40.346531], [-74.357388, 40.346856], [-74.357195, 40.347709], [-74.35718, 40.347773], [-74.357138, 40.347959], [-74.356851, 40.349231], [-74.356468, 40.350697], [-74.356394, 40.350982], [-74.356296, 40.351359], [-74.356284, 40.351402], [-74.356262, 40.351498], [-74.356176, 40.351868], [-74.355926, 40.352927], [-74.355908, 40.353002], [-74.355648, 40.354034], [-74.355604, 40.354202], [-74.355497, 40.354684], [-74.355401, 40.355098], [-74.355255, 40.355705], [-74.355225, 40.355827], [-74.355022, 40.356667], [-74.354872, 40.357257], [-74.35452, 40.358624], [-74.354481, 40.358777], [-74.354454, 40.358878], [-74.35444, 40.358933], [-74.354373, 40.359195], [-74.354294, 40.359541], [-74.354082, 40.360511], [-74.354087, 40.36094], [-74.354396, 40.362497], [-74.355012, 40.365316], [-74.355031, 40.365405], [-74.355231, 40.366319], [-74.355423, 40.367205], [-74.355452, 40.367343], [-74.355553, 40.367851], [-74.355739, 40.368795], [-74.355872, 40.369468], [-74.356007, 40.370151], [-74.356069, 40.370565], [-74.356092, 40.370715], [-74.356145, 40.371075], [-74.356273, 40.371939], [-74.35629, 40.372052], [-74.356759, 40.375406], [-74.356957, 40.376832], [-74.357376, 40.37976], [-74.358138, 40.384741], [-74.358407, 40.386637], [-74.358538, 40.387396], [-74.358683, 40.388479], [-74.358904, 40.390021], [-74.358949, 40.390302], [-74.359197, 40.392294], [-74.359236, 40.392552], [-74.359487, 40.394171], [-74.359531, 40.39445], [-74.35954, 40.394517], [-74.359605, 40.395029], [-74.359725, 40.395667], [-74.359882, 40.396559], [-74.360257, 40.398776], [-74.360313, 40.399099], [-74.360374, 40.399451], [-74.360451, 40.399904], [-74.36049, 40.400148], [-74.360611, 40.400832], [-74.360673, 40.40114], [-74.360719, 40.401503], [-74.360814, 40.402193], [-74.36093, 40.402859], [-74.360988, 40.403191], [-74.361046, 40.403525], [-74.361166, 40.404207], [-74.36121, 40.404463], [-74.361244, 40.404655], [-74.361269, 40.404798], [-74.361289, 40.404918], [-74.361379, 40.405614], [-74.361451, 40.406254], [-74.361457, 40.406305], [-74.361515, 40.406922], [-74.359787, 40.407082], [-74.359546, 40.407088], [-74.359, 40.406876], [-74.358717, 40.406803], [-74.358578, 40.406705], [-74.358272, 40.406496], [-74.357793, 40.406175], [-74.357399, 40.40591], [-74.356911, 40.405578], [-74.356416, 40.405239], [-74.355904, 40.40486], [-74.355678, 40.404696], [-74.354421, 40.403688], [-74.353288, 40.402741], [-74.351203, 40.401], [-74.350324, 40.400272], [-74.350105, 40.400427], [-74.349815, 40.400656], [-74.349279, 40.40108], [-74.347815, 40.400875], [-74.347658, 40.400872], [-74.347621, 40.400773], [-74.347618, 40.400666], [-74.347573, 40.40052], [-74.347443, 40.400375], [-74.347299, 40.400288], [-74.347106, 40.400202], [-74.346881, 40.400131], [-74.345796, 40.399414], [-74.345174, 40.399882], [-74.345601, 40.400182]]}, "properties": {"seed": 2, "km": 50.3, "minutes": 71, "backroad_pct": 67, "state_road_pct": 33, "highway_pct": 0, "stroke": "#2a8", "stroke-width": 3}}, {"type": "Feature", "geometry": {"type": "LineString", "coordinates": [[-74.345601, 40.400182], [-74.346271, 40.400653], [-74.346691, 40.401137], [-74.347234, 40.400927], [-74.347658, 40.400872], [-74.347815, 40.400875], [-74.349279, 40.40108], [-74.350105, 40.400427], [-74.350324, 40.400272], [-74.348687, 40.398842], [-74.34317, 40.394228], [-74.340309, 40.391848], [-74.333925, 40.386585], [-74.332095, 40.385188], [-74.331011, 40.38442], [-74.326034, 40.381384], [-74.325857, 40.381543], [-74.325396, 40.381714], [-74.325092, 40.381797], [-74.324636, 40.381867], [-74.323842, 40.381935], [-74.322483, 40.382114], [-74.320758, 40.382378], [-74.319161, 40.38252], [-74.318615, 40.382632], [-74.317997, 40.382868], [-74.316093, 40.383681], [-74.315656, 40.383821], [-74.314856, 40.38402], [-74.314434, 40.384101], [-74.314015, 40.384159], [-74.313349, 40.384208], [-74.309015, 40.384156], [-74.308132, 40.384119], [-74.308118, 40.385599], [-74.307973, 40.387123], [-74.307866, 40.388834], [-74.307871, 40.390063], [-74.307904, 40.390789], [-74.30792, 40.391965], [-74.307861, 40.393097], [-74.307754, 40.394049], [-74.307357, 40.397093], [-74.307196, 40.398171], [-74.307014, 40.399042], [-74.306729, 40.400067], [-74.305957, 40.402481], [-74.305834, 40.40302], [-74.305732, 40.403645], [-74.305571, 40.404981], [-74.305549, 40.406299], [-74.30561, 40.408274], [-74.305602, 40.409434], [-74.305563, 40.410221], [-74.305437, 40.411583], [-74.304173, 40.420932], [-74.303938, 40.422475], [-74.302924, 40.430012], [-74.302852, 40.430371], [-74.302419, 40.432105], [-74.302162, 40.432969], [-74.301744, 40.434278], [-74.301332, 40.435336], [-74.301115, 40.435799], [-74.300607, 40.437093], [-74.300294, 40.438259], [-74.300065, 40.439656], [-74.299659, 40.446246], [-74.299627, 40.446555], [-74.299359, 40.447776], [-74.299255, 40.448147], [-74.299032, 40.44876], [-74.296719, 40.454629], [-74.295886, 40.456791], [-74.29572, 40.457265], [-74.295525, 40.458119], [-74.295475, 40.458538], [-74.295454, 40.459143], [-74.295466, 40.45971], [-74.295577, 40.4626], [-74.295635, 40.463686], [-74.295678, 40.464037], [-74.295764, 40.464331], [-74.295892, 40.46467], [-74.296085, 40.465037], [-74.296305, 40.465388], [-74.297239, 40.466988], [-74.297384, 40.467306], [-74.297542, 40.467901], [-74.297569, 40.468178], [-74.297567, 40.468584], [-74.297495, 40.469009], [-74.297324, 40.469482], [-74.2972, 40.469721], [-74.297014, 40.469996], [-74.295926, 40.471359], [-74.295551, 40.471723], [-74.295196, 40.472186], [-74.295095, 40.47229], [-74.294981, 40.472375], [-74.294855, 40.47244], [-74.294716, 40.472478], [-74.294568, 40.472493], [-74.294348, 40.472472], [-74.294199, 40.472418], [-74.294044, 40.47234], [-74.293773, 40.472154], [-74.293592, 40.471967], [-74.293495, 40.471812], [-74.293478, 40.471698], [-74.293521, 40.471534], [-74.293637, 40.471385], [-74.293816, 40.471282], [-74.293955, 40.471244], [-74.294105, 40.471233], [-74.294328, 40.471273], [-74.294508, 40.471373], [-74.29481, 40.471623], [-74.295601, 40.472417], [-74.295962, 40.472702], [-74.297071, 40.473949], [-74.297649, 40.474658], [-74.298476, 40.475755], [-74.298872, 40.476323], [-74.299569, 40.477426], [-74.299902, 40.478028], [-74.300362, 40.478936], [-74.30086, 40.480089], [-74.301096, 40.480712], [-74.301402, 40.481742], [-74.301958, 40.483888], [-74.302202, 40.484593], [-74.302341, 40.485336], [-74.302392, 40.485975], [-74.302382, 40.486625], [-74.302315, 40.48725], [-74.302189, 40.48789], [-74.302012, 40.488505], [-74.301633, 40.489543], [-74.30124, 40.490121], [-74.299552, 40.494153], [-74.299485, 40.494348], [-74.299457, 40.494546], [-74.299502, 40.494775], [-74.299542, 40.494864], [-74.299618, 40.494964], [-74.299768, 40.495074], [-74.299896, 40.495121], [-74.300013, 40.495143], [-74.30014, 40.495144], [-74.300319, 40.495105], [-74.301232, 40.494782], [-74.301336, 40.494719], [-74.30148, 40.494588], [-74.301561, 40.494464], [-74.301596, 40.494374], [-74.301762, 40.493278], [-74.301816, 40.493066], [-74.301938, 40.492791], [-74.302032, 40.492688], [-74.30216, 40.492602], [-74.302307, 40.492543], [-74.302413, 40.49252], [-74.302575, 40.492511], [-74.302836, 40.492555], [-74.30364, 40.492757], [-74.303689, 40.492647], [-74.30473, 40.493075], [-74.304957, 40.493183], [-74.305336, 40.493475], [-74.307115, 40.494195], [-74.308398, 40.494957], [-74.309913, 40.495837], [-74.310002, 40.495874], [-74.310335, 40.495463], [-74.310657, 40.495141], [-74.310959, 40.494924], [-74.311201, 40.4947], [-74.31145, 40.494305], [-74.311674, 40.494122], [-74.311816, 40.494056], [-74.311817, 40.493818], [-74.311876, 40.49371], [-74.311945, 40.493644], [-74.312321, 40.493375], [-74.312849, 40.493055], [-74.313535, 40.492567], [-74.314053, 40.492262], [-74.314314, 40.492021], [-74.315903, 40.491027], [-74.316139, 40.490852], [-74.316424, 40.49061], [-74.316665, 40.49037], [-74.317122, 40.490037], [-74.317405, 40.489805], [-74.317788, 40.489391], [-74.317875, 40.489328], [-74.318255, 40.489122], [-74.318368, 40.489042], [-74.318651, 40.488759], [-74.319041, 40.488217], [-74.319104, 40.488043], [-74.319221, 40.487447], [-74.319614, 40.486847], [-74.319706, 40.486042], [-74.319738, 40.485944], [-74.31992, 40.485631], [-74.319964, 40.485505], [-74.319797, 40.485456], [-74.319418, 40.48542], [-74.319169, 40.485366], [-74.319058, 40.485315], [-74.318925, 40.485197], [-74.318785, 40.485015], [-74.31859, 40.484884], [-74.318512, 40.484815], [-74.318435, 40.484712], [-74.318312, 40.484284], [-74.318119, 40.48347], [-74.318135, 40.48326], [-74.318385, 40.482842], [-74.318481, 40.482629], [-74.318489, 40.482308], [-74.318364, 40.481542], [-74.318099, 40.480614], [-74.318123, 40.479735], [-74.318292, 40.479257], [-74.318294, 40.479194], [-74.318268, 40.479136], [-74.318184, 40.47907], [-74.31797, 40.478992], [-74.317575, 40.478936], [-74.315941, 40.478796], [-74.315705, 40.477611], [-74.315284, 40.477047], [-74.313149, 40.477948], [-74.312475, 40.478289], [-74.312122, 40.478469], [-74.311876, 40.478689], [-74.311641, 40.478953], [-74.311382, 40.479352], [-74.309533, 40.483524], [-74.309328, 40.483934], [-74.309069, 40.484328], [-74.308844, 40.484602], [-74.308584, 40.484872], [-74.308227, 40.485187], [-74.306615, 40.486511], [-74.306341, 40.486786], [-74.306042, 40.487161], [-74.305847, 40.48746], [-74.305604, 40.487935], [-74.304421, 40.49061], [-74.303557, 40.492486], [-74.30236, 40.492187], [-74.302094, 40.492081], [-74.30198, 40.492006], [-74.301849, 40.491869], [-74.301769, 40.491713], [-74.301737, 40.491563], [-74.301754, 40.491411], [-74.30183, 40.491108], [-74.30207, 40.490412], [-74.3023, 40.489894], [-74.303222, 40.487979], [-74.30345, 40.487387], [-74.303351, 40.486878], [-74.303421, 40.48628], [-74.303456, 40.485333], [-74.303427, 40.484783], [-74.303351, 40.484223], [-74.303244, 40.483798], [-74.302873, 40.482748], [-74.302448, 40.481765], [-74.301634, 40.480048], [-74.301069, 40.479019], [-74.299854, 40.476531], [-74.298854, 40.474718], [-74.298396, 40.474009], [-74.297906, 40.473292], [-74.297043, 40.472194], [-74.296713, 40.471811], [-74.295874, 40.470954], [-74.294971, 40.470099], [-74.289762, 40.465542], [-74.28925, 40.465111], [-74.288635, 40.464643], [-74.287763, 40.464071], [-74.286823, 40.463565], [-74.286331, 40.463332], [-74.285825, 40.463121], [-74.283091, 40.462048], [-74.282355, 40.461715], [-74.281877, 40.461455], [-74.281216, 40.461051], [-74.280908, 40.460851], [-74.279823, 40.460086], [-74.279012, 40.459467], [-74.278229, 40.458822], [-74.277292, 40.457989], [-74.276409, 40.457129], [-74.275727, 40.456418], [-74.274918, 40.455523], [-74.273278, 40.453612], [-74.271637, 40.451566], [-74.271217, 40.451009], [-74.270688, 40.450241], [-74.27008, 40.449228], [-74.269756, 40.448632], [-74.268253, 40.445627], [-74.267769, 40.444837], [-74.267507, 40.444451], [-74.267224, 40.444075], [-74.266912, 40.443713], [-74.266575, 40.443361], [-74.266219, 40.44302], [-74.265645, 40.44254], [-74.265027, 40.442086], [-74.264626, 40.441814], [-74.263288, 40.440988], [-74.262618, 40.440609], [-74.257439, 40.437883], [-74.255586, 40.436841], [-74.254699, 40.436317], [-74.253699, 40.4357], [-74.253392, 40.435413], [-74.253087, 40.435165], [-74.252853, 40.434915], [-74.252635, 40.434647], [-74.252458, 40.434385], [-74.252307, 40.434102], [-74.252204, 40.433849], [-74.251868, 40.432675], [-74.251822, 40.432581], [-74.25174, 40.432509], [-74.251636, 40.432466], [-74.25152, 40.432446], [-74.251326, 40.432429], [-74.25122, 40.432401], [-74.251136, 40.43235], [-74.250959, 40.432159], [-74.250521, 40.430878], [-74.249845, 40.429034], [-74.249694, 40.428797], [-74.249473, 40.42857], [-74.248735, 40.428013], [-74.248406, 40.42779], [-74.247507, 40.427393], [-74.246796, 40.427103], [-74.246554, 40.427049], [-74.246286, 40.427019], [-74.246036, 40.426969], [-74.244655, 40.426575], [-74.243126, 40.426262], [-74.238699, 40.426159], [-74.236491, 40.426132], [-74.234631, 40.426084], [-74.234336, 40.42605], [-74.23406, 40.425995], [-74.233785, 40.425913], [-74.23351, 40.425806], [-74.233263, 40.425679], [-74.233046, 40.42554], [-74.232882, 40.425413], [-74.232538, 40.425099], [-74.232284, 40.424927], [-74.232026, 40.42481], [-74.231192, 40.424538], [-74.230979, 40.424447], [-74.229596, 40.423753], [-74.22932, 40.423595], [-74.22626, 40.421426], [-74.225017, 40.420211], [-74.224135, 40.41972], [-74.223789, 40.419585], [-74.223595, 40.41953], [-74.222736, 40.419389], [-74.222441, 40.420294], [-74.222164, 40.421403], [-74.220613, 40.421075], [-74.219797, 40.42156], [-74.220613, 40.421075], [-74.220726, 40.421099], [-74.220963, 40.420459], [-74.221751, 40.420631], [-74.222015, 40.419917], [-74.222538, 40.420022], [-74.222736, 40.419389], [-74.222942, 40.418827], [-74.223184, 40.418029], [-74.223463, 40.41703], [-74.223899, 40.415342], [-74.22395, 40.415081], [-74.223966, 40.414479], [-74.224061, 40.41448], [-74.225507, 40.414174], [-74.226324, 40.41402], [-74.227577, 40.413934], [-74.227745, 40.413942], [-74.227952, 40.413991], [-74.228298, 40.414142], [-74.229809, 40.412084], [-74.230857, 40.411052], [-74.231601, 40.410383], [-74.232651, 40.409485], [-74.23274, 40.409356], [-74.233093, 40.40867], [-74.233216, 40.408469], [-74.235189, 40.406572], [-74.23574, 40.404698], [-74.235849, 40.404523], [-74.236018, 40.40435], [-74.236157, 40.404255], [-74.236396, 40.404164], [-74.236656, 40.404131], [-74.238897, 40.404187], [-74.239541, 40.404214], [-74.239849, 40.404246], [-74.240076, 40.404289], [-74.240525, 40.404461], [-74.24082, 40.404596], [-74.243777, 40.406017], [-74.244312, 40.40626], [-74.244718, 40.406384], [-74.245801, 40.406623], [-74.247039, 40.407023], [-74.247776, 40.407213], [-74.250837, 40.407686], [-74.251248, 40.40776], [-74.252004, 40.407936], [-74.252672, 40.408164], [-74.25315, 40.408365], [-74.254018, 40.408898], [-74.254123, 40.408933], [-74.255435, 40.409151], [-74.259306, 40.409855], [-74.259588, 40.409877], [-74.260277, 40.409845], [-74.262081, 40.409556], [-74.263437, 40.409307], [-74.269404, 40.40817], [-74.272814, 40.407555], [-74.275493, 40.407033], [-74.28756, 40.404773], [-74.299831, 40.402439], [-74.300926, 40.402247], [-74.303225, 40.401999], [-74.30338, 40.402014], [-74.303745, 40.401993], [-74.30532, 40.401809], [-74.306703, 40.401666], [-74.307095, 40.40164], [-74.307625, 40.401655], [-74.308344, 40.401717], [-74.30851, 40.401678], [-74.311287, 40.401783], [-74.312076, 40.401793], [-74.312601, 40.401849], [-74.314106, 40.402238], [-74.323496, 40.404015], [-74.327355, 40.404767], [-74.332175, 40.406033], [-74.335367, 40.406889], [-74.335921, 40.407063], [-74.336114, 40.407146], [-74.336551, 40.407388], [-74.338328, 40.408502], [-74.338803, 40.408773], [-74.339097, 40.408919], [-74.339766, 40.409129], [-74.340619, 40.409288], [-74.344368, 40.409896], [-74.344921, 40.409916], [-74.345542, 40.409904], [-74.346352, 40.409855], [-74.347299, 40.409861], [-74.349636, 40.409971], [-74.349629, 40.409407], [-74.349699, 40.409056], [-74.349696, 40.408844], [-74.348777, 40.406767], [-74.348707, 40.406674], [-74.348488, 40.406269], [-74.348487, 40.406154], [-74.348578, 40.405723], [-74.348201, 40.405671], [-74.347938, 40.405604], [-74.347457, 40.405449], [-74.347178, 40.405308], [-74.346887, 40.40512], [-74.346708, 40.404982], [-74.346448, 40.404711], [-74.346345, 40.404577], [-74.346153, 40.404251], [-74.345611, 40.403085], [-74.345457, 40.402667], [-74.345424, 40.402398], [-74.345459, 40.402095], [-74.345497, 40.402009], [-74.345622, 40.401847], [-74.34595, 40.40151], [-74.345249, 40.400888], [-74.344725, 40.400522], [-74.344464, 40.400288], [-74.345174, 40.399882], [-74.345601, 40.400182]]}, "properties": {"seed": 3, "km": 50.2, "minutes": 71, "backroad_pct": 45, "state_road_pct": 50, "highway_pct": 24, "stroke": "#d33", "stroke-width": 3}}, {"type": "Feature", "geometry": {"type": "LineString", "coordinates": [[-74.345601, 40.400182], [-74.346271, 40.400653], [-74.346691, 40.401137], [-74.347234, 40.400927], [-74.347658, 40.400872], [-74.347815, 40.400875], [-74.349279, 40.40108], [-74.350105, 40.400427], [-74.350324, 40.400272], [-74.348687, 40.398842], [-74.34317, 40.394228], [-74.340309, 40.391848], [-74.333925, 40.386585], [-74.332095, 40.385188], [-74.331011, 40.38442], [-74.326034, 40.381384], [-74.325857, 40.381543], [-74.325396, 40.381714], [-74.325092, 40.381797], [-74.324636, 40.381867], [-74.323842, 40.381935], [-74.322483, 40.382114], [-74.320758, 40.382378], [-74.319161, 40.38252], [-74.318615, 40.382632], [-74.317997, 40.382868], [-74.316093, 40.383681], [-74.315656, 40.383821], [-74.314856, 40.38402], [-74.314434, 40.384101], [-74.314015, 40.384159], [-74.313349, 40.384208], [-74.309015, 40.384156], [-74.308132, 40.384119], [-74.308118, 40.385599], [-74.307973, 40.387123], [-74.307866, 40.388834], [-74.307871, 40.390063], [-74.307904, 40.390789], [-74.307722, 40.392231], [-74.307695, 40.39257], [-74.307678, 40.392983], [-74.307601, 40.393735], [-74.30744, 40.394749], [-74.307182, 40.396697], [-74.306885, 40.398058], [-74.306832, 40.398583], [-74.306775, 40.39867], [-74.306709, 40.39873], [-74.306628, 40.398767], [-74.30655, 40.398778], [-74.306412, 40.398779], [-74.30564, 40.398712], [-74.305445, 40.398721], [-74.305295, 40.398748], [-74.304493, 40.39899], [-74.304314, 40.399068], [-74.304163, 40.399171], [-74.304013, 40.399335], [-74.303957, 40.399445], [-74.303256, 40.401342], [-74.303234, 40.401449], [-74.303247, 40.401738], [-74.303226, 40.401861], [-74.303112, 40.401983], [-74.30297, 40.402027], [-74.300926, 40.402247], [-74.299831, 40.402439], [-74.295996, 40.403172], [-74.294872, 40.406985], [-74.294965, 40.407546], [-74.295141, 40.409064], [-74.29522, 40.410599], [-74.295087, 40.411597], [-74.294263, 40.41462], [-74.293087, 40.4178], [-74.29239, 40.419132], [-74.292008, 40.419941], [-74.291782, 40.420293], [-74.291484, 40.420648], [-74.290041, 40.422002], [-74.289426, 40.422714], [-74.287606, 40.424744], [-74.286732, 40.424672], [-74.285644, 40.424698], [-74.28414, 40.424804], [-74.282421, 40.424897], [-74.28058, 40.425138], [-74.279181, 40.425342], [-74.278503, 40.425411], [-74.277743, 40.425446], [-74.275752, 40.425402], [-74.275062, 40.425372], [-74.274579, 40.425333], [-74.273709, 40.425171], [-74.273142, 40.425], [-74.27306, 40.425048], [-74.272756, 40.42514], [-74.271498, 40.42517], [-74.267332, 40.425342], [-74.264217, 40.425576], [-74.262764, 40.425631], [-74.258341, 40.425857], [-74.257988, 40.425951], [-74.257835, 40.426038], [-74.257016, 40.426939], [-74.256893, 40.427107], [-74.2568, 40.427284], [-74.256673, 40.427608], [-74.25638, 40.428227], [-74.256288, 40.428334], [-74.256069, 40.428459], [-74.255878, 40.428509], [-74.255459, 40.428586], [-74.25157, 40.42882], [-74.250635, 40.428887], [-74.250166, 40.42894], [-74.249845, 40.429034], [-74.24903, 40.429341], [-74.247813, 40.429743], [-74.243816, 40.431157], [-74.244425, 40.432111], [-74.24451, 40.432295], [-74.244538, 40.432466], [-74.244519, 40.432592], [-74.244305, 40.433027], [-74.244154, 40.433203], [-74.243732, 40.433615], [-74.243298, 40.433941], [-74.240835, 40.435689], [-74.239232, 40.437067], [-74.238933, 40.437353], [-74.238622, 40.437602], [-74.23772, 40.4384], [-74.237316, 40.438682], [-74.236356, 40.439301], [-74.234152, 40.440512], [-74.235386, 40.441641], [-74.235878, 40.442124], [-74.235386, 40.441641], [-74.234152, 40.440512], [-74.231014, 40.442239], [-74.229858, 40.442889], [-74.229751, 40.442968], [-74.226498, 40.440294], [-74.224946, 40.438994], [-74.226956, 40.438413], [-74.226927, 40.438331], [-74.227002, 40.438128], [-74.227848, 40.436092], [-74.230262, 40.430157], [-74.230378, 40.429834], [-74.230398, 40.429664], [-74.23038, 40.429505], [-74.229996, 40.427765], [-74.229907, 40.427235], [-74.22992, 40.427136], [-74.23001, 40.42693], [-74.230155, 40.426707], [-74.230886, 40.425417], [-74.231192, 40.424538], [-74.231277, 40.424237], [-74.231309, 40.424039], [-74.231292, 40.42388], [-74.231173, 40.423426], [-74.231163, 40.423319], [-74.23119, 40.423106], [-74.231248, 40.422963], [-74.232943, 40.420186], [-74.233142, 40.419792], [-74.233189, 40.419558], [-74.233183, 40.418941], [-74.23324, 40.418759], [-74.233645, 40.418203], [-74.23369, 40.418014], [-74.233456, 40.416975], [-74.233531, 40.41643], [-74.233505, 40.415853], [-74.232321, 40.415692], [-74.232133, 40.415638], [-74.231869, 40.41553], [-74.23146, 40.415321], [-74.229913, 40.414315], [-74.231826, 40.411888], [-74.232131, 40.411559], [-74.236544, 40.407138], [-74.236796, 40.406841], [-74.236878, 40.40663], [-74.23723, 40.404475], [-74.237443, 40.403001], [-74.237578, 40.402239], [-74.237595, 40.40187], [-74.23756, 40.40172], [-74.237468, 40.401484], [-74.236294, 40.398608], [-74.236172, 40.398117], [-74.236187, 40.397855], [-74.236523, 40.39603], [-74.23679, 40.394081], [-74.236907, 40.393444], [-74.23729, 40.39238], [-74.237487, 40.391778], [-74.237939, 40.390621], [-74.23904, 40.387577], [-74.239287, 40.38696], [-74.240238, 40.385044], [-74.24075, 40.384052], [-74.240972, 40.383511], [-74.241291, 40.382916], [-74.242197, 40.381062], [-74.242765, 40.379948], [-74.244555, 40.376261], [-74.244918, 40.375434], [-74.247478, 40.36801], [-74.247654, 40.367408], [-74.24774, 40.366973], [-74.247897, 40.365643], [-74.247577, 40.36561], [-74.247342, 40.365548], [-74.247129, 40.365456], [-74.243577, 40.363261], [-74.240074, 40.36066], [-74.237023, 40.357883], [-74.236881, 40.357724], [-74.235961, 40.356438], [-74.236209, 40.356218], [-74.236504, 40.355758], [-74.239014, 40.35321], [-74.239284, 40.352954], [-74.24, 40.352377], [-74.239544, 40.352039], [-74.239372, 40.35181], [-74.239243, 40.351508], [-74.239275, 40.351238], [-74.239393, 40.350592], [-74.239517, 40.350057], [-74.240895, 40.35024], [-74.241142, 40.350216], [-74.24291, 40.349402], [-74.243232, 40.349639], [-74.24382, 40.350402], [-74.245703, 40.349576], [-74.249169, 40.347928], [-74.249752, 40.347662], [-74.250065, 40.347539], [-74.249604, 40.346028], [-74.249758, 40.345972], [-74.252533, 40.344274], [-74.254463, 40.343229], [-74.255461, 40.342729], [-74.255773, 40.342532], [-74.256141, 40.342241], [-74.256351, 40.342008], [-74.257945, 40.339681], [-74.259105, 40.339933], [-74.25958, 40.340001], [-74.259809, 40.340013], [-74.26013, 40.339981], [-74.261314, 40.339777], [-74.269501, 40.337459], [-74.269817, 40.337942], [-74.270163, 40.338588], [-74.270512, 40.33933], [-74.2706, 40.339601], [-74.270623, 40.339875], [-74.270591, 40.3406], [-74.270633, 40.340835], [-74.270687, 40.340976], [-74.270906, 40.341315], [-74.271608, 40.341959], [-74.272146, 40.342497], [-74.272361, 40.342645], [-74.272819, 40.342845], [-74.275256, 40.343796], [-74.276324, 40.344283], [-74.276758, 40.344507], [-74.277193, 40.344756], [-74.278005, 40.345248], [-74.279253, 40.345928], [-74.279687, 40.346117], [-74.280201, 40.346311], [-74.281164, 40.346643], [-74.281731, 40.346843], [-74.282147, 40.347033], [-74.282476, 40.347263], [-74.283323, 40.347935], [-74.283579, 40.348203], [-74.284302, 40.349149], [-74.284536, 40.349407], [-74.285247, 40.350434], [-74.285987, 40.351431], [-74.287121, 40.353058], [-74.287263, 40.353303], [-74.288057, 40.354398], [-74.293063, 40.361563], [-74.293427, 40.362045], [-74.29395, 40.36268], [-74.294567, 40.363356], [-74.29501, 40.3638], [-74.295858, 40.364571], [-74.296447, 40.365057], [-74.296941, 40.365434], [-74.297709, 40.365978], [-74.29828, 40.366348], [-74.299112, 40.366837], [-74.301528, 40.368148], [-74.306545, 40.370725], [-74.314447, 40.374882], [-74.315621, 40.375452], [-74.316436, 40.375875], [-74.317293, 40.376354], [-74.324377, 40.380672], [-74.325857, 40.381543], [-74.326968, 40.382258], [-74.3293, 40.383612], [-74.329983, 40.384029], [-74.331798, 40.385246], [-74.333727, 40.386745], [-74.336997, 40.389419], [-74.340095, 40.392036], [-74.34293, 40.394385], [-74.346114, 40.397078], [-74.346912, 40.397699], [-74.350105, 40.400427], [-74.349279, 40.40108], [-74.347815, 40.400875], [-74.347658, 40.400872], [-74.347621, 40.400773], [-74.347618, 40.400666], [-74.347573, 40.40052], [-74.347443, 40.400375], [-74.347299, 40.400288], [-74.347106, 40.400202], [-74.346881, 40.400131], [-74.345796, 40.399414], [-74.345174, 40.399882], [-74.345601, 40.400182]]}, "properties": {"seed": 4, "km": 42.4, "minutes": 54, "backroad_pct": 46, "state_road_pct": 54, "highway_pct": 10, "stroke": "#d33", "stroke-width": 3}}, {"type": "Feature", "geometry": {"type": "LineString", "coordinates": [[-74.345601, 40.400182], [-74.346271, 40.400653], [-74.346691, 40.401137], [-74.347234, 40.400927], [-74.347658, 40.400872], [-74.347815, 40.400875], [-74.349279, 40.40108], [-74.349815, 40.400656], [-74.350105, 40.400427], [-74.354207, 40.403745], [-74.35578, 40.404928], [-74.356842, 40.405664], [-74.358579, 40.406855], [-74.358998, 40.407165], [-74.359374, 40.407474], [-74.36001, 40.408124], [-74.360769, 40.409021], [-74.36113, 40.409397], [-74.361607, 40.409813], [-74.362013, 40.410099], [-74.362663, 40.410517], [-74.364928, 40.411817], [-74.366259, 40.412769], [-74.367635, 40.413832], [-74.367735, 40.413908], [-74.369078, 40.415022], [-74.370672, 40.416186], [-74.371004, 40.416443], [-74.372002, 40.417192], [-74.372666, 40.417689], [-74.372926, 40.417884], [-74.373336, 40.418186], [-74.373778, 40.418503], [-74.374371, 40.418961], [-74.374884, 40.419441], [-74.375187, 40.419764], [-74.375348, 40.419953], [-74.375848, 40.420491], [-74.375933, 40.420583], [-74.376318, 40.420998], [-74.376589, 40.421297], [-74.376688, 40.421406], [-74.376852, 40.421588], [-74.377042, 40.421797], [-74.377398, 40.42219], [-74.377519, 40.422324], [-74.377903, 40.422732], [-74.378171, 40.423007], [-74.378708, 40.423559], [-74.378792, 40.423645], [-74.378896, 40.423752], [-74.378912, 40.423768], [-74.379818, 40.42474], [-74.380003, 40.424942], [-74.380078, 40.425025], [-74.380266, 40.425232], [-74.380837, 40.425849], [-74.381111, 40.426137], [-74.381406, 40.426437], [-74.382499, 40.427639], [-74.382683, 40.427841], [-74.382926, 40.4281], [-74.383172, 40.428363], [-74.38338, 40.428585], [-74.383494, 40.428712], [-74.38389, 40.42913], [-74.384324, 40.429593], [-74.384926, 40.430229], [-74.3852, 40.430518], [-74.385327, 40.430653], [-74.385621, 40.430964], [-74.385708, 40.431056], [-74.3859, 40.431258], [-74.386263, 40.431642], [-74.386456, 40.431846], [-74.387115, 40.432573], [-74.38721, 40.432679], [-74.387619, 40.433134], [-74.387962, 40.433516], [-74.388506, 40.434111], [-74.388987, 40.434627], [-74.389316, 40.434983], [-74.389665, 40.43536], [-74.390185, 40.435923], [-74.390507, 40.436273], [-74.390585, 40.436357], [-74.390727, 40.436511], [-74.391019, 40.436826], [-74.391324, 40.437155], [-74.391603, 40.437448], [-74.391657, 40.437505], [-74.391919, 40.437792], [-74.392171, 40.438044], [-74.39238, 40.438295], [-74.392532, 40.43846], [-74.392584, 40.438521], [-74.392588, 40.438598], [-74.392622, 40.438659], [-74.392634, 40.438731], [-74.392607, 40.438817], [-74.392408, 40.43903], [-74.39237, 40.439126], [-74.39228, 40.439231], [-74.392176, 40.439289], [-74.392076, 40.43939], [-74.392071, 40.439496], [-74.392094, 40.439585], [-74.392204, 40.439681], [-74.392319, 40.439737], [-74.39283, 40.439773], [-74.393213, 40.439717], [-74.393384, 40.439673], [-74.393747, 40.439532], [-74.393929, 40.43943], [-74.394112, 40.439281], [-74.394251, 40.439077], [-74.394306, 40.438878], [-74.394342, 40.43839], [-74.394386, 40.438038], [-74.394441, 40.437882], [-74.394523, 40.43773], [-74.394643, 40.437586], [-74.394807, 40.437436], [-74.394855, 40.437358], [-74.394882, 40.437335], [-74.395097, 40.437217], [-74.39575, 40.436858], [-74.395877, 40.436789], [-74.396233, 40.436593], [-74.39637, 40.436518], [-74.396865, 40.436234], [-74.397119, 40.436089], [-74.398288, 40.435432], [-74.398838, 40.435128], [-74.399436, 40.434797], [-74.399831, 40.434579], [-74.399994, 40.434493], [-74.400394, 40.434284], [-74.400427, 40.434267], [-74.400768, 40.434088], [-74.401535, 40.433686], [-74.402419, 40.433209], [-74.402637, 40.433054], [-74.402783, 40.432949], [-74.403068, 40.432643], [-74.403292, 40.432319], [-74.403379, 40.432194], [-74.40345, 40.432049], [-74.4036, 40.431747], [-74.403689, 40.431551], [-74.403888, 40.431055], [-74.404079, 40.430628], [-74.404305, 40.430135], [-74.404461, 40.429802], [-74.404629, 40.429495], [-74.404649, 40.429462], [-74.404916, 40.429022], [-74.405422, 40.428452], [-74.406266, 40.427612], [-74.406426, 40.427474], [-74.407351, 40.426845], [-74.407809, 40.4266], [-74.408289, 40.426406], [-74.408458, 40.426353], [-74.408834, 40.426242], [-74.40922, 40.426168], [-74.409764, 40.42608], [-74.410877, 40.426008], [-74.411739, 40.425915], [-74.412529, 40.425807], [-74.413719, 40.425661], [-74.414192, 40.425596], [-74.414774, 40.425553], [-74.416278, 40.425507], [-74.41695, 40.42547], [-74.417221, 40.425436], [-74.418112, 40.425254], [-74.418495, 40.425162], [-74.418918, 40.425039], [-74.419603, 40.424868], [-74.419903, 40.424778], [-74.42059, 40.424536], [-74.420618, 40.424526], [-74.420889, 40.424414], [-74.422056, 40.424056], [-74.422901, 40.423875], [-74.423708, 40.423703], [-74.424289, 40.423551], [-74.424725, 40.423474], [-74.425102, 40.423366], [-74.4258, 40.423119], [-74.426445, 40.422854], [-74.42734, 40.422524], [-74.428333, 40.422164], [-74.429956, 40.421696], [-74.430086, 40.421639], [-74.430316, 40.421497], [-74.430631, 40.421272], [-74.430892, 40.421053], [-74.431208, 40.421319], [-74.431469, 40.42151], [-74.431886, 40.421843], [-74.432608, 40.422334], [-74.433107, 40.422714], [-74.433464, 40.422985], [-74.43396, 40.423369], [-74.434541, 40.423835], [-74.435129, 40.424303], [-74.435395, 40.424491], [-74.435715, 40.424669], [-74.436407, 40.424909], [-74.436842, 40.424989], [-74.43782, 40.425077], [-74.438297, 40.425087], [-74.438558, 40.425105], [-74.439233, 40.425193], [-74.440654, 40.425383], [-74.442727, 40.425654], [-74.442963, 40.425686], [-74.443436, 40.425769], [-74.44367, 40.425836], [-74.444056, 40.426008], [-74.444263, 40.426136], [-74.444437, 40.426271], [-74.445052, 40.42697], [-74.445402, 40.427515], [-74.445463, 40.427584], [-74.445946, 40.42807], [-74.446374, 40.428324], [-74.447178, 40.428506], [-74.448981, 40.428724], [-74.4493, 40.428785], [-74.449639, 40.428941], [-74.449761, 40.429013], [-74.450324, 40.429358], [-74.451112, 40.429837], [-74.45261, 40.430767], [-74.455337, 40.432461], [-74.455726, 40.432703], [-74.457772, 40.433985], [-74.458473, 40.434429], [-74.459451, 40.435005], [-74.460225, 40.434463], [-74.460715, 40.43415], [-74.461396, 40.433714], [-74.46268, 40.432891], [-74.463732, 40.432217], [-74.464146, 40.431951], [-74.465479, 40.430999], [-74.465827, 40.430741], [-74.466053, 40.430597], [-74.466305, 40.430462], [-74.466884, 40.430229], [-74.467224, 40.430131], [-74.467896, 40.430008], [-74.468328, 40.429899], [-74.468586, 40.429802], [-74.468679, 40.429763], [-74.469763, 40.429273], [-74.469925, 40.429195], [-74.470464, 40.42893], [-74.471085, 40.428618], [-74.471416, 40.42845], [-74.471953, 40.428104], [-74.473167, 40.427176], [-74.473714, 40.426764], [-74.474166, 40.426466], [-74.475115, 40.425896], [-74.475324, 40.425733], [-74.476488, 40.424658], [-74.476949, 40.424235], [-74.477145, 40.42408], [-74.477341, 40.424152], [-74.478337, 40.424371], [-74.478634, 40.424459], [-74.478798, 40.424525], [-74.479051, 40.424652], [-74.479265, 40.424798], [-74.479399, 40.42491], [-74.479463, 40.42498], [-74.479638, 40.425193], [-74.47968, 40.425248], [-74.480394, 40.42617], [-74.48138, 40.427477], [-74.481677, 40.427856], [-74.482388, 40.428763], [-74.482682, 40.429137], [-74.484395, 40.431298], [-74.485032, 40.432134], [-74.485142, 40.432274], [-74.48584, 40.433165], [-74.486165, 40.433579], [-74.485479, 40.433988], [-74.485153, 40.434185], [-74.484972, 40.434297], [-74.484702, 40.434468], [-74.484556, 40.434583], [-74.48439, 40.434744], [-74.48424, 40.434918], [-74.483892, 40.435282], [-74.483632, 40.435494], [-74.482663, 40.436183], [-74.482302, 40.436428], [-74.481693, 40.436789], [-74.481459, 40.43691], [-74.481103, 40.437054], [-74.480947, 40.437117], [-74.48013, 40.437423], [-74.47986, 40.43752], [-74.479388, 40.437699], [-74.478873, 40.437896], [-74.478196, 40.438169], [-74.478046, 40.438263], [-74.477721, 40.438473], [-74.477456, 40.438691], [-74.477264, 40.438899], [-74.47712, 40.43917], [-74.476965, 40.439486], [-74.476871, 40.439694], [-74.476709, 40.440007], [-74.476568, 40.440177], [-74.47609, 40.440653], [-74.476027, 40.440784], [-74.476055, 40.440987], [-74.47602, 40.441055], [-74.475954, 40.441118], [-74.475525, 40.44135], [-74.474487, 40.441897], [-74.474177, 40.442058], [-74.474025, 40.442136], [-74.473707, 40.442293], [-74.473208, 40.442529], [-74.472872, 40.442696], [-74.472495, 40.442883], [-74.47243, 40.442914], [-74.472065, 40.44309], [-74.4716, 40.443314], [-74.471359, 40.443427], [-74.471151, 40.443527], [-74.470791, 40.443699], [-74.470682, 40.44375], [-74.470414, 40.443872], [-74.469828, 40.444148], [-74.469478, 40.444314], [-74.469295, 40.444411], [-74.468696, 40.444694], [-74.468411, 40.444832], [-74.468214, 40.444927], [-74.467721, 40.445182], [-74.467266, 40.445491], [-74.467014, 40.445664], [-74.466559, 40.445992], [-74.466145, 40.446308], [-74.465885, 40.446506], [-74.46548, 40.446853], [-74.464827, 40.447493], [-74.464332, 40.447968], [-74.463776, 40.448447], [-74.462896, 40.449126], [-74.462517, 40.449383], [-74.462418, 40.449454], [-74.459848, 40.45131], [-74.45957, 40.451564], [-74.459223, 40.451879], [-74.458816, 40.452361], [-74.458656, 40.452551], [-74.458431, 40.452895], [-74.458257, 40.453198], [-74.457804, 40.454139], [-74.456997, 40.455565], [-74.456225, 40.456794], [-74.455667, 40.457778], [-74.455479, 40.45818], [-74.455289, 40.458626], [-74.455212, 40.458939], [-74.45495, 40.4598], [-74.45486, 40.460232], [-74.454813, 40.460673], [-74.454817, 40.461545], [-74.45479, 40.461873], [-74.454731, 40.462073], [-74.454688, 40.462162], [-74.454603, 40.462304], [-74.454497, 40.462437], [-74.45435, 40.462573], [-74.454193, 40.462689], [-74.454024, 40.462787], [-74.453832, 40.462873], [-74.45077, 40.463792], [-74.449244, 40.464319], [-74.447616, 40.464766], [-74.444768, 40.465543], [-74.443782, 40.465815], [-74.44027, 40.466769], [-74.438261, 40.467308], [-74.437787, 40.467437], [-74.437014, 40.467672], [-74.43649, 40.467872], [-74.43599, 40.468097], [-74.435283, 40.468481], [-74.434623, 40.468925], [-74.433437, 40.469893], [-74.432747, 40.470451], [-74.43017, 40.472547], [-74.428148, 40.474193], [-74.427445, 40.474762], [-74.425606, 40.476263], [-74.423934, 40.477623], [-74.421681, 40.479472], [-74.421311, 40.479807], [-74.420785, 40.480327], [-74.419894, 40.481302], [-74.418121, 40.483327], [-74.417797, 40.483705], [-74.417741, 40.48377], [-74.416666, 40.484986], [-74.416587, 40.485068], [-74.416453, 40.485223], [-74.41636, 40.485331], [-74.415691, 40.486107], [-74.415097, 40.486789], [-74.414266, 40.487815], [-74.413922, 40.488325], [-74.413783, 40.488595], [-74.413662, 40.488878], [-74.413568, 40.48917], [-74.413434, 40.489731], [-74.412685, 40.493361], [-74.412372, 40.494875], [-74.41216, 40.495707], [-74.411983, 40.496156], [-74.411795, 40.496499], [-74.411601, 40.496762], [-74.411569, 40.496805], [-74.411194, 40.49725], [-74.410836, 40.497578], [-74.410593, 40.497772], [-74.410218, 40.498009], [-74.409903, 40.498202], [-74.40929, 40.498535], [-74.409152, 40.498613], [-74.409123, 40.498629], [-74.408657, 40.498808], [-74.408491, 40.498845], [-74.407689, 40.498907], [-74.407556, 40.498909], [-74.407257, 40.498914], [-74.406559, 40.498881], [-74.406318, 40.498893], [-74.406032, 40.498972], [-74.405595, 40.499181], [-74.405395, 40.499261], [-74.405213, 40.499301], [-74.404487, 40.499345], [-74.404093, 40.499349], [-74.403578, 40.49938], [-74.403074, 40.49945], [-74.402516, 40.499579], [-74.402032, 40.499728], [-74.401759, 40.499862], [-74.40108, 40.50009], [-74.400326, 40.500326], [-74.399895, 40.500399], [-74.399433, 40.500438], [-74.399054, 40.500471], [-74.398774, 40.500495], [-74.398379, 40.500529], [-74.397883, 40.500575], [-74.397372, 40.500631], [-74.396072, 40.500828], [-74.395181, 40.500974], [-74.39495, 40.501014], [-74.394234, 40.501135], [-74.39407, 40.501162], [-74.393692, 40.501228], [-74.392965, 40.501347], [-74.392446, 40.501447], [-74.391741, 40.501627], [-74.391697, 40.501638], [-74.391338, 40.501733], [-74.391017, 40.501817], [-74.390244, 40.502021], [-74.390119, 40.502054], [-74.389685, 40.502168], [-74.389172, 40.502304], [-74.389081, 40.502327], [-74.388668, 40.502436], [-74.388115, 40.502582], [-74.387946, 40.502626], [-74.387765, 40.502674], [-74.386236, 40.503077], [-74.386154, 40.503098], [-74.385921, 40.50316], [-74.385668, 40.503226], [-74.385087, 40.50338], [-74.384726, 40.503475], [-74.384339, 40.503576], [-74.384175, 40.50362], [-74.383999, 40.503666], [-74.383191, 40.503879], [-74.38298, 40.503935], [-74.382171, 40.504148], [-74.38204, 40.504182], [-74.381956, 40.504204], [-74.381894, 40.504219], [-74.38146, 40.504329], [-74.380643, 40.50453], [-74.380452, 40.504563], [-74.380288, 40.504589], [-74.380078, 40.504603], [-74.379745, 40.504582], [-74.378967, 40.504342], [-74.377857, 40.504032], [-74.377353, 40.503922], [-74.376891, 40.503869], [-74.376489, 40.503877], [-74.376146, 40.503922], [-74.375738, 40.504028], [-74.375384, 40.50415], [-74.375099, 40.504276], [-74.374799, 40.504472], [-74.374372, 40.504859], [-74.374177, 40.505124], [-74.374082, 40.505281], [-74.373869, 40.505726], [-74.373776, 40.505931], [-74.373466, 40.506596], [-74.37327, 40.506826], [-74.373125, 40.50705], [-74.372905, 40.507229], [-74.372685, 40.507336], [-74.372492, 40.507397], [-74.372278, 40.507421], [-74.372101, 40.507384], [-74.371865, 40.507283], [-74.371677, 40.507136], [-74.371511, 40.506899], [-74.371398, 40.506663], [-74.371129, 40.50572], [-74.371023, 40.504855], [-74.370946, 40.504759], [-74.370914, 40.504495], [-74.370865, 40.504104], [-74.370854, 40.504027], [-74.370575, 40.502119], [-74.370567, 40.502069], [-74.369952, 40.502142], [-74.369837, 40.502155], [-74.36977, 40.502194], [-74.369668, 40.50189], [-74.369623, 40.501751], [-74.369569, 40.501592], [-74.369516, 40.501441], [-74.369461, 40.501281], [-74.368475, 40.501478], [-74.36792, 40.501589], [-74.367977, 40.501748], [-74.368033, 40.501906], [-74.368085, 40.502052], [-74.368124, 40.502172], [-74.368212, 40.502422], [-74.36831, 40.502414], [-74.368606, 40.504285], [-74.368728, 40.504263], [-74.369258, 40.504225], [-74.369967, 40.504169], [-74.370211, 40.504134], [-74.370469, 40.504112], [-74.370538, 40.504122], [-74.370609, 40.504153], [-74.370692, 40.504221], [-74.370778, 40.504335], [-74.370946, 40.504759], [-74.370883, 40.504856], [-74.371011, 40.505729], [-74.371134, 40.50668], [-74.371206, 40.507192], [-74.371186, 40.507401], [-74.371039, 40.507954], [-74.370851, 40.508282], [-74.370595, 40.508519], [-74.369529, 40.509223], [-74.36852, 40.509775], [-74.366311, 40.510968], [-74.366001, 40.511198], [-74.365412, 40.511532], [-74.365367, 40.511583], [-74.365363, 40.511662], [-74.365712, 40.51312], [-74.365774, 40.513392], [-74.365854, 40.513748], [-74.366067, 40.514216], [-74.366303, 40.514188], [-74.366592, 40.514196], [-74.367617, 40.51437], [-74.368472, 40.514512], [-74.368521, 40.51452], [-74.36941, 40.514669], [-74.369867, 40.514713], [-74.370452, 40.514693], [-74.370917, 40.514668], [-74.372139, 40.514638], [-74.372562, 40.514661], [-74.373142, 40.514792], [-74.373656, 40.514908], [-74.373741, 40.514928], [-74.374013, 40.514977], [-74.374098, 40.514995], [-74.374228, 40.51502], [-74.37432, 40.515037], [-74.37454, 40.515083], [-74.374843, 40.515143], [-74.375089, 40.515179], [-74.375601, 40.51496], [-74.375721, 40.51491], [-74.376057, 40.514771], [-74.376565, 40.514561], [-74.376855, 40.514441], [-74.377248, 40.514283], [-74.377494, 40.514185], [-74.378319, 40.513831], [-74.382776, 40.511971], [-74.38313, 40.511823], [-74.384537, 40.511237], [-74.384841, 40.51111], [-74.385268, 40.510937], [-74.385743, 40.510738], [-74.385898, 40.510673], [-74.386013, 40.510625], [-74.386572, 40.51039], [-74.386673, 40.510348], [-74.386871, 40.510264], [-74.387304, 40.510089], [-74.387753, 40.509898], [-74.388018, 40.509794], [-74.388351, 40.509649], [-74.388824, 40.509439], [-74.389374, 40.509179], [-74.389755, 40.50899], [-74.390215, 40.50875], [-74.390966, 40.508357], [-74.391564, 40.50805], [-74.391855, 40.507889], [-74.392376, 40.507606], [-74.392644, 40.50746], [-74.393262, 40.507149], [-74.39428, 40.506625], [-74.394734, 40.506392], [-74.3959, 40.505792], [-74.39651, 40.505468], [-74.396706, 40.505356], [-74.397575, 40.504903], [-74.397885, 40.50474], [-74.398799, 40.504254], [-74.399132, 40.504076], [-74.399337, 40.503966], [-74.399847, 40.503692], [-74.400243, 40.503479], [-74.400774, 40.503194], [-74.401526, 40.50279], [-74.401994, 40.502542], [-74.402847, 40.502104], [-74.403684, 40.501651], [-74.404278, 40.501341], [-74.404732, 40.501113], [-74.405264, 40.500821], [-74.406785, 40.500036], [-74.407546, 40.499657], [-74.409202, 40.498779], [-74.410008, 40.498359], [-74.41029, 40.498202], [-74.410573, 40.498018], [-74.41098, 40.497698], [-74.411414, 40.497298], [-74.411743, 40.496914], [-74.412128, 40.496372], [-74.412436, 40.495783], [-74.412765, 40.494932], [-74.412865, 40.494548], [-74.413097, 40.493328], [-74.413856, 40.48973], [-74.414031, 40.489051], [-74.414198, 40.488568], [-74.414432, 40.488083], [-74.414665, 40.487677], [-74.414748, 40.487533], [-74.415125, 40.487015], [-74.415506, 40.486572], [-74.415799, 40.486224], [-74.416209, 40.485754], [-74.416253, 40.485696], [-74.416465, 40.485457], [-74.416588, 40.485369], [-74.416832, 40.485199], [-74.416991, 40.485113], [-74.417219, 40.485022], [-74.417414, 40.484966], [-74.418477, 40.484794], [-74.418541, 40.484784], [-74.418875, 40.484688], [-74.418993, 40.484635], [-74.419094, 40.484567], [-74.419166, 40.484495], [-74.41925, 40.484367], [-74.419292, 40.484231], [-74.419295, 40.484139], [-74.419236, 40.483967], [-74.419114, 40.483818], [-74.418971, 40.483677], [-74.418524, 40.483302], [-74.41815, 40.483086], [-74.417684, 40.482875], [-74.417282, 40.482745], [-74.416859, 40.482659], [-74.416065, 40.482572], [-74.415753, 40.482541], [-74.41503, 40.482465], [-74.414139, 40.482369], [-74.41384, 40.482316], [-74.4136, 40.482257], [-74.413239, 40.482139], [-74.412868, 40.481977], [-74.412573, 40.481811], [-74.41216, 40.481506], [-74.41192, 40.481271], [-74.411764, 40.481091], [-74.411629, 40.480898], [-74.411522, 40.480702], [-74.411263, 40.480079], [-74.411114, 40.479652], [-74.410927, 40.479113], [-74.410673, 40.478459], [-74.410607, 40.47829], [-74.410553, 40.478151], [-74.410453, 40.477989], [-74.410291, 40.477591], [-74.410137, 40.477147], [-74.410044, 40.476769], [-74.409734, 40.474885], [-74.409705, 40.474582], [-74.409462, 40.473353], [-74.40909, 40.471485], [-74.408921, 40.470628], [-74.408912, 40.470576], [-74.408882, 40.470412], [-74.408794, 40.470161], [-74.40871, 40.469811], [-74.40862, 40.469572], [-74.408469, 40.46917], [-74.408148, 40.468529], [-74.407948, 40.468183], [-74.407798, 40.467923], [-74.407698, 40.46777], [-74.407418, 40.46735], [-74.407145, 40.46699], [-74.406862, 40.466617], [-74.406569, 40.466244], [-74.406388, 40.466013], [-74.406346, 40.465959], [-74.406088, 40.465621], [-74.405979, 40.465478], [-74.405686, 40.46512], [-74.40522, 40.46449], [-74.405023, 40.464196], [-74.404873, 40.463946], [-74.404624, 40.463546], [-74.404573, 40.463446], [-74.404549, 40.463376], [-74.404454, 40.463309], [-74.40416, 40.462779], [-74.403408, 40.461302], [-74.403252, 40.460997], [-74.40296, 40.460421], [-74.402739, 40.459995], [-74.402494, 40.459508], [-74.402362, 40.459253], [-74.402233, 40.458986], [-74.402184, 40.458894], [-74.401913, 40.458377], [-74.401786, 40.458134], [-74.401617, 40.457804], [-74.401507, 40.457587], [-74.401422, 40.457402], [-74.401321, 40.457211], [-74.40125, 40.457062], [-74.400983, 40.456505], [-74.400524, 40.4556], [-74.400215, 40.45505], [-74.400026, 40.454635], [-74.399928, 40.454451], [-74.399225, 40.453113], [-74.398831, 40.452351], [-74.398708, 40.452109], [-74.398649, 40.451994], [-74.398477, 40.451654], [-74.398394, 40.45149], [-74.398282, 40.451265], [-74.398147, 40.450996], [-74.398087, 40.450875], [-74.397963, 40.450627], [-74.397897, 40.450496], [-74.397833, 40.450369], [-74.397545, 40.449838], [-74.397367, 40.449491], [-74.397317, 40.449391], [-74.397167, 40.449092], [-74.397125, 40.449008], [-74.396869, 40.448499], [-74.396818, 40.448385], [-74.396675, 40.448111], [-74.396324, 40.447248], [-74.396242, 40.447024], [-74.396151, 40.446775], [-74.395911, 40.446052], [-74.395676, 40.445136], [-74.395398, 40.444252], [-74.395295, 40.443953], [-74.395203, 40.443635], [-74.394721, 40.442361], [-74.394625, 40.442041], [-74.394518, 40.441734], [-74.394498, 40.441678], [-74.394271, 40.441032], [-74.394167, 40.440759], [-74.39397, 40.440307], [-74.393674, 40.439803], [-74.393369, 40.439282], [-74.393207, 40.439063], [-74.393141, 40.43896], [-74.392483, 40.438186], [-74.392393, 40.438088], [-74.391572, 40.437184], [-74.391255, 40.436841], [-74.391016, 40.436583], [-74.390184, 40.435681], [-74.389742, 40.435222], [-74.389044, 40.434478], [-74.388643, 40.434033], [-74.388057, 40.433401], [-74.387842, 40.433169], [-74.387752, 40.433072], [-74.387609, 40.432917], [-74.387438, 40.432733], [-74.387304, 40.432588], [-74.386684, 40.431919], [-74.386367, 40.431577], [-74.386114, 40.431305], [-74.385545, 40.430691], [-74.385501, 40.430643], [-74.385189, 40.430307], [-74.385085, 40.430195], [-74.384785, 40.429875], [-74.384647, 40.429722], [-74.384244, 40.429287], [-74.384001, 40.429024], [-74.383729, 40.428731], [-74.383573, 40.428564], [-74.383387, 40.428362], [-74.383268, 40.428232], [-74.38188, 40.426724], [-74.38168, 40.426507], [-74.381514, 40.426334], [-74.380809, 40.42562], [-74.380351, 40.425141], [-74.380044, 40.424819], [-74.379933, 40.424698], [-74.37975, 40.424499], [-74.379331, 40.424043], [-74.379199, 40.4239], [-74.378894, 40.423572], [-74.377865, 40.422466], [-74.377307, 40.421866], [-74.376507, 40.420972], [-74.376359, 40.420812], [-74.376123, 40.420557], [-74.375638, 40.420033], [-74.375447, 40.419827], [-74.375116, 40.419469], [-74.374924, 40.419286], [-74.374769, 40.419144], [-74.374572, 40.418963], [-74.372528, 40.417367], [-74.37195, 40.416933], [-74.371616, 40.416678], [-74.371358, 40.416481], [-74.370999, 40.416206], [-74.370715, 40.41599], [-74.370291, 40.415671], [-74.369601, 40.415168], [-74.368981, 40.414681], [-74.367824, 40.413792], [-74.367788, 40.413764], [-74.366407, 40.412655], [-74.365409, 40.411921], [-74.364916, 40.411595], [-74.364401, 40.411289], [-74.362637, 40.410306], [-74.362025, 40.409937], [-74.361664, 40.409671], [-74.361196, 40.409252], [-74.36086, 40.408903], [-74.359675, 40.407543], [-74.359324, 40.407241], [-74.358717, 40.406803], [-74.358578, 40.406705], [-74.358272, 40.406496], [-74.357793, 40.406175], [-74.357399, 40.40591], [-74.356911, 40.405578], [-74.356416, 40.405239], [-74.355904, 40.40486], [-74.355678, 40.404696], [-74.354421, 40.403688], [-74.353288, 40.402741], [-74.351203, 40.401], [-74.350324, 40.400272], [-74.350105, 40.400427], [-74.349815, 40.400656], [-74.349279, 40.40108], [-74.347815, 40.400875], [-74.347658, 40.400872], [-74.347621, 40.400773], [-74.347618, 40.400666], [-74.347573, 40.40052], [-74.347443, 40.400375], [-74.347299, 40.400288], [-74.347106, 40.400202], [-74.346881, 40.400131], [-74.345796, 40.399414], [-74.345174, 40.399882], [-74.345601, 40.400182]]}, "properties": {"seed": 5, "km": 51.3, "minutes": 69, "backroad_pct": 37, "state_road_pct": 63, "highway_pct": 0, "stroke": "#d33", "stroke-width": 3}}, {"type": "Feature", "geometry": {"type": "LineString", "coordinates": [[-74.345601, 40.400182], [-74.346271, 40.400653], [-74.346691, 40.401137], [-74.347234, 40.400927], [-74.347658, 40.400872], [-74.347815, 40.400875], [-74.349279, 40.40108], [-74.349815, 40.400656], [-74.350105, 40.400427], [-74.354207, 40.403745], [-74.35578, 40.404928], [-74.356842, 40.405664], [-74.358579, 40.406855], [-74.358998, 40.407165], [-74.359374, 40.407474], [-74.36001, 40.408124], [-74.360769, 40.409021], [-74.36113, 40.409397], [-74.361607, 40.409813], [-74.362013, 40.410099], [-74.362663, 40.410517], [-74.364928, 40.411817], [-74.366259, 40.412769], [-74.367635, 40.413832], [-74.367735, 40.413908], [-74.369078, 40.415022], [-74.370672, 40.416186], [-74.371004, 40.416443], [-74.372002, 40.417192], [-74.372666, 40.417689], [-74.372926, 40.417884], [-74.373336, 40.418186], [-74.373778, 40.418503], [-74.374371, 40.418961], [-74.374884, 40.419441], [-74.375187, 40.419764], [-74.375348, 40.419953], [-74.375848, 40.420491], [-74.375933, 40.420583], [-74.376318, 40.420998], [-74.376589, 40.421297], [-74.376688, 40.421406], [-74.376852, 40.421588], [-74.377042, 40.421797], [-74.377398, 40.42219], [-74.377519, 40.422324], [-74.377903, 40.422732], [-74.378171, 40.423007], [-74.378708, 40.423559], [-74.378792, 40.423645], [-74.378896, 40.423752], [-74.378912, 40.423768], [-74.379818, 40.42474], [-74.380003, 40.424942], [-74.380078, 40.425025], [-74.380266, 40.425232], [-74.380837, 40.425849], [-74.381111, 40.426137], [-74.381406, 40.426437], [-74.382499, 40.427639], [-74.382683, 40.427841], [-74.382926, 40.4281], [-74.383172, 40.428363], [-74.38338, 40.428585], [-74.383494, 40.428712], [-74.38389, 40.42913], [-74.384324, 40.429593], [-74.384926, 40.430229], [-74.3852, 40.430518], [-74.385327, 40.430653], [-74.385621, 40.430964], [-74.385708, 40.431056], [-74.3859, 40.431258], [-74.386263, 40.431642], [-74.386456, 40.431846], [-74.387115, 40.432573], [-74.38721, 40.432679], [-74.387619, 40.433134], [-74.387962, 40.433516], [-74.388506, 40.434111], [-74.388987, 40.434627], [-74.389316, 40.434983], [-74.389665, 40.43536], [-74.390185, 40.435923], [-74.390507, 40.436273], [-74.390585, 40.436357], [-74.390727, 40.436511], [-74.391019, 40.436826], [-74.391324, 40.437155], [-74.391603, 40.437448], [-74.391657, 40.437505], [-74.391919, 40.437792], [-74.392171, 40.438044], [-74.39238, 40.438295], [-74.392532, 40.43846], [-74.392584, 40.438521], [-74.392977, 40.439016], [-74.393237, 40.439391], [-74.393268, 40.439443], [-74.393518, 40.439866], [-74.393633, 40.440075], [-74.393818, 40.440451], [-74.393968, 40.440777], [-74.394035, 40.440964], [-74.394059, 40.441032], [-74.394073, 40.44107], [-74.394347, 40.44183], [-74.394432, 40.442091], [-74.394535, 40.442419], [-74.395019, 40.44381], [-74.395068, 40.443946], [-74.395166, 40.444251], [-74.395744, 40.44607], [-74.39599, 40.446792], [-74.396119, 40.447148], [-74.396174, 40.447297], [-74.396335, 40.447703], [-74.396456, 40.447985], [-74.396645, 40.448372], [-74.397124, 40.449354], [-74.397409, 40.449872], [-74.397655, 40.450357], [-74.398127, 40.451277], [-74.398242, 40.451515], [-74.398378, 40.451767], [-74.398562, 40.452122], [-74.398708, 40.452405], [-74.398803, 40.452597], [-74.398928, 40.452848], [-74.399112, 40.453216], [-74.399212, 40.453417], [-74.399349, 40.453685], [-74.399381, 40.453749], [-74.399554, 40.454086], [-74.399681, 40.454327], [-74.399737, 40.454433], [-74.399839, 40.454636], [-74.39986, 40.45468], [-74.400104, 40.455149], [-74.400306, 40.45553], [-74.400396, 40.455715], [-74.400436, 40.455844], [-74.400551, 40.456063], [-74.40081, 40.456559], [-74.400967, 40.45686], [-74.401329, 40.45757], [-74.401507, 40.457921], [-74.401699, 40.458274], [-74.401794, 40.458459], [-74.401882, 40.458636], [-74.402152, 40.459168], [-74.402237, 40.459333], [-74.402277, 40.45941], [-74.402591, 40.460017], [-74.40267, 40.46017], [-74.402703, 40.460232], [-74.403142, 40.461099], [-74.403334, 40.46147], [-74.403505, 40.461812], [-74.403629, 40.462056], [-74.403875, 40.462541], [-74.404042, 40.462878], [-74.404397, 40.463478], [-74.404437, 40.463549], [-74.404557, 40.463758], [-74.404935, 40.46432], [-74.405207, 40.464705], [-74.405513, 40.4651], [-74.40561, 40.465225], [-74.405846, 40.46553], [-74.405949, 40.465663], [-74.406628, 40.46654], [-74.406993, 40.467014], [-74.407271, 40.46739], [-74.407472, 40.467644], [-74.407557, 40.467779], [-74.407835, 40.468243], [-74.408013, 40.468583], [-74.408346, 40.469301], [-74.408548, 40.469832], [-74.408666, 40.470305], [-74.408771, 40.470697], [-74.40897, 40.471652], [-74.409348, 40.473549], [-74.409516, 40.474374], [-74.409586, 40.474792], [-74.409824, 40.476424], [-74.409932, 40.476985], [-74.410132, 40.477615], [-74.410282, 40.477996], [-74.410318, 40.478089], [-74.41044, 40.478413], [-74.410496, 40.478548], [-74.410923, 40.479671], [-74.41134, 40.480678], [-74.411777, 40.481392], [-74.412348, 40.482017], [-74.412468, 40.482137], [-74.412865, 40.482504], [-74.413303, 40.482839], [-74.41369, 40.483144], [-74.414087, 40.483364], [-74.414641, 40.483616], [-74.415219, 40.483817], [-74.415598, 40.483927], [-74.415983, 40.484018], [-74.416316, 40.484082], [-74.416441, 40.484122], [-74.416586, 40.484213], [-74.416724, 40.484362], [-74.416774, 40.484479], [-74.416787, 40.484595], [-74.41677, 40.48469], [-74.416666, 40.484986], [-74.416587, 40.485068], [-74.416453, 40.485223], [-74.41636, 40.485331], [-74.415691, 40.486107], [-74.415097, 40.486789], [-74.414266, 40.487815], [-74.413922, 40.488325], [-74.413783, 40.488595], [-74.413662, 40.488878], [-74.413568, 40.48917], [-74.413434, 40.489731], [-74.412989, 40.491888], [-74.412685, 40.493361], [-74.412372, 40.494875], [-74.41216, 40.495707], [-74.411983, 40.496156], [-74.411795, 40.496499], [-74.411601, 40.496762], [-74.411569, 40.496805], [-74.411194, 40.49725], [-74.410836, 40.497578], [-74.410593, 40.497772], [-74.410218, 40.498009], [-74.409903, 40.498202], [-74.40929, 40.498535], [-74.409152, 40.498613], [-74.409123, 40.498629], [-74.408657, 40.498808], [-74.408491, 40.498845], [-74.407689, 40.498907], [-74.407556, 40.498909], [-74.407257, 40.498914], [-74.406559, 40.498881], [-74.406318, 40.498893], [-74.406032, 40.498972], [-74.405595, 40.499181], [-74.405395, 40.499261], [-74.405213, 40.499301], [-74.404487, 40.499345], [-74.404093, 40.499349], [-74.403578, 40.49938], [-74.403074, 40.49945], [-74.402516, 40.499579], [-74.402032, 40.499728], [-74.401759, 40.499862], [-74.40108, 40.50009], [-74.400326, 40.500326], [-74.399895, 40.500399], [-74.399433, 40.500438], [-74.399054, 40.500471], [-74.398774, 40.500495], [-74.398379, 40.500529], [-74.397883, 40.500575], [-74.397372, 40.500631], [-74.396072, 40.500828], [-74.395181, 40.500974], [-74.39495, 40.501014], [-74.394234, 40.501135], [-74.39407, 40.501162], [-74.393692, 40.501228], [-74.392965, 40.501347], [-74.392446, 40.501447], [-74.391741, 40.501627], [-74.391697, 40.501638], [-74.391338, 40.501733], [-74.391017, 40.501817], [-74.390244, 40.502021], [-74.390119, 40.502054], [-74.389685, 40.502168], [-74.389172, 40.502304], [-74.389081, 40.502327], [-74.388668, 40.502436], [-74.388115, 40.502582], [-74.387946, 40.502626], [-74.387765, 40.502674], [-74.386236, 40.503077], [-74.386154, 40.503098], [-74.385921, 40.50316], [-74.385668, 40.503226], [-74.385087, 40.50338], [-74.384726, 40.503475], [-74.384339, 40.503576], [-74.384175, 40.50362], [-74.383999, 40.503666], [-74.383191, 40.503879], [-74.38298, 40.503935], [-74.382171, 40.504148], [-74.38204, 40.504182], [-74.381956, 40.504204], [-74.381894, 40.504219], [-74.38146, 40.504329], [-74.380643, 40.50453], [-74.380452, 40.504563], [-74.380288, 40.504589], [-74.380078, 40.504603], [-74.379745, 40.504582], [-74.378967, 40.504342], [-74.377857, 40.504032], [-74.377353, 40.503922], [-74.376891, 40.503869], [-74.376489, 40.503877], [-74.376146, 40.503922], [-74.375738, 40.504028], [-74.375384, 40.50415], [-74.375099, 40.504276], [-74.374799, 40.504472], [-74.374372, 40.504859], [-74.374177, 40.505124], [-74.374082, 40.505281], [-74.373869, 40.505726], [-74.373776, 40.505931], [-74.373466, 40.506596], [-74.37327, 40.506826], [-74.373125, 40.50705], [-74.372921, 40.507287], [-74.372712, 40.50747], [-74.372326, 40.507727], [-74.371906, 40.50795], [-74.371408, 40.508218], [-74.371312, 40.508261], [-74.371138, 40.508368], [-74.369529, 40.509223], [-74.36852, 40.509775], [-74.366311, 40.510968], [-74.365908, 40.51117], [-74.365195, 40.511549], [-74.365037, 40.511638], [-74.363936, 40.512246], [-74.362852, 40.512845], [-74.36232, 40.513137], [-74.361631, 40.513506], [-74.359484, 40.514655], [-74.358271, 40.515305], [-74.358074, 40.515396], [-74.357641, 40.515596], [-74.357477, 40.515653], [-74.357265, 40.515717], [-74.357, 40.515764], [-74.356665, 40.515806], [-74.356326, 40.515802], [-74.355765, 40.515765], [-74.355545, 40.515747], [-74.355243, 40.51574], [-74.355109, 40.515788], [-74.354917, 40.515904], [-74.354604, 40.516019], [-74.353111, 40.516169], [-74.352584, 40.516253], [-74.352447, 40.516274], [-74.352183, 40.516316], [-74.351153, 40.516545], [-74.350617, 40.516702], [-74.350303, 40.516801], [-74.349796, 40.516981], [-74.349463, 40.517099], [-74.348792, 40.517377], [-74.348213, 40.51767], [-74.344733, 40.519772], [-74.344203, 40.520094], [-74.343534, 40.520501], [-74.343395, 40.520585], [-74.343257, 40.520668], [-74.341968, 40.521443], [-74.341506, 40.521695], [-74.340897, 40.521973], [-74.34022, 40.52223], [-74.339514, 40.522475], [-74.337317, 40.523212], [-74.336275, 40.523573], [-74.335442, 40.523887], [-74.334724, 40.524214], [-74.334069, 40.524485], [-74.333565, 40.524636], [-74.333004, 40.524736], [-74.332004, 40.524808], [-74.331691, 40.524843], [-74.331394, 40.524899], [-74.331104, 40.524975], [-74.330601, 40.525161], [-74.330346, 40.525282], [-74.329327, 40.525899], [-74.32913, 40.526003], [-74.328811, 40.526131], [-74.328262, 40.526224], [-74.327657, 40.526212], [-74.326714, 40.526116], [-74.326185, 40.526081], [-74.323798, 40.526001], [-74.322461, 40.525883], [-74.321155, 40.525731], [-74.3202, 40.525595], [-74.319235, 40.525438], [-74.318953, 40.525387], [-74.317714, 40.525144], [-74.316563, 40.52489], [-74.316042, 40.524763], [-74.314464, 40.524333], [-74.312888, 40.52384], [-74.311849, 40.523465], [-74.310626, 40.522939], [-74.310334, 40.522797], [-74.309685, 40.52246], [-74.308074, 40.521582], [-74.307045, 40.521025], [-74.30631, 40.520659], [-74.305449, 40.520283], [-74.305073, 40.520081], [-74.30485, 40.519997], [-74.303267, 40.519427], [-74.30244, 40.519182], [-74.302281, 40.5191], [-74.302082, 40.518946], [-74.301926, 40.518798], [-74.301774, 40.518588], [-74.301694, 40.518413], [-74.301636, 40.518218], [-74.301577, 40.517808], [-74.301514, 40.516718], [-74.301363, 40.5159], [-74.301226, 40.514413], [-74.301183, 40.513756], [-74.301162, 40.513096], [-74.301165, 40.512226], [-74.301701, 40.503602], [-74.301755, 40.502666], [-74.301759, 40.502216], [-74.301731, 40.501555], [-74.301659, 40.500891], [-74.301545, 40.500242], [-74.301552, 40.499389], [-74.301525, 40.498803], [-74.301565, 40.498335], [-74.301676, 40.497816], [-74.301931, 40.497043], [-74.302148, 40.496376], [-74.302305, 40.495884], [-74.302515, 40.495346], [-74.302553, 40.495257], [-74.302354, 40.495198], [-74.301961, 40.495095], [-74.301611, 40.495035], [-74.301225, 40.495025], [-74.300983, 40.495047], [-74.300774, 40.495087], [-74.300466, 40.495193], [-74.299775, 40.495473], [-74.299263, 40.495682], [-74.299135, 40.495734], [-74.298626, 40.495937], [-74.298414, 40.496034], [-74.298274, 40.496119], [-74.298143, 40.496278], [-74.297754, 40.49682], [-74.297621, 40.496735], [-74.297311, 40.496576], [-74.297079, 40.496439], [-74.296883, 40.496279], [-74.296737, 40.496121], [-74.296586, 40.495949], [-74.296365, 40.495717], [-74.296291, 40.495644], [-74.296087, 40.49545], [-74.29564, 40.49506], [-74.295126, 40.494718], [-74.294794, 40.494523], [-74.294377, 40.494304], [-74.29359, 40.493941], [-74.292434, 40.493412], [-74.291982, 40.493205], [-74.289594, 40.492108], [-74.289382, 40.492011], [-74.288817, 40.491751], [-74.287932, 40.491345], [-74.286573, 40.490764], [-74.286155, 40.490574], [-74.285765, 40.490391], [-74.285202, 40.490131], [-74.284857, 40.489971], [-74.284737, 40.48973], [-74.284683, 40.489444], [-74.28468, 40.489356], [-74.284634, 40.489191], [-74.284541, 40.489023], [-74.28432, 40.488858], [-74.284056, 40.488726], [-74.282795, 40.48828], [-74.282449, 40.48819], [-74.282046, 40.488108], [-74.281919, 40.48805], [-74.281419, 40.488027], [-74.281067, 40.488036], [-74.280524, 40.488112], [-74.280267, 40.488171], [-74.279942, 40.488268], [-74.279056, 40.488635], [-74.277385, 40.489354], [-74.277149, 40.488996], [-74.277078, 40.488888], [-74.276993, 40.488757], [-74.276371, 40.488979], [-74.276453, 40.489101], [-74.276534, 40.489225], [-74.277149, 40.488996], [-74.277385, 40.489354], [-74.277432, 40.489429], [-74.277485, 40.48951], [-74.279197, 40.488811], [-74.279111, 40.488704], [-74.279989, 40.488336], [-74.280448, 40.488207], [-74.280673, 40.488164], [-74.281073, 40.488116], [-74.281402, 40.488106], [-74.281905, 40.488121], [-74.282046, 40.488108], [-74.282449, 40.48819], [-74.282795, 40.48828], [-74.284056, 40.488726], [-74.28432, 40.488858], [-74.284541, 40.489023], [-74.284634, 40.489191], [-74.28468, 40.489356], [-74.284683, 40.489444], [-74.284649, 40.489562], [-74.284483, 40.489653], [-74.284399, 40.489654], [-74.284284, 40.489629], [-74.2841, 40.489534], [-74.284027, 40.489453], [-74.283887, 40.489253], [-74.283348, 40.488138], [-74.283293, 40.487915], [-74.283293, 40.48769], [-74.283372, 40.487399], [-74.283476, 40.487199], [-74.283795, 40.48675], [-74.283882, 40.486641], [-74.284101, 40.486301], [-74.284206, 40.486227], [-74.284328, 40.486063], [-74.284784, 40.485468], [-74.285067, 40.485105], [-74.286026, 40.483865], [-74.286986, 40.482629], [-74.287834, 40.481538], [-74.287995, 40.481485], [-74.28809, 40.48142], [-74.289023, 40.480981], [-74.289108, 40.48094], [-74.289424, 40.480642], [-74.289692, 40.480419], [-74.290357, 40.47993], [-74.291033, 40.479446], [-74.291239, 40.479277], [-74.291316, 40.479214], [-74.291538, 40.478988], [-74.291621, 40.478903], [-74.291724, 40.478798], [-74.291871, 40.478647], [-74.292218, 40.478289], [-74.292613, 40.477901], [-74.29272, 40.477802], [-74.293208, 40.477337], [-74.2928, 40.477163], [-74.292551, 40.477061], [-74.292426, 40.477004], [-74.291767, 40.476692], [-74.292028, 40.476412], [-74.292175, 40.476209], [-74.292216, 40.476165], [-74.29241, 40.475941], [-74.293846, 40.474169], [-74.295263, 40.472386], [-74.297296, 40.46984], [-74.297444, 40.469587], [-74.297549, 40.469344], [-74.297649, 40.469024], [-74.297711, 40.468697], [-74.297734, 40.468263], [-74.297681, 40.467765], [-74.297599, 40.467462], [-74.297513, 40.46722], [-74.297351, 40.466922], [-74.297255, 40.466771], [-74.296831, 40.466041], [-74.296715, 40.465855], [-74.296602, 40.465683], [-74.296495, 40.465516], [-74.296378, 40.465306], [-74.296207, 40.464996], [-74.296157, 40.46491], [-74.296032, 40.464675], [-74.295887, 40.464344], [-74.295839, 40.464196], [-74.295785, 40.463796], [-74.295783, 40.463637], [-74.295757, 40.463228], [-74.29574, 40.462877], [-74.295733, 40.462752], [-74.295717, 40.462436], [-74.295713, 40.46235], [-74.29571, 40.462235], [-74.29569, 40.461752], [-74.295689, 40.461675], [-74.295685, 40.461449], [-74.29568, 40.461335], [-74.295654, 40.460899], [-74.295648, 40.460772], [-74.295641, 40.460588], [-74.295634, 40.460413], [-74.295612, 40.459989], [-74.295618, 40.458704], [-74.295624, 40.458531], [-74.295665, 40.458247], [-74.295689, 40.458116], [-74.295791, 40.457602], [-74.295811, 40.457541], [-74.295946, 40.457123], [-74.295985, 40.457023], [-74.296139, 40.456626], [-74.296563, 40.455425], [-74.296741, 40.455042], [-74.29688, 40.454706], [-74.297132, 40.454072], [-74.297745, 40.452476], [-74.297969, 40.451913], [-74.298239, 40.451214], [-74.298382, 40.450881], [-74.29848, 40.450626], [-74.298755, 40.449902], [-74.299301, 40.448485], [-74.299503, 40.447929], [-74.29967, 40.447331], [-74.299758, 40.446755], [-74.299898, 40.44521], [-74.299956, 40.444347], [-74.299978, 40.444018], [-74.299999, 40.443623], [-74.300064, 40.44222], [-74.300116, 40.441404], [-74.300162, 40.44065], [-74.300193, 40.440268], [-74.300264, 40.439487], [-74.300306, 40.43925], [-74.300422, 40.438847], [-74.300564, 40.438355], [-74.300787, 40.437494], [-74.300836, 40.437307], [-74.301236, 40.436079], [-74.301347, 40.4358], [-74.301529, 40.435387], [-74.301609, 40.435201], [-74.301726, 40.434919], [-74.302299, 40.433316], [-74.302489, 40.432663], [-74.302853, 40.431391], [-74.303023, 40.430552], [-74.303144, 40.429933], [-74.303223, 40.429547], [-74.303957, 40.424299], [-74.304215, 40.422502], [-74.304267, 40.422121], [-74.304612, 40.419544], [-74.304695, 40.418929], [-74.304925, 40.417005], [-74.305038, 40.41613], [-74.305629, 40.411688], [-74.305683, 40.411254], [-74.305715, 40.411], [-74.305743, 40.410776], [-74.305775, 40.41052], [-74.305818, 40.409421], [-74.305821, 40.409094], [-74.305826, 40.408653], [-74.305825, 40.408354], [-74.305801, 40.407224], [-74.305732, 40.406468], [-74.305775, 40.404801], [-74.305823, 40.404299], [-74.305875, 40.403971], [-74.306145, 40.403217], [-74.306295, 40.402992], [-74.306416, 40.402861], [-74.306535, 40.402761], [-74.306688, 40.402697], [-74.307188, 40.402567], [-74.307326, 40.402513], [-74.307449, 40.402423], [-74.307815, 40.402011], [-74.308001, 40.401885], [-74.308142, 40.401817], [-74.308322, 40.401774], [-74.308605, 40.401733], [-74.308745, 40.401688], [-74.309192, 40.401708], [-74.309727, 40.401729], [-74.310058, 40.40174], [-74.310299, 40.401748], [-74.311047, 40.401774], [-74.311153, 40.401778], [-74.31126, 40.401782], [-74.311287, 40.401783], [-74.311565, 40.401789], [-74.311797, 40.401788], [-74.312076, 40.401793], [-74.312338, 40.401821], [-74.312601, 40.401849], [-74.312776, 40.401898], [-74.313785, 40.402153], [-74.314106, 40.402238], [-74.315203, 40.402453], [-74.317669, 40.402917], [-74.317862, 40.40295], [-74.319196, 40.403198], [-74.320367, 40.403421], [-74.320504, 40.403447], [-74.320854, 40.403513], [-74.321096, 40.403559], [-74.321513, 40.403639], [-74.321923, 40.403717], [-74.322069, 40.403745], [-74.322286, 40.403786], [-74.322381, 40.403804], [-74.322565, 40.403839], [-74.323145, 40.40395], [-74.323496, 40.404015], [-74.323902, 40.404093], [-74.323963, 40.404106], [-74.324182, 40.404148], [-74.324772, 40.404259], [-74.32524, 40.40435], [-74.325717, 40.404442], [-74.325884, 40.404474], [-74.326199, 40.404535], [-74.326296, 40.404553], [-74.3267, 40.404631], [-74.327355, 40.404767], [-74.32837, 40.405025], [-74.329005, 40.405194], [-74.329229, 40.405258], [-74.329429, 40.405316], [-74.329863, 40.405424], [-74.330537, 40.405599], [-74.331567, 40.405875], [-74.331834, 40.405944], [-74.332175, 40.406033], [-74.334239, 40.40659], [-74.335367, 40.406889], [-74.335557, 40.406949], [-74.335645, 40.406977], [-74.335921, 40.407063], [-74.336114, 40.407146], [-74.336551, 40.407388], [-74.337088, 40.407725], [-74.338328, 40.408502], [-74.338803, 40.408773], [-74.339097, 40.408919], [-74.339766, 40.409129], [-74.340619, 40.409288], [-74.341174, 40.40938], [-74.342253, 40.409557], [-74.344368, 40.409896], [-74.344921, 40.409916], [-74.345542, 40.409904], [-74.346103, 40.409868], [-74.346352, 40.409855], [-74.347299, 40.409861], [-74.348715, 40.409927], [-74.348866, 40.409934], [-74.34901, 40.409942], [-74.349334, 40.40996], [-74.349636, 40.409971], [-74.349643, 40.409704], [-74.349635, 40.409553], [-74.349629, 40.409407], [-74.349699, 40.409056], [-74.349696, 40.408844], [-74.34906, 40.407417], [-74.348777, 40.406767], [-74.348707, 40.406674], [-74.348488, 40.406269], [-74.348487, 40.406154], [-74.348578, 40.405723], [-74.348201, 40.405671], [-74.347938, 40.405604], [-74.347457, 40.405449], [-74.347178, 40.405308], [-74.346887, 40.40512], [-74.346708, 40.404982], [-74.346448, 40.404711], [-74.346345, 40.404577], [-74.346153, 40.404251], [-74.345926, 40.403739], [-74.345611, 40.403085], [-74.345457, 40.402667], [-74.345424, 40.402398], [-74.345459, 40.402095], [-74.345497, 40.402009], [-74.345622, 40.401847], [-74.34595, 40.40151], [-74.345249, 40.400888], [-74.344725, 40.400522], [-74.344464, 40.400288], [-74.345174, 40.399882], [-74.345601, 40.400182]]}, "properties": {"seed": 6, "km": 45.5, "minutes": 65, "backroad_pct": 30, "state_road_pct": 70, "highway_pct": 12, "stroke": "#d33", "stroke-width": 3}}, {"type": "Feature", "geometry": {"type": "Point", "coordinates": [-74.3457, 40.4001]}, "properties": {"name": "start", "marker-color": "#000"}}]}