<?xml version="1.0" encoding="UTF-8"?>
<gpx version="1.1" creator="loopgen" xmlns="http://www.topografix.com/GPX/1/1">
  <trk><name>loop_seed5_61.3km</name><trkseg>
    <trkpt lat="40.400182" lon="-74.345601"></trkpt>
    <trkpt lat="40.400653" lon="-74.346271"></trkpt>
    <trkpt lat="40.401137" lon="-74.346691"></trkpt>
    <trkpt lat="40.400927" lon="-74.347234"></trkpt>
    <trkpt lat="40.400872" lon="-74.347658"></trkpt>
    <trkpt lat="40.401080" lon="-74.349279"></trkpt>
    <trkpt lat="40.400656" lon="-74.349815"></trkpt>
    <trkpt lat="40.400427" lon="-74.350105"></trkpt>
    <trkpt lat="40.403745" lon="-74.354207"></trkpt>
    <trkpt lat="40.404928" lon="-74.355780"></trkpt>
    <trkpt lat="40.405664" lon="-74.356842"></trkpt>
    <trkpt lat="40.406855" lon="-74.358579"></trkpt>
    <trkpt lat="40.407165" lon="-74.358998"></trkpt>
    <trkpt lat="40.407474" lon="-74.359374"></trkpt>
    <trkpt lat="40.408124" lon="-74.360010"></trkpt>
    <trkpt lat="40.409021" lon="-74.360769"></trkpt>
    <trkpt lat="40.409397" lon="-74.361130"></trkpt>
    <trkpt lat="40.409813" lon="-74.361607"></trkpt>
    <trkpt lat="40.410099" lon="-74.362013"></trkpt>
    <trkpt lat="40.410517" lon="-74.362663"></trkpt>
    <trkpt lat="40.411817" lon="-74.364928"></trkpt>
    <trkpt lat="40.412769" lon="-74.366259"></trkpt>
    <trkpt lat="40.413832" lon="-74.367635"></trkpt>
    <trkpt lat="40.415022" lon="-74.369078"></trkpt>
    <trkpt lat="40.416186" lon="-74.370672"></trkpt>
    <trkpt lat="40.416443" lon="-74.371004"></trkpt>
    <trkpt lat="40.417192" lon="-74.372002"></trkpt>
    <trkpt lat="40.417689" lon="-74.372666"></trkpt>
    <trkpt lat="40.417884" lon="-74.372926"></trkpt>
    <trkpt lat="40.418186" lon="-74.373336"></trkpt>
    <trkpt lat="40.418503" lon="-74.373778"></trkpt>
    <trkpt lat="40.418961" lon="-74.374371"></trkpt>
    <trkpt lat="40.419441" lon="-74.374884"></trkpt>
    <trkpt lat="40.419764" lon="-74.375187"></trkpt>
    <trkpt lat="40.419953" lon="-74.375348"></trkpt>
    <trkpt lat="40.420155" lon="-74.375511"></trkpt>
    <trkpt lat="40.420389" lon="-74.375563"></trkpt>
    <trkpt lat="40.420779" lon="-74.375431"></trkpt>
    <trkpt lat="40.421091" lon="-74.375464"></trkpt>
    <trkpt lat="40.421037" lon="-74.375963"></trkpt>
    <trkpt lat="40.420998" lon="-74.376318"></trkpt>
    <trkpt lat="40.420956" lon="-74.376639"></trkpt>
    <trkpt lat="40.420906" lon="-74.377056"></trkpt>
    <trkpt lat="40.420836" lon="-74.377679"></trkpt>
    <trkpt lat="40.420739" lon="-74.378556"></trkpt>
    <trkpt lat="40.420692" lon="-74.378973"></trkpt>
    <trkpt lat="40.420650" lon="-74.379349"></trkpt>
    <trkpt lat="40.420562" lon="-74.380142"></trkpt>
    <trkpt lat="40.420526" lon="-74.380456"></trkpt>
    <trkpt lat="40.420425" lon="-74.381378"></trkpt>
    <trkpt lat="40.420367" lon="-74.381900"></trkpt>
    <trkpt lat="40.420170" lon="-74.383673"></trkpt>
    <trkpt lat="40.420087" lon="-74.384436"></trkpt>
    <trkpt lat="40.420045" lon="-74.384794"></trkpt>
    <trkpt lat="40.419759" lon="-74.387492"></trkpt>
    <trkpt lat="40.419603" lon="-74.389019"></trkpt>
    <trkpt lat="40.419600" lon="-74.389620"></trkpt>
    <trkpt lat="40.419698" lon="-74.390164"></trkpt>
    <trkpt lat="40.419811" lon="-74.390510"></trkpt>
    <trkpt lat="40.420001" lon="-74.390910"></trkpt>
    <trkpt lat="40.420222" lon="-74.391200"></trkpt>
    <trkpt lat="40.420709" lon="-74.391639"></trkpt>
    <trkpt lat="40.421553" lon="-74.392337"></trkpt>
    <trkpt lat="40.421757" lon="-74.392584"></trkpt>
    <trkpt lat="40.421961" lon="-74.392917"></trkpt>
    <trkpt lat="40.422166" lon="-74.393378"></trkpt>
    <trkpt lat="40.422313" lon="-74.393893"></trkpt>
    <trkpt lat="40.422386" lon="-74.394429"></trkpt>
    <trkpt lat="40.422394" lon="-74.394934"></trkpt>
    <trkpt lat="40.422345" lon="-74.395406"></trkpt>
    <trkpt lat="40.422223" lon="-74.395942"></trkpt>
    <trkpt lat="40.422019" lon="-74.396586"></trkpt>
    <trkpt lat="40.421774" lon="-74.397144"></trkpt>
    <trkpt lat="40.420834" lon="-74.399032"></trkpt>
    <trkpt lat="40.420679" lon="-74.399326"></trkpt>
    <trkpt lat="40.420452" lon="-74.399917"></trkpt>
    <trkpt lat="40.419977" lon="-74.399686"></trkpt>
    <trkpt lat="40.419664" lon="-74.399584"></trkpt>
    <trkpt lat="40.418658" lon="-74.399429"></trkpt>
    <trkpt lat="40.418595" lon="-74.400227"></trkpt>
    <trkpt lat="40.418528" lon="-74.401003"></trkpt>
    <trkpt lat="40.418319" lon="-74.403000"></trkpt>
    <trkpt lat="40.417585" lon="-74.402873"></trkpt>
    <trkpt lat="40.417302" lon="-74.402687"></trkpt>
    <trkpt lat="40.417111" lon="-74.402990"></trkpt>
    <trkpt lat="40.416880" lon="-74.403173"></trkpt>
    <trkpt lat="40.416618" lon="-74.403254"></trkpt>
    <trkpt lat="40.416261" lon="-74.403212"></trkpt>
    <trkpt lat="40.415908" lon="-74.403153"></trkpt>
    <trkpt lat="40.415678" lon="-74.403115"></trkpt>
    <trkpt lat="40.415455" lon="-74.403032"></trkpt>
    <trkpt lat="40.414979" lon="-74.402544"></trkpt>
    <trkpt lat="40.414296" lon="-74.401786"></trkpt>
    <trkpt lat="40.414176" lon="-74.402072"></trkpt>
    <trkpt lat="40.413736" lon="-74.402770"></trkpt>
    <trkpt lat="40.413493" lon="-74.403078"></trkpt>
    <trkpt lat="40.413232" lon="-74.403455"></trkpt>
    <trkpt lat="40.412964" lon="-74.405535"></trkpt>
    <trkpt lat="40.413427" lon="-74.405599"></trkpt>
    <trkpt lat="40.413651" lon="-74.405541"></trkpt>
    <trkpt lat="40.413877" lon="-74.405838"></trkpt>
    <trkpt lat="40.413818" lon="-74.406968"></trkpt>
    <trkpt lat="40.413774" lon="-74.407422"></trkpt>
    <trkpt lat="40.414025" lon="-74.407569"></trkpt>
    <trkpt lat="40.414286" lon="-74.407628"></trkpt>
    <trkpt lat="40.414591" lon="-74.407668"></trkpt>
    <trkpt lat="40.415381" lon="-74.407769"></trkpt>
    <trkpt lat="40.415626" lon="-74.407819"></trkpt>
    <trkpt lat="40.416515" lon="-74.408096"></trkpt>
    <trkpt lat="40.416802" lon="-74.408020"></trkpt>
    <trkpt lat="40.417014" lon="-74.407719"></trkpt>
    <trkpt lat="40.417820" lon="-74.407647"></trkpt>
    <trkpt lat="40.417609" lon="-74.409722"></trkpt>
    <trkpt lat="40.417572" lon="-74.410093"></trkpt>
    <trkpt lat="40.417527" lon="-74.410543"></trkpt>
    <trkpt lat="40.417467" lon="-74.411150"></trkpt>
    <trkpt lat="40.417359" lon="-74.412186"></trkpt>
    <trkpt lat="40.417301" lon="-74.412712"></trkpt>
    <trkpt lat="40.417652" lon="-74.412400"></trkpt>
    <trkpt lat="40.418169" lon="-74.411940"></trkpt>
    <trkpt lat="40.418425" lon="-74.411713"></trkpt>
    <trkpt lat="40.418857" lon="-74.411326"></trkpt>
    <trkpt lat="40.419299" lon="-74.410931"></trkpt>
    <trkpt lat="40.419691" lon="-74.411799"></trkpt>
    <trkpt lat="40.419772" lon="-74.412250"></trkpt>
    <trkpt lat="40.419781" lon="-74.412743"></trkpt>
    <trkpt lat="40.419756" lon="-74.413280"></trkpt>
    <trkpt lat="40.419666" lon="-74.413784"></trkpt>
    <trkpt lat="40.419233" lon="-74.414868"></trkpt>
    <trkpt lat="40.418751" lon="-74.415994"></trkpt>
    <trkpt lat="40.418613" lon="-74.416477"></trkpt>
    <trkpt lat="40.418547" lon="-74.416928"></trkpt>
    <trkpt lat="40.418531" lon="-74.417378"></trkpt>
    <trkpt lat="40.418580" lon="-74.417893"></trkpt>
    <trkpt lat="40.418809" lon="-74.418719"></trkpt>
    <trkpt lat="40.419004" lon="-74.419253"></trkpt>
    <trkpt lat="40.419340" lon="-74.419696"></trkpt>
    <trkpt lat="40.419527" lon="-74.419932"></trkpt>
    <trkpt lat="40.419747" lon="-74.420151"></trkpt>
    <trkpt lat="40.420007" lon="-74.420350"></trkpt>
    <trkpt lat="40.420725" lon="-74.420806"></trkpt>
    <trkpt lat="40.421612" lon="-74.421142"></trkpt>
    <trkpt lat="40.421962" lon="-74.421259"></trkpt>
    <trkpt lat="40.422513" lon="-74.421449"></trkpt>
    <trkpt lat="40.423595" lon="-74.421875"></trkpt>
    <trkpt lat="40.424056" lon="-74.422056"></trkpt>
    <trkpt lat="40.424381" lon="-74.422178"></trkpt>
    <trkpt lat="40.425109" lon="-74.422452"></trkpt>
    <trkpt lat="40.425922" lon="-74.422567"></trkpt>
    <trkpt lat="40.426699" lon="-74.422555"></trkpt>
    <trkpt lat="40.427132" lon="-74.422491"></trkpt>
    <trkpt lat="40.428070" lon="-74.422342"></trkpt>
    <trkpt lat="40.428382" lon="-74.422318"></trkpt>
    <trkpt lat="40.429205" lon="-74.422406"></trkpt>
    <trkpt lat="40.429548" lon="-74.422526"></trkpt>
    <trkpt lat="40.430206" lon="-74.422756"></trkpt>
    <trkpt lat="40.431025" lon="-74.423021"></trkpt>
    <trkpt lat="40.431464" lon="-74.423151"></trkpt>
    <trkpt lat="40.431855" lon="-74.423251"></trkpt>
    <trkpt lat="40.432209" lon="-74.423294"></trkpt>
    <trkpt lat="40.432522" lon="-74.423255"></trkpt>
    <trkpt lat="40.432888" lon="-74.423209"></trkpt>
    <trkpt lat="40.433367" lon="-74.423148"></trkpt>
    <trkpt lat="40.433696" lon="-74.423108"></trkpt>
    <trkpt lat="40.434258" lon="-74.422997"></trkpt>
    <trkpt lat="40.434685" lon="-74.422846"></trkpt>
    <trkpt lat="40.434973" lon="-74.422775"></trkpt>
    <trkpt lat="40.435026" lon="-74.423497"></trkpt>
    <trkpt lat="40.435695" lon="-74.423421"></trkpt>
    <trkpt lat="40.435935" lon="-74.423054"></trkpt>
    <trkpt lat="40.436385" lon="-74.423530"></trkpt>
    <trkpt lat="40.436608" lon="-74.423800"></trkpt>
    <trkpt lat="40.436933" lon="-74.423893"></trkpt>
    <trkpt lat="40.437201" lon="-74.424310"></trkpt>
    <trkpt lat="40.437382" lon="-74.424625"></trkpt>
    <trkpt lat="40.437480" lon="-74.425053"></trkpt>
    <trkpt lat="40.437668" lon="-74.426118"></trkpt>
    <trkpt lat="40.437862" lon="-74.427028"></trkpt>
    <trkpt lat="40.438055" lon="-74.427441"></trkpt>
    <trkpt lat="40.438366" lon="-74.427912"></trkpt>
    <trkpt lat="40.438594" lon="-74.428174"></trkpt>
    <trkpt lat="40.439161" lon="-74.428567"></trkpt>
    <trkpt lat="40.440356" lon="-74.429311"></trkpt>
    <trkpt lat="40.440964" lon="-74.429693"></trkpt>
    <trkpt lat="40.441596" lon="-74.430082"></trkpt>
    <trkpt lat="40.442203" lon="-74.430504"></trkpt>
    <trkpt lat="40.442807" lon="-74.430934"></trkpt>
    <trkpt lat="40.443068" lon="-74.431127"></trkpt>
    <trkpt lat="40.443376" lon="-74.431374"></trkpt>
    <trkpt lat="40.443595" lon="-74.431769"></trkpt>
    <trkpt lat="40.443765" lon="-74.432154"></trkpt>
    <trkpt lat="40.443997" lon="-74.432593"></trkpt>
    <trkpt lat="40.444365" lon="-74.432973"></trkpt>
    <trkpt lat="40.444653" lon="-74.433140"></trkpt>
    <trkpt lat="40.445034" lon="-74.433294"></trkpt>
    <trkpt lat="40.446324" lon="-74.433742"></trkpt>
    <trkpt lat="40.446842" lon="-74.433900"></trkpt>
    <trkpt lat="40.447068" lon="-74.433935"></trkpt>
    <trkpt lat="40.447762" lon="-74.434050"></trkpt>
    <trkpt lat="40.448258" lon="-74.434111"></trkpt>
    <trkpt lat="40.448505" lon="-74.434205"></trkpt>
    <trkpt lat="40.449198" lon="-74.434673"></trkpt>
    <trkpt lat="40.450002" lon="-74.435218"></trkpt>
    <trkpt lat="40.450251" lon="-74.435416"></trkpt>
    <trkpt lat="40.450538" lon="-74.435781"></trkpt>
    <trkpt lat="40.450755" lon="-74.436079"></trkpt>
    <trkpt lat="40.450973" lon="-74.435924"></trkpt>
    <trkpt lat="40.451183" lon="-74.435807"></trkpt>
    <trkpt lat="40.451508" lon="-74.435627"></trkpt>
    <trkpt lat="40.451764" lon="-74.435485"></trkpt>
    <trkpt lat="40.452277" lon="-74.435228"></trkpt>
    <trkpt lat="40.452709" lon="-74.434965"></trkpt>
    <trkpt lat="40.452983" lon="-74.434644"></trkpt>
    <trkpt lat="40.453324" lon="-74.433997"></trkpt>
    <trkpt lat="40.454207" lon="-74.432251"></trkpt>
    <trkpt lat="40.454697" lon="-74.431364"></trkpt>
    <trkpt lat="40.455272" lon="-74.430384"></trkpt>
    <trkpt lat="40.455735" lon="-74.429586"></trkpt>
    <trkpt lat="40.456294" lon="-74.428606"></trkpt>
    <trkpt lat="40.456637" lon="-74.427767"></trkpt>
    <trkpt lat="40.456640" lon="-74.427318"></trkpt>
    <trkpt lat="40.456427" lon="-74.426746"></trkpt>
    <trkpt lat="40.456209" lon="-74.426166"></trkpt>
    <trkpt lat="40.456034" lon="-74.425735"></trkpt>
    <trkpt lat="40.455884" lon="-74.425359"></trkpt>
    <trkpt lat="40.455685" lon="-74.424752"></trkpt>
    <trkpt lat="40.456007" lon="-74.424810"></trkpt>
    <trkpt lat="40.456403" lon="-74.424862"></trkpt>
    <trkpt lat="40.457049" lon="-74.424949"></trkpt>
    <trkpt lat="40.457531" lon="-74.425009"></trkpt>
    <trkpt lat="40.457828" lon="-74.425040"></trkpt>
    <trkpt lat="40.458216" lon="-74.425037"></trkpt>
    <trkpt lat="40.458590" lon="-74.425085"></trkpt>
    <trkpt lat="40.459392" lon="-74.425179"></trkpt>
    <trkpt lat="40.459675" lon="-74.425214"></trkpt>
    <trkpt lat="40.462050" lon="-74.425512"></trkpt>
    <trkpt lat="40.462326" lon="-74.425544"></trkpt>
    <trkpt lat="40.464410" lon="-74.425994"></trkpt>
    <trkpt lat="40.465320" lon="-74.426195"></trkpt>
    <trkpt lat="40.465690" lon="-74.426277"></trkpt>
    <trkpt lat="40.466900" lon="-74.426543"></trkpt>
    <trkpt lat="40.467451" lon="-74.426668"></trkpt>
    <trkpt lat="40.468061" lon="-74.426788"></trkpt>
    <trkpt lat="40.468699" lon="-74.426864"></trkpt>
    <trkpt lat="40.470834" lon="-74.426948"></trkpt>
    <trkpt lat="40.472400" lon="-74.427036"></trkpt>
    <trkpt lat="40.473037" lon="-74.427085"></trkpt>
    <trkpt lat="40.473448" lon="-74.427033"></trkpt>
    <trkpt lat="40.473667" lon="-74.426936"></trkpt>
    <trkpt lat="40.474257" lon="-74.426139"></trkpt>
    <trkpt lat="40.474532" lon="-74.425951"></trkpt>
    <trkpt lat="40.474846" lon="-74.425919"></trkpt>
    <trkpt lat="40.475357" lon="-74.426161"></trkpt>
    <trkpt lat="40.475616" lon="-74.426144"></trkpt>
    <trkpt lat="40.476263" lon="-74.425606"></trkpt>
    <trkpt lat="40.477623" lon="-74.423934"></trkpt>
    <trkpt lat="40.479472" lon="-74.421681"></trkpt>
    <trkpt lat="40.479807" lon="-74.421311"></trkpt>
    <trkpt lat="40.480327" lon="-74.420785"></trkpt>
    <trkpt lat="40.481302" lon="-74.419894"></trkpt>
    <trkpt lat="40.483327" lon="-74.418121"></trkpt>
    <trkpt lat="40.483705" lon="-74.417797"></trkpt>
    <trkpt lat="40.484986" lon="-74.416666"></trkpt>
    <trkpt lat="40.485223" lon="-74.416453"></trkpt>
    <trkpt lat="40.486107" lon="-74.415691"></trkpt>
    <trkpt lat="40.486789" lon="-74.415097"></trkpt>
    <trkpt lat="40.487815" lon="-74.414266"></trkpt>
    <trkpt lat="40.488325" lon="-74.413922"></trkpt>
    <trkpt lat="40.488595" lon="-74.413783"></trkpt>
    <trkpt lat="40.488878" lon="-74.413662"></trkpt>
    <trkpt lat="40.489170" lon="-74.413568"></trkpt>
    <trkpt lat="40.489731" lon="-74.413434"></trkpt>
    <trkpt lat="40.493361" lon="-74.412685"></trkpt>
    <trkpt lat="40.494875" lon="-74.412372"></trkpt>
    <trkpt lat="40.495707" lon="-74.412160"></trkpt>
    <trkpt lat="40.496156" lon="-74.411983"></trkpt>
    <trkpt lat="40.496499" lon="-74.411795"></trkpt>
    <trkpt lat="40.496762" lon="-74.411601"></trkpt>
    <trkpt lat="40.497250" lon="-74.411194"></trkpt>
    <trkpt lat="40.497578" lon="-74.410836"></trkpt>
    <trkpt lat="40.497772" lon="-74.410593"></trkpt>
    <trkpt lat="40.498009" lon="-74.410218"></trkpt>
    <trkpt lat="40.498202" lon="-74.409903"></trkpt>
    <trkpt lat="40.498535" lon="-74.409290"></trkpt>
    <trkpt lat="40.498808" lon="-74.408657"></trkpt>
    <trkpt lat="40.498907" lon="-74.407689"></trkpt>
    <trkpt lat="40.498914" lon="-74.407257"></trkpt>
    <trkpt lat="40.498881" lon="-74.406559"></trkpt>
    <trkpt lat="40.498972" lon="-74.406032"></trkpt>
    <trkpt lat="40.499181" lon="-74.405595"></trkpt>
    <trkpt lat="40.499301" lon="-74.405213"></trkpt>
    <trkpt lat="40.499345" lon="-74.404487"></trkpt>
    <trkpt lat="40.499349" lon="-74.404093"></trkpt>
    <trkpt lat="40.499380" lon="-74.403578"></trkpt>
    <trkpt lat="40.499450" lon="-74.403074"></trkpt>
    <trkpt lat="40.499579" lon="-74.402516"></trkpt>
    <trkpt lat="40.499728" lon="-74.402032"></trkpt>
    <trkpt lat="40.499862" lon="-74.401759"></trkpt>
    <trkpt lat="40.499787" lon="-74.402139"></trkpt>
    <trkpt lat="40.499604" lon="-74.402708"></trkpt>
    <trkpt lat="40.499526" lon="-74.403099"></trkpt>
    <trkpt lat="40.499482" lon="-74.403389"></trkpt>
    <trkpt lat="40.499412" lon="-74.404075"></trkpt>
    <trkpt lat="40.499429" lon="-74.404891"></trkpt>
    <trkpt lat="40.499473" lon="-74.405293"></trkpt>
    <trkpt lat="40.499526" lon="-74.405653"></trkpt>
    <trkpt lat="40.499791" lon="-74.406712"></trkpt>
    <trkpt lat="40.499930" lon="-74.407265"></trkpt>
    <trkpt lat="40.500031" lon="-74.407685"></trkpt>
    <trkpt lat="40.500318" lon="-74.408474"></trkpt>
    <trkpt lat="40.500513" lon="-74.408839"></trkpt>
    <trkpt lat="40.500909" lon="-74.409483"></trkpt>
    <trkpt lat="40.501068" lon="-74.410057"></trkpt>
    <trkpt lat="40.501098" lon="-74.410426"></trkpt>
    <trkpt lat="40.501116" lon="-74.410932"></trkpt>
    <trkpt lat="40.501448" lon="-74.410932"></trkpt>
    <trkpt lat="40.502057" lon="-74.411009"></trkpt>
    <trkpt lat="40.502744" lon="-74.411107"></trkpt>
    <trkpt lat="40.502950" lon="-74.411258"></trkpt>
    <trkpt lat="40.502688" lon="-74.411488"></trkpt>
    <trkpt lat="40.502266" lon="-74.411546"></trkpt>
    <trkpt lat="40.501640" lon="-74.411614"></trkpt>
    <trkpt lat="40.501261" lon="-74.411655"></trkpt>
    <trkpt lat="40.501137" lon="-74.411268"></trkpt>
    <trkpt lat="40.501116" lon="-74.410932"></trkpt>
    <trkpt lat="40.501042" lon="-74.410650"></trkpt>
    <trkpt lat="40.500993" lon="-74.410107"></trkpt>
    <trkpt lat="40.500750" lon="-74.409482"></trkpt>
    <trkpt lat="40.500338" lon="-74.408705"></trkpt>
    <trkpt lat="40.500122" lon="-74.408249"></trkpt>
    <trkpt lat="40.500024" lon="-74.407963"></trkpt>
    <trkpt lat="40.499866" lon="-74.407373"></trkpt>
    <trkpt lat="40.499732" lon="-74.406817"></trkpt>
    <trkpt lat="40.499569" lon="-74.406388"></trkpt>
    <trkpt lat="40.499239" lon="-74.406221"></trkpt>
    <trkpt lat="40.499020" lon="-74.406413"></trkpt>
    <trkpt lat="40.498998" lon="-74.406985"></trkpt>
    <trkpt lat="40.499124" lon="-74.407317"></trkpt>
    <trkpt lat="40.499407" lon="-74.407375"></trkpt>
    <trkpt lat="40.499824" lon="-74.406892"></trkpt>
    <trkpt lat="40.500064" lon="-74.406435"></trkpt>
    <trkpt lat="40.500278" lon="-74.406031"></trkpt>
    <trkpt lat="40.500438" lon="-74.405726"></trkpt>
    <trkpt lat="40.501037" lon="-74.404592"></trkpt>
    <trkpt lat="40.501479" lon="-74.403777"></trkpt>
    <trkpt lat="40.501969" lon="-74.402855"></trkpt>
    <trkpt lat="40.502403" lon="-74.401992"></trkpt>
    <trkpt lat="40.502575" lon="-74.401662"></trkpt>
    <trkpt lat="40.502871" lon="-74.401105"></trkpt>
    <trkpt lat="40.503026" lon="-74.400814"></trkpt>
    <trkpt lat="40.503443" lon="-74.400043"></trkpt>
    <trkpt lat="40.503795" lon="-74.399401"></trkpt>
    <trkpt lat="40.503923" lon="-74.399146"></trkpt>
    <trkpt lat="40.504109" lon="-74.398784"></trkpt>
    <trkpt lat="40.504374" lon="-74.398273"></trkpt>
    <trkpt lat="40.504644" lon="-74.397757"></trkpt>
    <trkpt lat="40.504803" lon="-74.397453"></trkpt>
    <trkpt lat="40.505125" lon="-74.396844"></trkpt>
    <trkpt lat="40.505580" lon="-74.395964"></trkpt>
    <trkpt lat="40.505955" lon="-74.395241"></trkpt>
    <trkpt lat="40.506203" lon="-74.394777"></trkpt>
    <trkpt lat="40.506420" lon="-74.394366"></trkpt>
    <trkpt lat="40.506666" lon="-74.393907"></trkpt>
    <trkpt lat="40.506848" lon="-74.393567"></trkpt>
    <trkpt lat="40.507280" lon="-74.392757"></trkpt>
    <trkpt lat="40.507458" lon="-74.392431"></trkpt>
    <trkpt lat="40.507920" lon="-74.391551"></trkpt>
    <trkpt lat="40.508113" lon="-74.391147"></trkpt>
    <trkpt lat="40.508308" lon="-74.390761"></trkpt>
    <trkpt lat="40.508629" lon="-74.390136"></trkpt>
    <trkpt lat="40.508802" lon="-74.389811"></trkpt>
    <trkpt lat="40.509067" lon="-74.389318"></trkpt>
    <trkpt lat="40.509194" lon="-74.389054"></trkpt>
    <trkpt lat="40.509396" lon="-74.388621"></trkpt>
    <trkpt lat="40.509573" lon="-74.388189"></trkpt>
    <trkpt lat="40.509683" lon="-74.387928"></trkpt>
    <trkpt lat="40.510132" lon="-74.386878"></trkpt>
    <trkpt lat="40.510329" lon="-74.386411"></trkpt>
    <trkpt lat="40.510555" lon="-74.385873"></trkpt>
    <trkpt lat="40.510731" lon="-74.385455"></trkpt>
    <trkpt lat="40.510975" lon="-74.384866"></trkpt>
    <trkpt lat="40.511101" lon="-74.384565"></trkpt>
    <trkpt lat="40.511290" lon="-74.384100"></trkpt>
    <trkpt lat="40.511639" lon="-74.383331"></trkpt>
    <trkpt lat="40.511987" lon="-74.382500"></trkpt>
    <trkpt lat="40.512742" lon="-74.380673"></trkpt>
    <trkpt lat="40.512920" lon="-74.380249"></trkpt>
    <trkpt lat="40.513363" lon="-74.379197"></trkpt>
    <trkpt lat="40.513690" lon="-74.378418"></trkpt>
    <trkpt lat="40.513955" lon="-74.377786"></trkpt>
    <trkpt lat="40.514060" lon="-74.377515"></trkpt>
    <trkpt lat="40.514223" lon="-74.377093"></trkpt>
    <trkpt lat="40.514547" lon="-74.376298"></trkpt>
    <trkpt lat="40.514822" lon="-74.375623"></trkpt>
    <trkpt lat="40.514972" lon="-74.375260"></trkpt>
    <trkpt lat="40.515143" lon="-74.374843"></trkpt>
    <trkpt lat="40.515373" lon="-74.374298"></trkpt>
    <trkpt lat="40.515507" lon="-74.373960"></trkpt>
    <trkpt lat="40.515670" lon="-74.373568"></trkpt>
    <trkpt lat="40.516982" lon="-74.370441"></trkpt>
    <trkpt lat="40.517536" lon="-74.369296"></trkpt>
    <trkpt lat="40.517791" lon="-74.368828"></trkpt>
    <trkpt lat="40.518050" lon="-74.368352"></trkpt>
    <trkpt lat="40.518233" lon="-74.368064"></trkpt>
    <trkpt lat="40.518748" lon="-74.367254"></trkpt>
    <trkpt lat="40.519697" lon="-74.365920"></trkpt>
    <trkpt lat="40.520018" lon="-74.365527"></trkpt>
    <trkpt lat="40.520961" lon="-74.364235"></trkpt>
    <trkpt lat="40.522262" lon="-74.362456"></trkpt>
    <trkpt lat="40.522876" lon="-74.361676"></trkpt>
    <trkpt lat="40.523231" lon="-74.361212"></trkpt>
    <trkpt lat="40.523589" lon="-74.360742"></trkpt>
    <trkpt lat="40.523713" lon="-74.360439"></trkpt>
    <trkpt lat="40.523858" lon="-74.360073"></trkpt>
    <trkpt lat="40.523956" lon="-74.359709"></trkpt>
    <trkpt lat="40.524009" lon="-74.359383"></trkpt>
    <trkpt lat="40.524034" lon="-74.359033"></trkpt>
    <trkpt lat="40.524024" lon="-74.358699"></trkpt>
    <trkpt lat="40.523756" lon="-74.358273"></trkpt>
    <trkpt lat="40.523499" lon="-74.358230"></trkpt>
    <trkpt lat="40.523480" lon="-74.357422"></trkpt>
    <trkpt lat="40.523551" lon="-74.356528"></trkpt>
    <trkpt lat="40.523706" lon="-74.354958"></trkpt>
    <trkpt lat="40.522691" lon="-74.354779"></trkpt>
    <trkpt lat="40.521456" lon="-74.354562"></trkpt>
    <trkpt lat="40.520885" lon="-74.356092"></trkpt>
    <trkpt lat="40.520481" lon="-74.357197"></trkpt>
    <trkpt lat="40.519496" lon="-74.356234"></trkpt>
    <trkpt lat="40.519273" lon="-74.356015"></trkpt>
    <trkpt lat="40.519021" lon="-74.355770"></trkpt>
    <trkpt lat="40.518731" lon="-74.355550"></trkpt>
    <trkpt lat="40.518146" lon="-74.355341"></trkpt>
    <trkpt lat="40.517652" lon="-74.355220"></trkpt>
    <trkpt lat="40.517410" lon="-74.355204"></trkpt>
    <trkpt lat="40.516933" lon="-74.355200"></trkpt>
    <trkpt lat="40.516572" lon="-74.355235"></trkpt>
    <trkpt lat="40.516295" lon="-74.355244"></trkpt>
    <trkpt lat="40.516090" lon="-74.355101"></trkpt>
    <trkpt lat="40.516019" lon="-74.354604"></trkpt>
    <trkpt lat="40.516169" lon="-74.353111"></trkpt>
    <trkpt lat="40.516253" lon="-74.352584"></trkpt>
    <trkpt lat="40.516316" lon="-74.352183"></trkpt>
    <trkpt lat="40.516545" lon="-74.351153"></trkpt>
    <trkpt lat="40.516702" lon="-74.350617"></trkpt>
    <trkpt lat="40.516801" lon="-74.350303"></trkpt>
    <trkpt lat="40.516981" lon="-74.349796"></trkpt>
    <trkpt lat="40.517099" lon="-74.349463"></trkpt>
    <trkpt lat="40.517377" lon="-74.348792"></trkpt>
    <trkpt lat="40.517670" lon="-74.348213"></trkpt>
    <trkpt lat="40.519772" lon="-74.344733"></trkpt>
    <trkpt lat="40.520094" lon="-74.344203"></trkpt>
    <trkpt lat="40.520501" lon="-74.343534"></trkpt>
    <trkpt lat="40.520668" lon="-74.343257"></trkpt>
    <trkpt lat="40.521443" lon="-74.341968"></trkpt>
    <trkpt lat="40.521695" lon="-74.341506"></trkpt>
    <trkpt lat="40.521973" lon="-74.340897"></trkpt>
    <trkpt lat="40.522230" lon="-74.340220"></trkpt>
    <trkpt lat="40.522475" lon="-74.339514"></trkpt>
    <trkpt lat="40.523212" lon="-74.337317"></trkpt>
    <trkpt lat="40.523573" lon="-74.336275"></trkpt>
    <trkpt lat="40.523887" lon="-74.335442"></trkpt>
    <trkpt lat="40.524214" lon="-74.334724"></trkpt>
    <trkpt lat="40.524485" lon="-74.334069"></trkpt>
    <trkpt lat="40.524636" lon="-74.333565"></trkpt>
    <trkpt lat="40.524736" lon="-74.333004"></trkpt>
    <trkpt lat="40.524808" lon="-74.332004"></trkpt>
    <trkpt lat="40.524843" lon="-74.331691"></trkpt>
    <trkpt lat="40.524899" lon="-74.331394"></trkpt>
    <trkpt lat="40.524975" lon="-74.331104"></trkpt>
    <trkpt lat="40.525161" lon="-74.330601"></trkpt>
    <trkpt lat="40.525282" lon="-74.330346"></trkpt>
    <trkpt lat="40.525899" lon="-74.329327"></trkpt>
    <trkpt lat="40.526131" lon="-74.328811"></trkpt>
    <trkpt lat="40.526224" lon="-74.328262"></trkpt>
    <trkpt lat="40.526212" lon="-74.327657"></trkpt>
    <trkpt lat="40.526116" lon="-74.326714"></trkpt>
    <trkpt lat="40.526081" lon="-74.326185"></trkpt>
    <trkpt lat="40.526001" lon="-74.323798"></trkpt>
    <trkpt lat="40.525883" lon="-74.322461"></trkpt>
    <trkpt lat="40.525731" lon="-74.321155"></trkpt>
    <trkpt lat="40.525595" lon="-74.320200"></trkpt>
    <trkpt lat="40.525438" lon="-74.319235"></trkpt>
    <trkpt lat="40.525144" lon="-74.317714"></trkpt>
    <trkpt lat="40.524890" lon="-74.316563"></trkpt>
    <trkpt lat="40.524763" lon="-74.316042"></trkpt>
    <trkpt lat="40.524352" lon="-74.315038"></trkpt>
    <trkpt lat="40.524163" lon="-74.314543"></trkpt>
    <trkpt lat="40.523959" lon="-74.314072"></trkpt>
    <trkpt lat="40.523549" lon="-74.313069"></trkpt>
    <trkpt lat="40.523351" lon="-74.312711"></trkpt>
    <trkpt lat="40.523054" lon="-74.312295"></trkpt>
    <trkpt lat="40.522769" lon="-74.311964"></trkpt>
    <trkpt lat="40.522568" lon="-74.311764"></trkpt>
    <trkpt lat="40.522374" lon="-74.311613"></trkpt>
    <trkpt lat="40.522107" lon="-74.311404"></trkpt>
    <trkpt lat="40.521844" lon="-74.311235"></trkpt>
    <trkpt lat="40.521370" lon="-74.310962"></trkpt>
    <trkpt lat="40.520400" lon="-74.310455"></trkpt>
    <trkpt lat="40.519929" lon="-74.310214"></trkpt>
    <trkpt lat="40.518749" lon="-74.309606"></trkpt>
    <trkpt lat="40.518531" lon="-74.309472"></trkpt>
    <trkpt lat="40.518321" lon="-74.309313"></trkpt>
    <trkpt lat="40.517884" lon="-74.308876"></trkpt>
    <trkpt lat="40.517686" lon="-74.308633"></trkpt>
    <trkpt lat="40.517481" lon="-74.308304"></trkpt>
    <trkpt lat="40.517293" lon="-74.307939"></trkpt>
    <trkpt lat="40.517060" lon="-74.307312"></trkpt>
    <trkpt lat="40.516439" lon="-74.305391"></trkpt>
    <trkpt lat="40.516257" lon="-74.304874"></trkpt>
    <trkpt lat="40.516061" lon="-74.304369"></trkpt>
    <trkpt lat="40.515588" lon="-74.303242"></trkpt>
    <trkpt lat="40.515388" lon="-74.302760"></trkpt>
    <trkpt lat="40.515102" lon="-74.302098"></trkpt>
    <trkpt lat="40.514892" lon="-74.301564"></trkpt>
    <trkpt lat="40.514741" lon="-74.300961"></trkpt>
    <trkpt lat="40.514709" lon="-74.300409"></trkpt>
    <trkpt lat="40.512985" lon="-74.300443"></trkpt>
    <trkpt lat="40.512770" lon="-74.299854"></trkpt>
    <trkpt lat="40.512970" lon="-74.300330"></trkpt>
    <trkpt lat="40.512750" lon="-74.301084"></trkpt>
    <trkpt lat="40.512647" lon="-74.301536"></trkpt>
    <trkpt lat="40.513338" lon="-74.301565"></trkpt>
    <trkpt lat="40.514235" lon="-74.301567"></trkpt>
    <trkpt lat="40.514468" lon="-74.301583"></trkpt>
    <trkpt lat="40.514745" lon="-74.301609"></trkpt>
    <trkpt lat="40.514815" lon="-74.301301"></trkpt>
    <trkpt lat="40.514741" lon="-74.300961"></trkpt>
    <trkpt lat="40.514709" lon="-74.300409"></trkpt>
    <trkpt lat="40.514731" lon="-74.299978"></trkpt>
    <trkpt lat="40.514781" lon="-74.299588"></trkpt>
    <trkpt lat="40.514868" lon="-74.299192"></trkpt>
    <trkpt lat="40.515098" lon="-74.298596"></trkpt>
    <trkpt lat="40.515340" lon="-74.298253"></trkpt>
    <trkpt lat="40.515578" lon="-74.298309"></trkpt>
    <trkpt lat="40.515670" lon="-74.298592"></trkpt>
    <trkpt lat="40.515669" lon="-74.299517"></trkpt>
    <trkpt lat="40.515711" lon="-74.300093"></trkpt>
    <trkpt lat="40.515940" lon="-74.300451"></trkpt>
    <trkpt lat="40.516165" lon="-74.300555"></trkpt>
    <trkpt lat="40.516626" lon="-74.300610"></trkpt>
    <trkpt lat="40.517119" lon="-74.300629"></trkpt>
    <trkpt lat="40.517372" lon="-74.300468"></trkpt>
    <trkpt lat="40.517310" lon="-74.300150"></trkpt>
    <trkpt lat="40.516735" lon="-74.300023"></trkpt>
    <trkpt lat="40.515984" lon="-74.300069"></trkpt>
    <trkpt lat="40.513640" lon="-74.300218"></trkpt>
    <trkpt lat="40.503642" lon="-74.300858"></trkpt>
    <trkpt lat="40.502635" lon="-74.300909"></trkpt>
    <trkpt lat="40.502307" lon="-74.300905"></trkpt>
    <trkpt lat="40.501759" lon="-74.300863"></trkpt>
    <trkpt lat="40.501005" lon="-74.300728"></trkpt>
    <trkpt lat="40.500149" lon="-74.300469"></trkpt>
    <trkpt lat="40.499798" lon="-74.300340"></trkpt>
    <trkpt lat="40.499084" lon="-74.300021"></trkpt>
    <trkpt lat="40.498672" lon="-74.299814"></trkpt>
    <trkpt lat="40.498068" lon="-74.299463"></trkpt>
    <trkpt lat="40.496653" lon="-74.298531"></trkpt>
    <trkpt lat="40.496189" lon="-74.298226"></trkpt>
    <trkpt lat="40.495834" lon="-74.298027"></trkpt>
    <trkpt lat="40.495430" lon="-74.297839"></trkpt>
    <trkpt lat="40.495125" lon="-74.297727"></trkpt>
    <trkpt lat="40.494743" lon="-74.297623"></trkpt>
    <trkpt lat="40.494377" lon="-74.297551"></trkpt>
    <trkpt lat="40.494061" lon="-74.297515"></trkpt>
    <trkpt lat="40.493650" lon="-74.297498"></trkpt>
    <trkpt lat="40.493245" lon="-74.297522"></trkpt>
    <trkpt lat="40.492819" lon="-74.297588"></trkpt>
    <trkpt lat="40.492328" lon="-74.297706"></trkpt>
    <trkpt lat="40.491848" lon="-74.297851"></trkpt>
    <trkpt lat="40.491288" lon="-74.298009"></trkpt>
    <trkpt lat="40.490516" lon="-74.298142"></trkpt>
    <trkpt lat="40.490147" lon="-74.298165"></trkpt>
    <trkpt lat="40.489590" lon="-74.298158"></trkpt>
    <trkpt lat="40.489012" lon="-74.298109"></trkpt>
    <trkpt lat="40.488540" lon="-74.298031"></trkpt>
    <trkpt lat="40.488152" lon="-74.297946"></trkpt>
    <trkpt lat="40.487448" lon="-74.297801"></trkpt>
    <trkpt lat="40.486895" lon="-74.297689"></trkpt>
    <trkpt lat="40.485447" lon="-74.297393"></trkpt>
    <trkpt lat="40.485154" lon="-74.297333"></trkpt>
    <trkpt lat="40.484766" lon="-74.297256"></trkpt>
    <trkpt lat="40.484155" lon="-74.297130"></trkpt>
    <trkpt lat="40.483400" lon="-74.296861"></trkpt>
    <trkpt lat="40.482812" lon="-74.296579"></trkpt>
    <trkpt lat="40.482450" lon="-74.296367"></trkpt>
    <trkpt lat="40.481996" lon="-74.296041"></trkpt>
    <trkpt lat="40.481644" lon="-74.295741"></trkpt>
    <trkpt lat="40.481227" lon="-74.295332"></trkpt>
    <trkpt lat="40.481007" lon="-74.295082"></trkpt>
    <trkpt lat="40.480635" lon="-74.294610"></trkpt>
    <trkpt lat="40.480286" lon="-74.294113"></trkpt>
    <trkpt lat="40.479422" lon="-74.292861"></trkpt>
    <trkpt lat="40.479191" lon="-74.292529"></trkpt>
    <trkpt lat="40.478812" lon="-74.291996"></trkpt>
    <trkpt lat="40.478571" lon="-74.291677"></trkpt>
    <trkpt lat="40.478253" lon="-74.291286"></trkpt>
    <trkpt lat="40.477897" lon="-74.290880"></trkpt>
    <trkpt lat="40.477649" lon="-74.290594"></trkpt>
    <trkpt lat="40.475557" lon="-74.288060"></trkpt>
    <trkpt lat="40.475326" lon="-74.287988"></trkpt>
    <trkpt lat="40.474989" lon="-74.288325"></trkpt>
    <trkpt lat="40.474255" lon="-74.287303"></trkpt>
    <trkpt lat="40.474471" lon="-74.286951"></trkpt>
    <trkpt lat="40.474960" lon="-74.286334"></trkpt>
    <trkpt lat="40.475456" lon="-74.285676"></trkpt>
    <trkpt lat="40.475980" lon="-74.285037"></trkpt>
    <trkpt lat="40.476184" lon="-74.284773"></trkpt>
    <trkpt lat="40.477142" lon="-74.283561"></trkpt>
    <trkpt lat="40.477507" lon="-74.283181"></trkpt>
    <trkpt lat="40.478263" lon="-74.282207"></trkpt>
    <trkpt lat="40.478532" lon="-74.281868"></trkpt>
    <trkpt lat="40.478812" lon="-74.281457"></trkpt>
    <trkpt lat="40.479129" lon="-74.280911"></trkpt>
    <trkpt lat="40.480717" lon="-74.278072"></trkpt>
    <trkpt lat="40.480075" lon="-74.277577"></trkpt>
    <trkpt lat="40.479451" lon="-74.277102"></trkpt>
    <trkpt lat="40.479095" lon="-74.276853"></trkpt>
    <trkpt lat="40.478045" lon="-74.276062"></trkpt>
    <trkpt lat="40.477724" lon="-74.275815"></trkpt>
    <trkpt lat="40.477637" lon="-74.275346"></trkpt>
    <trkpt lat="40.477424" lon="-74.275115"></trkpt>
    <trkpt lat="40.477159" lon="-74.274905"></trkpt>
    <trkpt lat="40.476441" lon="-74.274377"></trkpt>
    <trkpt lat="40.476205" lon="-74.274321"></trkpt>
    <trkpt lat="40.475964" lon="-74.274354"></trkpt>
    <trkpt lat="40.476205" lon="-74.274321"></trkpt>
    <trkpt lat="40.476441" lon="-74.274377"></trkpt>
    <trkpt lat="40.477159" lon="-74.274905"></trkpt>
    <trkpt lat="40.477424" lon="-74.275115"></trkpt>
    <trkpt lat="40.477637" lon="-74.275346"></trkpt>
    <trkpt lat="40.477675" lon="-74.275729"></trkpt>
    <trkpt lat="40.477893" lon="-74.275957"></trkpt>
    <trkpt lat="40.478766" lon="-74.274471"></trkpt>
    <trkpt lat="40.478970" lon="-74.274027"></trkpt>
    <trkpt lat="40.479472" lon="-74.272880"></trkpt>
    <trkpt lat="40.479692" lon="-74.272408"></trkpt>
    <trkpt lat="40.480007" lon="-74.272040"></trkpt>
    <trkpt lat="40.480296" lon="-74.271914"></trkpt>
    <trkpt lat="40.480639" lon="-74.271938"></trkpt>
    <trkpt lat="40.480863" lon="-74.272077"></trkpt>
    <trkpt lat="40.481192" lon="-74.272310"></trkpt>
    <trkpt lat="40.481491" lon="-74.272551"></trkpt>
    <trkpt lat="40.481884" lon="-74.272856"></trkpt>
    <trkpt lat="40.482112" lon="-74.273021"></trkpt>
    <trkpt lat="40.482760" lon="-74.273550"></trkpt>
    <trkpt lat="40.482935" lon="-74.273806"></trkpt>
    <trkpt lat="40.483047" lon="-74.274142"></trkpt>
    <trkpt lat="40.483063" lon="-74.274530"></trkpt>
    <trkpt lat="40.483021" lon="-74.275094"></trkpt>
    <trkpt lat="40.483075" lon="-74.275464"></trkpt>
    <trkpt lat="40.483223" lon="-74.275768"></trkpt>
    <trkpt lat="40.482308" lon="-74.278356"></trkpt>
    <trkpt lat="40.481988" lon="-74.279049"></trkpt>
    <trkpt lat="40.481373" lon="-74.278578"></trkpt>
    <trkpt lat="40.480006" lon="-74.281570"></trkpt>
    <trkpt lat="40.478670" lon="-74.284541"></trkpt>
    <trkpt lat="40.478018" lon="-74.284041"></trkpt>
    <trkpt lat="40.477387" lon="-74.283561"></trkpt>
    <trkpt lat="40.476245" lon="-74.284848"></trkpt>
    <trkpt lat="40.476061" lon="-74.285101"></trkpt>
    <trkpt lat="40.475707" lon="-74.285544"></trkpt>
    <trkpt lat="40.475387" lon="-74.285949"></trkpt>
    <trkpt lat="40.475027" lon="-74.286412"></trkpt>
    <trkpt lat="40.474698" lon="-74.286820"></trkpt>
    <trkpt lat="40.474401" lon="-74.287190"></trkpt>
    <trkpt lat="40.473827" lon="-74.287837"></trkpt>
    <trkpt lat="40.473603" lon="-74.288126"></trkpt>
    <trkpt lat="40.473272" lon="-74.288544"></trkpt>
    <trkpt lat="40.472940" lon="-74.288960"></trkpt>
    <trkpt lat="40.472617" lon="-74.289346"></trkpt>
    <trkpt lat="40.472379" lon="-74.289634"></trkpt>
    <trkpt lat="40.471852" lon="-74.290289"></trkpt>
    <trkpt lat="40.471647" lon="-74.290551"></trkpt>
    <trkpt lat="40.471008" lon="-74.291357"></trkpt>
    <trkpt lat="40.470519" lon="-74.291980"></trkpt>
    <trkpt lat="40.470356" lon="-74.292189"></trkpt>
    <trkpt lat="40.469380" lon="-74.293430"></trkpt>
    <trkpt lat="40.468866" lon="-74.294083"></trkpt>
    <trkpt lat="40.468195" lon="-74.294937"></trkpt>
    <trkpt lat="40.467930" lon="-74.295297"></trkpt>
    <trkpt lat="40.467700" lon="-74.295724"></trkpt>
    <trkpt lat="40.467462" lon="-74.296603"></trkpt>
    <trkpt lat="40.467322" lon="-74.297081"></trkpt>
    <trkpt lat="40.467155" lon="-74.297399"></trkpt>
    <trkpt lat="40.466975" lon="-74.297597"></trkpt>
    <trkpt lat="40.466719" lon="-74.297781"></trkpt>
    <trkpt lat="40.466245" lon="-74.298000"></trkpt>
    <trkpt lat="40.466082" lon="-74.297707"></trkpt>
    <trkpt lat="40.466191" lon="-74.297353"></trkpt>
    <trkpt lat="40.466158" lon="-74.296976"></trkpt>
    <trkpt lat="40.465855" lon="-74.296715"></trkpt>
    <trkpt lat="40.465516" lon="-74.296495"></trkpt>
    <trkpt lat="40.465306" lon="-74.296378"></trkpt>
    <trkpt lat="40.464996" lon="-74.296207"></trkpt>
    <trkpt lat="40.464675" lon="-74.296032"></trkpt>
    <trkpt lat="40.464344" lon="-74.295887"></trkpt>
    <trkpt lat="40.463796" lon="-74.295785"></trkpt>
    <trkpt lat="40.463228" lon="-74.295757"></trkpt>
    <trkpt lat="40.462877" lon="-74.295740"></trkpt>
    <trkpt lat="40.462436" lon="-74.295717"></trkpt>
    <trkpt lat="40.461752" lon="-74.295690"></trkpt>
    <trkpt lat="40.461449" lon="-74.295685"></trkpt>
    <trkpt lat="40.460899" lon="-74.295654"></trkpt>
    <trkpt lat="40.460588" lon="-74.295641"></trkpt>
    <trkpt lat="40.459989" lon="-74.295612"></trkpt>
    <trkpt lat="40.458704" lon="-74.295618"></trkpt>
    <trkpt lat="40.458247" lon="-74.295665"></trkpt>
    <trkpt lat="40.457602" lon="-74.295791"></trkpt>
    <trkpt lat="40.457123" lon="-74.295946"></trkpt>
    <trkpt lat="40.456626" lon="-74.296139"></trkpt>
    <trkpt lat="40.455425" lon="-74.296563"></trkpt>
    <trkpt lat="40.455042" lon="-74.296741"></trkpt>
    <trkpt lat="40.454706" lon="-74.296880"></trkpt>
    <trkpt lat="40.454072" lon="-74.297132"></trkpt>
    <trkpt lat="40.452476" lon="-74.297745"></trkpt>
    <trkpt lat="40.451913" lon="-74.297969"></trkpt>
    <trkpt lat="40.451214" lon="-74.298239"></trkpt>
    <trkpt lat="40.450881" lon="-74.298382"></trkpt>
    <trkpt lat="40.450626" lon="-74.298480"></trkpt>
    <trkpt lat="40.449902" lon="-74.298755"></trkpt>
    <trkpt lat="40.448485" lon="-74.299301"></trkpt>
    <trkpt lat="40.447929" lon="-74.299503"></trkpt>
    <trkpt lat="40.447331" lon="-74.299670"></trkpt>
    <trkpt lat="40.446755" lon="-74.299758"></trkpt>
    <trkpt lat="40.445210" lon="-74.299898"></trkpt>
    <trkpt lat="40.444347" lon="-74.299956"></trkpt>
    <trkpt lat="40.444018" lon="-74.299978"></trkpt>
    <trkpt lat="40.443623" lon="-74.299999"></trkpt>
    <trkpt lat="40.442220" lon="-74.300064"></trkpt>
    <trkpt lat="40.441404" lon="-74.300116"></trkpt>
    <trkpt lat="40.440650" lon="-74.300162"></trkpt>
    <trkpt lat="40.440268" lon="-74.300193"></trkpt>
    <trkpt lat="40.439487" lon="-74.300264"></trkpt>
    <trkpt lat="40.439250" lon="-74.300306"></trkpt>
    <trkpt lat="40.438847" lon="-74.300422"></trkpt>
    <trkpt lat="40.438355" lon="-74.300564"></trkpt>
    <trkpt lat="40.437682" lon="-74.300632"></trkpt>
    <trkpt lat="40.437002" lon="-74.300409"></trkpt>
    <trkpt lat="40.436353" lon="-74.300185"></trkpt>
    <trkpt lat="40.436127" lon="-74.300104"></trkpt>
    <trkpt lat="40.435898" lon="-74.300023"></trkpt>
    <trkpt lat="40.435518" lon="-74.299835"></trkpt>
    <trkpt lat="40.435068" lon="-74.299552"></trkpt>
    <trkpt lat="40.434781" lon="-74.299354"></trkpt>
    <trkpt lat="40.433914" lon="-74.298760"></trkpt>
    <trkpt lat="40.433575" lon="-74.298530"></trkpt>
    <trkpt lat="40.433351" lon="-74.298381"></trkpt>
    <trkpt lat="40.432417" lon="-74.297739"></trkpt>
    <trkpt lat="40.431925" lon="-74.297406"></trkpt>
    <trkpt lat="40.431179" lon="-74.296894"></trkpt>
    <trkpt lat="40.430869" lon="-74.296667"></trkpt>
    <trkpt lat="40.430092" lon="-74.296143"></trkpt>
    <trkpt lat="40.429590" lon="-74.295806"></trkpt>
    <trkpt lat="40.429281" lon="-74.295602"></trkpt>
    <trkpt lat="40.428762" lon="-74.295261"></trkpt>
    <trkpt lat="40.428502" lon="-74.295063"></trkpt>
    <trkpt lat="40.427676" lon="-74.294437"></trkpt>
    <trkpt lat="40.427398" lon="-74.294183"></trkpt>
    <trkpt lat="40.426821" lon="-74.293506"></trkpt>
    <trkpt lat="40.426454" lon="-74.292862"></trkpt>
    <trkpt lat="40.426293" lon="-74.292426"></trkpt>
    <trkpt lat="40.426113" lon="-74.291768"></trkpt>
    <trkpt lat="40.426583" lon="-74.291510"></trkpt>
    <trkpt lat="40.426745" lon="-74.291784"></trkpt>
    <trkpt lat="40.426583" lon="-74.291510"></trkpt>
    <trkpt lat="40.426274" lon="-74.291631"></trkpt>
    <trkpt lat="40.426054" lon="-74.291532"></trkpt>
    <trkpt lat="40.425921" lon="-74.291068"></trkpt>
    <trkpt lat="40.425790" lon="-74.290657"></trkpt>
    <trkpt lat="40.425466" lon="-74.289707"></trkpt>
    <trkpt lat="40.425198" lon="-74.289034"></trkpt>
    <trkpt lat="40.424947" lon="-74.288376"></trkpt>
    <trkpt lat="40.424788" lon="-74.288047"></trkpt>
    <trkpt lat="40.424480" lon="-74.287837"></trkpt>
    <trkpt lat="40.422714" lon="-74.289426"></trkpt>
    <trkpt lat="40.422002" lon="-74.290041"></trkpt>
    <trkpt lat="40.420648" lon="-74.291484"></trkpt>
    <trkpt lat="40.420293" lon="-74.291782"></trkpt>
    <trkpt lat="40.419941" lon="-74.292008"></trkpt>
    <trkpt lat="40.419132" lon="-74.292390"></trkpt>
    <trkpt lat="40.417800" lon="-74.293087"></trkpt>
    <trkpt lat="40.415940" lon="-74.293775"></trkpt>
    <trkpt lat="40.415392" lon="-74.293978"></trkpt>
    <trkpt lat="40.414620" lon="-74.294263"></trkpt>
    <trkpt lat="40.411597" lon="-74.295087"></trkpt>
    <trkpt lat="40.410599" lon="-74.295220"></trkpt>
    <trkpt lat="40.409064" lon="-74.295141"></trkpt>
    <trkpt lat="40.408739" lon="-74.295099"></trkpt>
    <trkpt lat="40.407546" lon="-74.294965"></trkpt>
    <trkpt lat="40.406985" lon="-74.294872"></trkpt>
    <trkpt lat="40.405484" lon="-74.295305"></trkpt>
    <trkpt lat="40.404534" lon="-74.295587"></trkpt>
    <trkpt lat="40.403904" lon="-74.295779"></trkpt>
    <trkpt lat="40.403567" lon="-74.295875"></trkpt>
    <trkpt lat="40.403172" lon="-74.295996"></trkpt>
    <trkpt lat="40.402930" lon="-74.297235"></trkpt>
    <trkpt lat="40.402601" lon="-74.298992"></trkpt>
    <trkpt lat="40.402439" lon="-74.299831"></trkpt>
    <trkpt lat="40.402247" lon="-74.300926"></trkpt>
    <trkpt lat="40.402027" lon="-74.302970"></trkpt>
    <trkpt lat="40.402014" lon="-74.303380"></trkpt>
    <trkpt lat="40.401993" lon="-74.303745"></trkpt>
    <trkpt lat="40.401809" lon="-74.305320"></trkpt>
    <trkpt lat="40.401666" lon="-74.306703"></trkpt>
    <trkpt lat="40.401640" lon="-74.307095"></trkpt>
    <trkpt lat="40.401655" lon="-74.307625"></trkpt>
    <trkpt lat="40.401717" lon="-74.308344"></trkpt>
    <trkpt lat="40.401688" lon="-74.308745"></trkpt>
    <trkpt lat="40.401708" lon="-74.309192"></trkpt>
    <trkpt lat="40.401729" lon="-74.309727"></trkpt>
    <trkpt lat="40.401740" lon="-74.310058"></trkpt>
    <trkpt lat="40.401774" lon="-74.311047"></trkpt>
    <trkpt lat="40.401789" lon="-74.311565"></trkpt>
    <trkpt lat="40.401793" lon="-74.312076"></trkpt>
    <trkpt lat="40.401849" lon="-74.312601"></trkpt>
    <trkpt lat="40.402153" lon="-74.313785"></trkpt>
    <trkpt lat="40.402238" lon="-74.314106"></trkpt>
    <trkpt lat="40.402453" lon="-74.315203"></trkpt>
    <trkpt lat="40.402917" lon="-74.317669"></trkpt>
    <trkpt lat="40.403198" lon="-74.319196"></trkpt>
    <trkpt lat="40.403421" lon="-74.320367"></trkpt>
    <trkpt lat="40.403513" lon="-74.320854"></trkpt>
    <trkpt lat="40.403639" lon="-74.321513"></trkpt>
    <trkpt lat="40.403717" lon="-74.321923"></trkpt>
    <trkpt lat="40.403786" lon="-74.322286"></trkpt>
    <trkpt lat="40.403950" lon="-74.323145"></trkpt>
    <trkpt lat="40.404015" lon="-74.323496"></trkpt>
    <trkpt lat="40.404093" lon="-74.323902"></trkpt>
    <trkpt lat="40.404259" lon="-74.324772"></trkpt>
    <trkpt lat="40.404350" lon="-74.325240"></trkpt>
    <trkpt lat="40.404442" lon="-74.325717"></trkpt>
    <trkpt lat="40.404535" lon="-74.326199"></trkpt>
    <trkpt lat="40.404631" lon="-74.326700"></trkpt>
    <trkpt lat="40.404767" lon="-74.327355"></trkpt>
    <trkpt lat="40.405025" lon="-74.328370"></trkpt>
    <trkpt lat="40.405194" lon="-74.329005"></trkpt>
    <trkpt lat="40.405316" lon="-74.329429"></trkpt>
    <trkpt lat="40.405424" lon="-74.329863"></trkpt>
    <trkpt lat="40.405599" lon="-74.330537"></trkpt>
    <trkpt lat="40.405875" lon="-74.331567"></trkpt>
    <trkpt lat="40.406033" lon="-74.332175"></trkpt>
    <trkpt lat="40.406590" lon="-74.334239"></trkpt>
    <trkpt lat="40.406889" lon="-74.335367"></trkpt>
    <trkpt lat="40.406977" lon="-74.335645"></trkpt>
    <trkpt lat="40.407063" lon="-74.335921"></trkpt>
    <trkpt lat="40.407388" lon="-74.336551"></trkpt>
    <trkpt lat="40.407725" lon="-74.337088"></trkpt>
    <trkpt lat="40.408502" lon="-74.338328"></trkpt>
    <trkpt lat="40.408773" lon="-74.338803"></trkpt>
    <trkpt lat="40.408919" lon="-74.339097"></trkpt>
    <trkpt lat="40.409129" lon="-74.339766"></trkpt>
    <trkpt lat="40.409288" lon="-74.340619"></trkpt>
    <trkpt lat="40.409380" lon="-74.341174"></trkpt>
    <trkpt lat="40.409557" lon="-74.342253"></trkpt>
    <trkpt lat="40.409896" lon="-74.344368"></trkpt>
    <trkpt lat="40.409916" lon="-74.344921"></trkpt>
    <trkpt lat="40.409904" lon="-74.345542"></trkpt>
    <trkpt lat="40.409868" lon="-74.346103"></trkpt>
    <trkpt lat="40.409861" lon="-74.347299"></trkpt>
    <trkpt lat="40.409927" lon="-74.348715"></trkpt>
    <trkpt lat="40.409942" lon="-74.349010"></trkpt>
    <trkpt lat="40.409960" lon="-74.349334"></trkpt>
    <trkpt lat="40.409971" lon="-74.349636"></trkpt>
    <trkpt lat="40.409704" lon="-74.349643"></trkpt>
    <trkpt lat="40.409407" lon="-74.349629"></trkpt>
    <trkpt lat="40.409056" lon="-74.349699"></trkpt>
    <trkpt lat="40.407417" lon="-74.349060"></trkpt>
    <trkpt lat="40.406767" lon="-74.348777"></trkpt>
    <trkpt lat="40.406269" lon="-74.348488"></trkpt>
    <trkpt lat="40.405723" lon="-74.348578"></trkpt>
    <trkpt lat="40.405671" lon="-74.348201"></trkpt>
    <trkpt lat="40.405449" lon="-74.347457"></trkpt>
    <trkpt lat="40.405308" lon="-74.347178"></trkpt>
    <trkpt lat="40.405120" lon="-74.346887"></trkpt>
    <trkpt lat="40.404711" lon="-74.346448"></trkpt>
    <trkpt lat="40.404251" lon="-74.346153"></trkpt>
    <trkpt lat="40.403739" lon="-74.345926"></trkpt>
    <trkpt lat="40.403085" lon="-74.345611"></trkpt>
    <trkpt lat="40.402667" lon="-74.345457"></trkpt>
    <trkpt lat="40.402398" lon="-74.345424"></trkpt>
    <trkpt lat="40.402095" lon="-74.345459"></trkpt>
    <trkpt lat="40.401847" lon="-74.345622"></trkpt>
    <trkpt lat="40.401510" lon="-74.345950"></trkpt>
    <trkpt lat="40.400888" lon="-74.345249"></trkpt>
    <trkpt lat="40.400522" lon="-74.344725"></trkpt>
    <trkpt lat="40.400288" lon="-74.344464"></trkpt>
    <trkpt lat="40.399882" lon="-74.345174"></trkpt>
    <trkpt lat="40.400182" lon="-74.345601"></trkpt>
  </trkseg></trk>
</gpx>