<?xml version="1.0" encoding="UTF-8"?>
<gpx version="1.1" creator="loopgen" xmlns="http://www.topografix.com/GPX/1/1">
  <trk><name>loop_seed3_52.8km</name><trkseg>
    <trkpt lat="40.400182" lon="-74.345601"></trkpt>
    <trkpt lat="40.400653" lon="-74.346271"></trkpt>
    <trkpt lat="40.401137" lon="-74.346691"></trkpt>
    <trkpt lat="40.400927" lon="-74.347234"></trkpt>
    <trkpt lat="40.400872" lon="-74.347658"></trkpt>
    <trkpt lat="40.401080" lon="-74.349279"></trkpt>
    <trkpt lat="40.400656" lon="-74.349815"></trkpt>
    <trkpt lat="40.400427" lon="-74.350105"></trkpt>
    <trkpt lat="40.403745" lon="-74.354207"></trkpt>
    <trkpt lat="40.404928" lon="-74.355780"></trkpt>
    <trkpt lat="40.405664" lon="-74.356842"></trkpt>
    <trkpt lat="40.406855" lon="-74.358579"></trkpt>
    <trkpt lat="40.407165" lon="-74.358998"></trkpt>
    <trkpt lat="40.407474" lon="-74.359374"></trkpt>
    <trkpt lat="40.408124" lon="-74.360010"></trkpt>
    <trkpt lat="40.409021" lon="-74.360769"></trkpt>
    <trkpt lat="40.409397" lon="-74.361130"></trkpt>
    <trkpt lat="40.409813" lon="-74.361607"></trkpt>
    <trkpt lat="40.410099" lon="-74.362013"></trkpt>
    <trkpt lat="40.410517" lon="-74.362663"></trkpt>
    <trkpt lat="40.411817" lon="-74.364928"></trkpt>
    <trkpt lat="40.412769" lon="-74.366259"></trkpt>
    <trkpt lat="40.413832" lon="-74.367635"></trkpt>
    <trkpt lat="40.414231" lon="-74.367933"></trkpt>
    <trkpt lat="40.415512" lon="-74.368244"></trkpt>
    <trkpt lat="40.415733" lon="-74.368035"></trkpt>
    <trkpt lat="40.415852" lon="-74.367679"></trkpt>
    <trkpt lat="40.415621" lon="-74.367563"></trkpt>
    <trkpt lat="40.415390" lon="-74.367423"></trkpt>
    <trkpt lat="40.415108" lon="-74.367294"></trkpt>
    <trkpt lat="40.414778" lon="-74.367106"></trkpt>
    <trkpt lat="40.414485" lon="-74.366920"></trkpt>
    <trkpt lat="40.414152" lon="-74.366570"></trkpt>
    <trkpt lat="40.414393" lon="-74.366045"></trkpt>
    <trkpt lat="40.414644" lon="-74.365498"></trkpt>
    <trkpt lat="40.414957" lon="-74.364831"></trkpt>
    <trkpt lat="40.415175" lon="-74.364368"></trkpt>
    <trkpt lat="40.415344" lon="-74.364029"></trkpt>
    <trkpt lat="40.415908" lon="-74.362896"></trkpt>
    <trkpt lat="40.416163" lon="-74.362383"></trkpt>
    <trkpt lat="40.416529" lon="-74.361723"></trkpt>
    <trkpt lat="40.416740" lon="-74.361361"></trkpt>
    <trkpt lat="40.416976" lon="-74.360961"></trkpt>
    <trkpt lat="40.417835" lon="-74.359494"></trkpt>
    <trkpt lat="40.418001" lon="-74.359234"></trkpt>
    <trkpt lat="40.418807" lon="-74.357891"></trkpt>
    <trkpt lat="40.421267" lon="-74.353911"></trkpt>
    <trkpt lat="40.421537" lon="-74.353464"></trkpt>
    <trkpt lat="40.422132" lon="-74.352499"></trkpt>
    <trkpt lat="40.422445" lon="-74.352098"></trkpt>
    <trkpt lat="40.422750" lon="-74.351804"></trkpt>
    <trkpt lat="40.423006" lon="-74.351606"></trkpt>
    <trkpt lat="40.423654" lon="-74.351105"></trkpt>
    <trkpt lat="40.424177" lon="-74.350522"></trkpt>
    <trkpt lat="40.424913" lon="-74.349326"></trkpt>
    <trkpt lat="40.425090" lon="-74.349039"></trkpt>
    <trkpt lat="40.425295" lon="-74.348677"></trkpt>
    <trkpt lat="40.426470" lon="-74.346762"></trkpt>
    <trkpt lat="40.426698" lon="-74.346386"></trkpt>
    <trkpt lat="40.426913" lon="-74.346030"></trkpt>
    <trkpt lat="40.427424" lon="-74.345175"></trkpt>
    <trkpt lat="40.427948" lon="-74.344303"></trkpt>
    <trkpt lat="40.428152" lon="-74.343958"></trkpt>
    <trkpt lat="40.428873" lon="-74.342768"></trkpt>
    <trkpt lat="40.429067" lon="-74.342442"></trkpt>
    <trkpt lat="40.429270" lon="-74.342104"></trkpt>
    <trkpt lat="40.429630" lon="-74.341512"></trkpt>
    <trkpt lat="40.429920" lon="-74.341048"></trkpt>
    <trkpt lat="40.430319" lon="-74.340363"></trkpt>
    <trkpt lat="40.430940" lon="-74.339313"></trkpt>
    <trkpt lat="40.431758" lon="-74.337971"></trkpt>
    <trkpt lat="40.432450" lon="-74.336831"></trkpt>
    <trkpt lat="40.432720" lon="-74.336336"></trkpt>
    <trkpt lat="40.434081" lon="-74.332950"></trkpt>
    <trkpt lat="40.434238" lon="-74.332562"></trkpt>
    <trkpt lat="40.434427" lon="-74.332117"></trkpt>
    <trkpt lat="40.434684" lon="-74.331589"></trkpt>
    <trkpt lat="40.435476" lon="-74.330269"></trkpt>
    <trkpt lat="40.436794" lon="-74.328126"></trkpt>
    <trkpt lat="40.436980" lon="-74.327868"></trkpt>
    <trkpt lat="40.437379" lon="-74.328510"></trkpt>
    <trkpt lat="40.437700" lon="-74.328368"></trkpt>
    <trkpt lat="40.437937" lon="-74.328168"></trkpt>
    <trkpt lat="40.438154" lon="-74.327868"></trkpt>
    <trkpt lat="40.438808" lon="-74.327233"></trkpt>
    <trkpt lat="40.439376" lon="-74.326762"></trkpt>
    <trkpt lat="40.439935" lon="-74.326457"></trkpt>
    <trkpt lat="40.440266" lon="-74.326427"></trkpt>
    <trkpt lat="40.440475" lon="-74.326216"></trkpt>
    <trkpt lat="40.440827" lon="-74.326464"></trkpt>
    <trkpt lat="40.441015" lon="-74.326239"></trkpt>
    <trkpt lat="40.441109" lon="-74.326886"></trkpt>
    <trkpt lat="40.441083" lon="-74.327296"></trkpt>
    <trkpt lat="40.441238" lon="-74.327511"></trkpt>
    <trkpt lat="40.441463" lon="-74.327699"></trkpt>
    <trkpt lat="40.441595" lon="-74.328010"></trkpt>
    <trkpt lat="40.441674" lon="-74.328380"></trkpt>
    <trkpt lat="40.442056" lon="-74.329217"></trkpt>
    <trkpt lat="40.442303" lon="-74.329453"></trkpt>
    <trkpt lat="40.442869" lon="-74.330486"></trkpt>
    <trkpt lat="40.443349" lon="-74.331323"></trkpt>
    <trkpt lat="40.443453" lon="-74.331762"></trkpt>
    <trkpt lat="40.443678" lon="-74.331818"></trkpt>
    <trkpt lat="40.443884" lon="-74.331982"></trkpt>
    <trkpt lat="40.444102" lon="-74.332172"></trkpt>
    <trkpt lat="40.444366" lon="-74.332810"></trkpt>
    <trkpt lat="40.444449" lon="-74.333187"></trkpt>
    <trkpt lat="40.444782" lon="-74.334059"></trkpt>
    <trkpt lat="40.445072" lon="-74.334605"></trkpt>
    <trkpt lat="40.445182" lon="-74.334992"></trkpt>
    <trkpt lat="40.445021" lon="-74.335341"></trkpt>
    <trkpt lat="40.445261" lon="-74.335376"></trkpt>
    <trkpt lat="40.445182" lon="-74.334992"></trkpt>
    <trkpt lat="40.445858" lon="-74.333747"></trkpt>
    <trkpt lat="40.446097" lon="-74.333288"></trkpt>
    <trkpt lat="40.446350" lon="-74.332736"></trkpt>
    <trkpt lat="40.446595" lon="-74.332462"></trkpt>
    <trkpt lat="40.446886" lon="-74.331945"></trkpt>
    <trkpt lat="40.447135" lon="-74.331577"></trkpt>
    <trkpt lat="40.447391" lon="-74.331186"></trkpt>
    <trkpt lat="40.447656" lon="-74.330958"></trkpt>
    <trkpt lat="40.447895" lon="-74.330848"></trkpt>
    <trkpt lat="40.449386" lon="-74.330552"></trkpt>
    <trkpt lat="40.449670" lon="-74.330313"></trkpt>
    <trkpt lat="40.450064" lon="-74.330206"></trkpt>
    <trkpt lat="40.450299" lon="-74.330013"></trkpt>
    <trkpt lat="40.450468" lon="-74.329678"></trkpt>
    <trkpt lat="40.450631" lon="-74.329235"></trkpt>
    <trkpt lat="40.450841" lon="-74.328843"></trkpt>
    <trkpt lat="40.451129" lon="-74.328205"></trkpt>
    <trkpt lat="40.451250" lon="-74.327902"></trkpt>
    <trkpt lat="40.451439" lon="-74.327703"></trkpt>
    <trkpt lat="40.451778" lon="-74.326891"></trkpt>
    <trkpt lat="40.451960" lon="-74.326488"></trkpt>
    <trkpt lat="40.452147" lon="-74.326199"></trkpt>
    <trkpt lat="40.452388" lon="-74.326226"></trkpt>
    <trkpt lat="40.453019" lon="-74.326183"></trkpt>
    <trkpt lat="40.453142" lon="-74.325932"></trkpt>
    <trkpt lat="40.453484" lon="-74.326019"></trkpt>
    <trkpt lat="40.454002" lon="-74.325807"></trkpt>
    <trkpt lat="40.453898" lon="-74.324896"></trkpt>
    <trkpt lat="40.453832" lon="-74.324185"></trkpt>
    <trkpt lat="40.453755" lon="-74.323538"></trkpt>
    <trkpt lat="40.453678" lon="-74.323142"></trkpt>
    <trkpt lat="40.453483" lon="-74.322385"></trkpt>
    <trkpt lat="40.451947" lon="-74.317215"></trkpt>
    <trkpt lat="40.451691" lon="-74.316372"></trkpt>
    <trkpt lat="40.451420" lon="-74.315482"></trkpt>
    <trkpt lat="40.450983" lon="-74.314469"></trkpt>
    <trkpt lat="40.450851" lon="-74.314153"></trkpt>
    <trkpt lat="40.450602" lon="-74.313650"></trkpt>
    <trkpt lat="40.450980" lon="-74.313294"></trkpt>
    <trkpt lat="40.451175" lon="-74.313124"></trkpt>
    <trkpt lat="40.451479" lon="-74.312856"></trkpt>
    <trkpt lat="40.452499" lon="-74.311934"></trkpt>
    <trkpt lat="40.452787" lon="-74.311674"></trkpt>
    <trkpt lat="40.453708" lon="-74.310841"></trkpt>
    <trkpt lat="40.456775" lon="-74.308032"></trkpt>
    <trkpt lat="40.457027" lon="-74.307801"></trkpt>
    <trkpt lat="40.457365" lon="-74.307478"></trkpt>
    <trkpt lat="40.457842" lon="-74.307075"></trkpt>
    <trkpt lat="40.458039" lon="-74.306916"></trkpt>
    <trkpt lat="40.458307" lon="-74.306673"></trkpt>
    <trkpt lat="40.458617" lon="-74.306360"></trkpt>
    <trkpt lat="40.459136" lon="-74.305915"></trkpt>
    <trkpt lat="40.459841" lon="-74.305239"></trkpt>
    <trkpt lat="40.460646" lon="-74.304513"></trkpt>
    <trkpt lat="40.460826" lon="-74.304316"></trkpt>
    <trkpt lat="40.460997" lon="-74.304097"></trkpt>
    <trkpt lat="40.461544" lon="-74.303375"></trkpt>
    <trkpt lat="40.462371" lon="-74.302308"></trkpt>
    <trkpt lat="40.463335" lon="-74.301091"></trkpt>
    <trkpt lat="40.464236" lon="-74.299958"></trkpt>
    <trkpt lat="40.465313" lon="-74.298587"></trkpt>
    <trkpt lat="40.465516" lon="-74.298300"></trkpt>
    <trkpt lat="40.465765" lon="-74.298092"></trkpt>
    <trkpt lat="40.466174" lon="-74.297908"></trkpt>
    <trkpt lat="40.466641" lon="-74.297687"></trkpt>
    <trkpt lat="40.466847" lon="-74.297552"></trkpt>
    <trkpt lat="40.467067" lon="-74.297337"></trkpt>
    <trkpt lat="40.467317" lon="-74.296870"></trkpt>
    <trkpt lat="40.467413" lon="-74.296489"></trkpt>
    <trkpt lat="40.467497" lon="-74.296040"></trkpt>
    <trkpt lat="40.467590" lon="-74.295740"></trkpt>
    <trkpt lat="40.467745" lon="-74.295495"></trkpt>
    <trkpt lat="40.467930" lon="-74.295297"></trkpt>
    <trkpt lat="40.468195" lon="-74.294937"></trkpt>
    <trkpt lat="40.468742" lon="-74.294243"></trkpt>
    <trkpt lat="40.469380" lon="-74.293430"></trkpt>
    <trkpt lat="40.470356" lon="-74.292189"></trkpt>
    <trkpt lat="40.470519" lon="-74.291980"></trkpt>
    <trkpt lat="40.471008" lon="-74.291357"></trkpt>
    <trkpt lat="40.471647" lon="-74.290551"></trkpt>
    <trkpt lat="40.471852" lon="-74.290289"></trkpt>
    <trkpt lat="40.472379" lon="-74.289634"></trkpt>
    <trkpt lat="40.472617" lon="-74.289346"></trkpt>
    <trkpt lat="40.472940" lon="-74.288960"></trkpt>
    <trkpt lat="40.473119" lon="-74.288735"></trkpt>
    <trkpt lat="40.473483" lon="-74.288276"></trkpt>
    <trkpt lat="40.473827" lon="-74.287837"></trkpt>
    <trkpt lat="40.474255" lon="-74.287303"></trkpt>
    <trkpt lat="40.473945" lon="-74.286951"></trkpt>
    <trkpt lat="40.473690" lon="-74.286734"></trkpt>
    <trkpt lat="40.473366" lon="-74.286401"></trkpt>
    <trkpt lat="40.473143" lon="-74.286205"></trkpt>
    <trkpt lat="40.472975" lon="-74.285996"></trkpt>
    <trkpt lat="40.472220" lon="-74.285357"></trkpt>
    <trkpt lat="40.471986" lon="-74.285162"></trkpt>
    <trkpt lat="40.471746" lon="-74.284963"></trkpt>
    <trkpt lat="40.471124" lon="-74.284446"></trkpt>
    <trkpt lat="40.470628" lon="-74.284033"></trkpt>
    <trkpt lat="40.470107" lon="-74.283597"></trkpt>
    <trkpt lat="40.469034" lon="-74.282741"></trkpt>
    <trkpt lat="40.468768" lon="-74.282525"></trkpt>
    <trkpt lat="40.468057" lon="-74.281950"></trkpt>
    <trkpt lat="40.467449" lon="-74.281409"></trkpt>
    <trkpt lat="40.467096" lon="-74.281049"></trkpt>
    <trkpt lat="40.466728" lon="-74.280620"></trkpt>
    <trkpt lat="40.466424" lon="-74.280244"></trkpt>
    <trkpt lat="40.466102" lon="-74.279776"></trkpt>
    <trkpt lat="40.465535" lon="-74.280877"></trkpt>
    <trkpt lat="40.466102" lon="-74.279776"></trkpt>
    <trkpt lat="40.465726" lon="-74.279177"></trkpt>
    <trkpt lat="40.465506" lon="-74.278761"></trkpt>
    <trkpt lat="40.465067" lon="-74.277706"></trkpt>
    <trkpt lat="40.464876" lon="-74.277177"></trkpt>
    <trkpt lat="40.464664" lon="-74.276531"></trkpt>
    <trkpt lat="40.464511" lon="-74.275879"></trkpt>
    <trkpt lat="40.464393" lon="-74.275194"></trkpt>
    <trkpt lat="40.464273" lon="-74.274304"></trkpt>
    <trkpt lat="40.464227" lon="-74.273667"></trkpt>
    <trkpt lat="40.464222" lon="-74.272929"></trkpt>
    <trkpt lat="40.464252" lon="-74.272312"></trkpt>
    <trkpt lat="40.464345" lon="-74.271312"></trkpt>
    <trkpt lat="40.464369" lon="-74.270994"></trkpt>
    <trkpt lat="40.464415" lon="-74.270379"></trkpt>
    <trkpt lat="40.464475" lon="-74.269729"></trkpt>
    <trkpt lat="40.464560" lon="-74.268926"></trkpt>
    <trkpt lat="40.464632" lon="-74.268327"></trkpt>
    <trkpt lat="40.464685" lon="-74.267874"></trkpt>
    <trkpt lat="40.464751" lon="-74.267344"></trkpt>
    <trkpt lat="40.464839" lon="-74.266497"></trkpt>
    <trkpt lat="40.464892" lon="-74.265949"></trkpt>
    <trkpt lat="40.464892" lon="-74.265585"></trkpt>
    <trkpt lat="40.464864" lon="-74.265118"></trkpt>
    <trkpt lat="40.464790" lon="-74.264651"></trkpt>
    <trkpt lat="40.464648" lon="-74.264067"></trkpt>
    <trkpt lat="40.464537" lon="-74.263686"></trkpt>
    <trkpt lat="40.464343" lon="-74.263042"></trkpt>
    <trkpt lat="40.464174" lon="-74.262512"></trkpt>
    <trkpt lat="40.464031" lon="-74.262070"></trkpt>
    <trkpt lat="40.463943" lon="-74.261796"></trkpt>
    <trkpt lat="40.463796" lon="-74.261396"></trkpt>
    <trkpt lat="40.463609" lon="-74.260866"></trkpt>
    <trkpt lat="40.463023" lon="-74.259565"></trkpt>
    <trkpt lat="40.462758" lon="-74.258991"></trkpt>
    <trkpt lat="40.461946" lon="-74.257232"></trkpt>
    <trkpt lat="40.461746" lon="-74.256811"></trkpt>
    <trkpt lat="40.461455" lon="-74.256222"></trkpt>
    <trkpt lat="40.461051" lon="-74.255379"></trkpt>
    <trkpt lat="40.460334" lon="-74.253863"></trkpt>
    <trkpt lat="40.459796" lon="-74.252599"></trkpt>
    <trkpt lat="40.459422" lon="-74.251785"></trkpt>
    <trkpt lat="40.458623" lon="-74.250173"></trkpt>
    <trkpt lat="40.457655" lon="-74.248302"></trkpt>
    <trkpt lat="40.457441" lon="-74.247876"></trkpt>
    <trkpt lat="40.457253" lon="-74.247499"></trkpt>
    <trkpt lat="40.457041" lon="-74.247097"></trkpt>
    <trkpt lat="40.456821" lon="-74.246786"></trkpt>
    <trkpt lat="40.456564" lon="-74.246460"></trkpt>
    <trkpt lat="40.455755" lon="-74.245480"></trkpt>
    <trkpt lat="40.455267" lon="-74.244879"></trkpt>
    <trkpt lat="40.454792" lon="-74.244301"></trkpt>
    <trkpt lat="40.454308" lon="-74.243716"></trkpt>
    <trkpt lat="40.453824" lon="-74.243116"></trkpt>
    <trkpt lat="40.453345" lon="-74.242542"></trkpt>
    <trkpt lat="40.453150" lon="-74.242303"></trkpt>
    <trkpt lat="40.452941" lon="-74.242035"></trkpt>
    <trkpt lat="40.451814" lon="-74.240630"></trkpt>
    <trkpt lat="40.451568" lon="-74.240341"></trkpt>
    <trkpt lat="40.451203" lon="-74.239890"></trkpt>
    <trkpt lat="40.450356" lon="-74.238852"></trkpt>
    <trkpt lat="40.449161" lon="-74.237365"></trkpt>
    <trkpt lat="40.448545" lon="-74.236610"></trkpt>
    <trkpt lat="40.448202" lon="-74.236363"></trkpt>
    <trkpt lat="40.447650" lon="-74.236027"></trkpt>
    <trkpt lat="40.447761" lon="-74.235668"></trkpt>
    <trkpt lat="40.448041" lon="-74.235864"></trkpt>
    <trkpt lat="40.448302" lon="-74.235839"></trkpt>
    <trkpt lat="40.448451" lon="-74.235533"></trkpt>
    <trkpt lat="40.448663" lon="-74.235394"></trkpt>
    <trkpt lat="40.450130" lon="-74.232448"></trkpt>
    <trkpt lat="40.449572" lon="-74.231971"></trkpt>
    <trkpt lat="40.448189" lon="-74.234786"></trkpt>
    <trkpt lat="40.448059" lon="-74.235029"></trkpt>
    <trkpt lat="40.447904" lon="-74.235356"></trkpt>
    <trkpt lat="40.447761" lon="-74.235668"></trkpt>
    <trkpt lat="40.447556" lon="-74.235387"></trkpt>
    <trkpt lat="40.447145" lon="-74.234891"></trkpt>
    <trkpt lat="40.442968" lon="-74.229751"></trkpt>
    <trkpt lat="40.442648" lon="-74.229349"></trkpt>
    <trkpt lat="40.442287" lon="-74.228912"></trkpt>
    <trkpt lat="40.441284" lon="-74.227699"></trkpt>
    <trkpt lat="40.440840" lon="-74.227163"></trkpt>
    <trkpt lat="40.440294" lon="-74.226498"></trkpt>
    <trkpt lat="40.439950" lon="-74.226082"></trkpt>
    <trkpt lat="40.439657" lon="-74.225728"></trkpt>
    <trkpt lat="40.439449" lon="-74.225479"></trkpt>
    <trkpt lat="40.438994" lon="-74.224946"></trkpt>
    <trkpt lat="40.438705" lon="-74.224584"></trkpt>
    <trkpt lat="40.438107" lon="-74.223851"></trkpt>
    <trkpt lat="40.437404" lon="-74.223004"></trkpt>
    <trkpt lat="40.436321" lon="-74.221688"></trkpt>
    <trkpt lat="40.435440" lon="-74.220634"></trkpt>
    <trkpt lat="40.435127" lon="-74.220256"></trkpt>
    <trkpt lat="40.434910" lon="-74.219996"></trkpt>
    <trkpt lat="40.434628" lon="-74.219665"></trkpt>
    <trkpt lat="40.434401" lon="-74.219403"></trkpt>
    <trkpt lat="40.434132" lon="-74.219095"></trkpt>
    <trkpt lat="40.433402" lon="-74.218278"></trkpt>
    <trkpt lat="40.432806" lon="-74.217572"></trkpt>
    <trkpt lat="40.431030" lon="-74.215300"></trkpt>
    <trkpt lat="40.429581" lon="-74.213576"></trkpt>
    <trkpt lat="40.429182" lon="-74.213065"></trkpt>
    <trkpt lat="40.428827" lon="-74.212520"></trkpt>
    <trkpt lat="40.428560" lon="-74.211937"></trkpt>
    <trkpt lat="40.428448" lon="-74.211585"></trkpt>
    <trkpt lat="40.428263" lon="-74.210598"></trkpt>
    <trkpt lat="40.428156" lon="-74.209910"></trkpt>
    <trkpt lat="40.428031" lon="-74.209028"></trkpt>
    <trkpt lat="40.427934" lon="-74.208533"></trkpt>
    <trkpt lat="40.427826" lon="-74.208199"></trkpt>
    <trkpt lat="40.427477" lon="-74.207534"></trkpt>
    <trkpt lat="40.426718" lon="-74.206531"></trkpt>
    <trkpt lat="40.426459" lon="-74.206212"></trkpt>
    <trkpt lat="40.425810" lon="-74.205602"></trkpt>
    <trkpt lat="40.425563" lon="-74.205293"></trkpt>
    <trkpt lat="40.425347" lon="-74.204943"></trkpt>
    <trkpt lat="40.425218" lon="-74.204689"></trkpt>
    <trkpt lat="40.425064" lon="-74.204305"></trkpt>
    <trkpt lat="40.424924" lon="-74.203754"></trkpt>
    <trkpt lat="40.424862" lon="-74.203341"></trkpt>
    <trkpt lat="40.424832" lon="-74.202935"></trkpt>
    <trkpt lat="40.424810" lon="-74.202495"></trkpt>
    <trkpt lat="40.424793" lon="-74.202147"></trkpt>
    <trkpt lat="40.424545" lon="-74.201846"></trkpt>
    <trkpt lat="40.423966" lon="-74.201699"></trkpt>
    <trkpt lat="40.423417" lon="-74.201549"></trkpt>
    <trkpt lat="40.422747" lon="-74.201382"></trkpt>
    <trkpt lat="40.422021" lon="-74.201210"></trkpt>
    <trkpt lat="40.421801" lon="-74.201123"></trkpt>
    <trkpt lat="40.421379" lon="-74.200900"></trkpt>
    <trkpt lat="40.421058" lon="-74.200724"></trkpt>
    <trkpt lat="40.419591" lon="-74.199974"></trkpt>
    <trkpt lat="40.418143" lon="-74.199195"></trkpt>
    <trkpt lat="40.417716" lon="-74.198960"></trkpt>
    <trkpt lat="40.417238" lon="-74.198725"></trkpt>
    <trkpt lat="40.416689" lon="-74.198426"></trkpt>
    <trkpt lat="40.416050" lon="-74.198094"></trkpt>
    <trkpt lat="40.415751" lon="-74.197935"></trkpt>
    <trkpt lat="40.415277" lon="-74.197685"></trkpt>
    <trkpt lat="40.415035" lon="-74.198229"></trkpt>
    <trkpt lat="40.414759" lon="-74.198952"></trkpt>
    <trkpt lat="40.414855" lon="-74.199279"></trkpt>
    <trkpt lat="40.415231" lon="-74.199453"></trkpt>
    <trkpt lat="40.414855" lon="-74.199279"></trkpt>
    <trkpt lat="40.414759" lon="-74.198952"></trkpt>
    <trkpt lat="40.415035" lon="-74.198229"></trkpt>
    <trkpt lat="40.415257" lon="-74.198461"></trkpt>
    <trkpt lat="40.415552" lon="-74.198576"></trkpt>
    <trkpt lat="40.415623" lon="-74.198084"></trkpt>
    <trkpt lat="40.415277" lon="-74.197685"></trkpt>
    <trkpt lat="40.414629" lon="-74.197345"></trkpt>
    <trkpt lat="40.413830" lon="-74.196927"></trkpt>
    <trkpt lat="40.413426" lon="-74.196711"></trkpt>
    <trkpt lat="40.412740" lon="-74.196355"></trkpt>
    <trkpt lat="40.412049" lon="-74.195991"></trkpt>
    <trkpt lat="40.411247" lon="-74.195568"></trkpt>
    <trkpt lat="40.410516" lon="-74.195174"></trkpt>
    <trkpt lat="40.410317" lon="-74.196104"></trkpt>
    <trkpt lat="40.410137" lon="-74.196598"></trkpt>
    <trkpt lat="40.409989" lon="-74.196870"></trkpt>
    <trkpt lat="40.409051" lon="-74.198313"></trkpt>
    <trkpt lat="40.408661" lon="-74.198919"></trkpt>
    <trkpt lat="40.408428" lon="-74.199292"></trkpt>
    <trkpt lat="40.407951" lon="-74.200043"></trkpt>
    <trkpt lat="40.407673" lon="-74.200483"></trkpt>
    <trkpt lat="40.407337" lon="-74.200937"></trkpt>
    <trkpt lat="40.407021" lon="-74.201328"></trkpt>
    <trkpt lat="40.406715" lon="-74.201731"></trkpt>
    <trkpt lat="40.406578" lon="-74.202002"></trkpt>
    <trkpt lat="40.406471" lon="-74.202391"></trkpt>
    <trkpt lat="40.406350" lon="-74.202922"></trkpt>
    <trkpt lat="40.406251" lon="-74.203336"></trkpt>
    <trkpt lat="40.405990" lon="-74.204478"></trkpt>
    <trkpt lat="40.405465" lon="-74.206794"></trkpt>
    <trkpt lat="40.405049" lon="-74.208857"></trkpt>
    <trkpt lat="40.404967" lon="-74.210270"></trkpt>
    <trkpt lat="40.404932" lon="-74.211135"></trkpt>
    <trkpt lat="40.404891" lon="-74.212137"></trkpt>
    <trkpt lat="40.404857" lon="-74.212947"></trkpt>
    <trkpt lat="40.404971" lon="-74.213668"></trkpt>
    <trkpt lat="40.405141" lon="-74.214319"></trkpt>
    <trkpt lat="40.405231" lon="-74.214668"></trkpt>
    <trkpt lat="40.405450" lon="-74.215533"></trkpt>
    <trkpt lat="40.405610" lon="-74.216137"></trkpt>
    <trkpt lat="40.405285" lon="-74.216268"></trkpt>
    <trkpt lat="40.405049" lon="-74.216367"></trkpt>
    <trkpt lat="40.404655" lon="-74.216532"></trkpt>
    <trkpt lat="40.404020" lon="-74.216812"></trkpt>
    <trkpt lat="40.403237" lon="-74.217132"></trkpt>
    <trkpt lat="40.402334" lon="-74.217510"></trkpt>
    <trkpt lat="40.401797" lon="-74.217736"></trkpt>
    <trkpt lat="40.401044" lon="-74.218052"></trkpt>
    <trkpt lat="40.400467" lon="-74.218294"></trkpt>
    <trkpt lat="40.400112" lon="-74.218448"></trkpt>
    <trkpt lat="40.399868" lon="-74.218560"></trkpt>
    <trkpt lat="40.399628" lon="-74.218698"></trkpt>
    <trkpt lat="40.399249" lon="-74.219166"></trkpt>
    <trkpt lat="40.398717" lon="-74.219937"></trkpt>
    <trkpt lat="40.398444" lon="-74.220272"></trkpt>
    <trkpt lat="40.398257" lon="-74.220456"></trkpt>
    <trkpt lat="40.397729" lon="-74.220907"></trkpt>
    <trkpt lat="40.397470" lon="-74.221125"></trkpt>
    <trkpt lat="40.397215" lon="-74.221346"></trkpt>
    <trkpt lat="40.396973" lon="-74.221552"></trkpt>
    <trkpt lat="40.396768" lon="-74.221736"></trkpt>
    <trkpt lat="40.396516" lon="-74.221987"></trkpt>
    <trkpt lat="40.396066" lon="-74.222556"></trkpt>
    <trkpt lat="40.395887" lon="-74.222788"></trkpt>
    <trkpt lat="40.395674" lon="-74.223058"></trkpt>
    <trkpt lat="40.395492" lon="-74.223292"></trkpt>
    <trkpt lat="40.395174" lon="-74.223113"></trkpt>
    <trkpt lat="40.394905" lon="-74.222961"></trkpt>
    <trkpt lat="40.394576" lon="-74.222775"></trkpt>
    <trkpt lat="40.393987" lon="-74.222416"></trkpt>
    <trkpt lat="40.393688" lon="-74.222234"></trkpt>
    <trkpt lat="40.393193" lon="-74.221939"></trkpt>
    <trkpt lat="40.392526" lon="-74.221546"></trkpt>
    <trkpt lat="40.392156" lon="-74.221307"></trkpt>
    <trkpt lat="40.391269" lon="-74.220680"></trkpt>
    <trkpt lat="40.390872" lon="-74.220394"></trkpt>
    <trkpt lat="40.390453" lon="-74.220093"></trkpt>
    <trkpt lat="40.390113" lon="-74.219852"></trkpt>
    <trkpt lat="40.388767" lon="-74.218873"></trkpt>
    <trkpt lat="40.388017" lon="-74.218337"></trkpt>
    <trkpt lat="40.387446" lon="-74.217863"></trkpt>
    <trkpt lat="40.387202" lon="-74.217671"></trkpt>
    <trkpt lat="40.386955" lon="-74.217469"></trkpt>
    <trkpt lat="40.386542" lon="-74.217121"></trkpt>
    <trkpt lat="40.386237" lon="-74.216789"></trkpt>
    <trkpt lat="40.385890" lon="-74.216350"></trkpt>
    <trkpt lat="40.385695" lon="-74.216087"></trkpt>
    <trkpt lat="40.385533" lon="-74.215863"></trkpt>
    <trkpt lat="40.385100" lon="-74.215276"></trkpt>
    <trkpt lat="40.384939" lon="-74.215062"></trkpt>
    <trkpt lat="40.384546" lon="-74.214569"></trkpt>
    <trkpt lat="40.384219" lon="-74.214211"></trkpt>
    <trkpt lat="40.383882" lon="-74.213898"></trkpt>
    <trkpt lat="40.383593" lon="-74.213666"></trkpt>
    <trkpt lat="40.383114" lon="-74.213261"></trkpt>
    <trkpt lat="40.382220" lon="-74.212518"></trkpt>
    <trkpt lat="40.381724" lon="-74.212112"></trkpt>
    <trkpt lat="40.381436" lon="-74.211876"></trkpt>
    <trkpt lat="40.381212" lon="-74.211692"></trkpt>
    <trkpt lat="40.380989" lon="-74.211509"></trkpt>
    <trkpt lat="40.380084" lon="-74.211906"></trkpt>
    <trkpt lat="40.379798" lon="-74.212167"></trkpt>
    <trkpt lat="40.379642" lon="-74.212388"></trkpt>
    <trkpt lat="40.379500" lon="-74.212631"></trkpt>
    <trkpt lat="40.379303" lon="-74.213172"></trkpt>
    <trkpt lat="40.378493" lon="-74.214240"></trkpt>
    <trkpt lat="40.377356" lon="-74.215647"></trkpt>
    <trkpt lat="40.376599" lon="-74.216529"></trkpt>
    <trkpt lat="40.376378" lon="-74.216751"></trkpt>
    <trkpt lat="40.376060" lon="-74.216961"></trkpt>
    <trkpt lat="40.375838" lon="-74.217041"></trkpt>
    <trkpt lat="40.375333" lon="-74.217119"></trkpt>
    <trkpt lat="40.374571" lon="-74.216956"></trkpt>
    <trkpt lat="40.374247" lon="-74.216831"></trkpt>
    <trkpt lat="40.374040" lon="-74.216709"></trkpt>
    <trkpt lat="40.373805" lon="-74.216495"></trkpt>
    <trkpt lat="40.373440" lon="-74.215847"></trkpt>
    <trkpt lat="40.373159" lon="-74.215369"></trkpt>
    <trkpt lat="40.372890" lon="-74.215131"></trkpt>
    <trkpt lat="40.372512" lon="-74.214970"></trkpt>
    <trkpt lat="40.371912" lon="-74.214659"></trkpt>
    <trkpt lat="40.371630" lon="-74.214586"></trkpt>
    <trkpt lat="40.371364" lon="-74.214607"></trkpt>
    <trkpt lat="40.371109" lon="-74.214669"></trkpt>
    <trkpt lat="40.370882" lon="-74.214778"></trkpt>
    <trkpt lat="40.370483" lon="-74.215055"></trkpt>
    <trkpt lat="40.370130" lon="-74.215118"></trkpt>
    <trkpt lat="40.369535" lon="-74.215077"></trkpt>
    <trkpt lat="40.369290" lon="-74.215079"></trkpt>
    <trkpt lat="40.368547" lon="-74.215293"></trkpt>
    <trkpt lat="40.368234" lon="-74.215307"></trkpt>
    <trkpt lat="40.367970" lon="-74.215235"></trkpt>
    <trkpt lat="40.367752" lon="-74.215889"></trkpt>
    <trkpt lat="40.367361" lon="-74.216949"></trkpt>
    <trkpt lat="40.367164" lon="-74.217469"></trkpt>
    <trkpt lat="40.366507" lon="-74.219282"></trkpt>
    <trkpt lat="40.366349" lon="-74.219710"></trkpt>
    <trkpt lat="40.366201" lon="-74.219974"></trkpt>
    <trkpt lat="40.365594" lon="-74.220483"></trkpt>
    <trkpt lat="40.365024" lon="-74.220953"></trkpt>
    <trkpt lat="40.364179" lon="-74.221754"></trkpt>
    <trkpt lat="40.363975" lon="-74.221975"></trkpt>
    <trkpt lat="40.363701" lon="-74.222331"></trkpt>
    <trkpt lat="40.363222" lon="-74.223226"></trkpt>
    <trkpt lat="40.362126" lon="-74.225321"></trkpt>
    <trkpt lat="40.361049" lon="-74.227357"></trkpt>
    <trkpt lat="40.360595" lon="-74.228248"></trkpt>
    <trkpt lat="40.360183" lon="-74.228987"></trkpt>
    <trkpt lat="40.359961" lon="-74.229410"></trkpt>
    <trkpt lat="40.359780" lon="-74.229755"></trkpt>
    <trkpt lat="40.359303" lon="-74.230666"></trkpt>
    <trkpt lat="40.358469" lon="-74.232260"></trkpt>
    <trkpt lat="40.357076" lon="-74.234902"></trkpt>
    <trkpt lat="40.356817" lon="-74.235364"></trkpt>
    <trkpt lat="40.356438" lon="-74.235961"></trkpt>
    <trkpt lat="40.356218" lon="-74.236209"></trkpt>
    <trkpt lat="40.355758" lon="-74.236504"></trkpt>
    <trkpt lat="40.355430" lon="-74.236817"></trkpt>
    <trkpt lat="40.353210" lon="-74.239014"></trkpt>
    <trkpt lat="40.352954" lon="-74.239284"></trkpt>
    <trkpt lat="40.352377" lon="-74.240000"></trkpt>
    <trkpt lat="40.351840" lon="-74.240697"></trkpt>
    <trkpt lat="40.351632" lon="-74.241057"></trkpt>
    <trkpt lat="40.350402" lon="-74.243820"></trkpt>
    <trkpt lat="40.349576" lon="-74.245703"></trkpt>
    <trkpt lat="40.349070" lon="-74.246778"></trkpt>
    <trkpt lat="40.348573" lon="-74.247831"></trkpt>
    <trkpt lat="40.347928" lon="-74.249169"></trkpt>
    <trkpt lat="40.347662" lon="-74.249752"></trkpt>
    <trkpt lat="40.347539" lon="-74.250065"></trkpt>
    <trkpt lat="40.347956" lon="-74.250184"></trkpt>
    <trkpt lat="40.348570" lon="-74.250260"></trkpt>
    <trkpt lat="40.348879" lon="-74.250247"></trkpt>
    <trkpt lat="40.349267" lon="-74.250204"></trkpt>
    <trkpt lat="40.350226" lon="-74.250065"></trkpt>
    <trkpt lat="40.350582" lon="-74.250017"></trkpt>
    <trkpt lat="40.350792" lon="-74.251032"></trkpt>
    <trkpt lat="40.351449" lon="-74.253875"></trkpt>
    <trkpt lat="40.351836" lon="-74.255531"></trkpt>
    <trkpt lat="40.352046" lon="-74.256384"></trkpt>
    <trkpt lat="40.352115" lon="-74.256859"></trkpt>
    <trkpt lat="40.351892" lon="-74.258347"></trkpt>
    <trkpt lat="40.351528" lon="-74.260622"></trkpt>
    <trkpt lat="40.351575" lon="-74.261439"></trkpt>
    <trkpt lat="40.351714" lon="-74.262620"></trkpt>
    <trkpt lat="40.350313" lon="-74.262914"></trkpt>
    <trkpt lat="40.350993" lon="-74.264605"></trkpt>
    <trkpt lat="40.351177" lon="-74.264900"></trkpt>
    <trkpt lat="40.351657" lon="-74.265195"></trkpt>
    <trkpt lat="40.352056" lon="-74.265226"></trkpt>
    <trkpt lat="40.352135" lon="-74.265830"></trkpt>
    <trkpt lat="40.352338" lon="-74.267121"></trkpt>
    <trkpt lat="40.352563" lon="-74.268554"></trkpt>
    <trkpt lat="40.352588" lon="-74.268927"></trkpt>
    <trkpt lat="40.352138" lon="-74.268948"></trkpt>
    <trkpt lat="40.350770" lon="-74.268820"></trkpt>
    <trkpt lat="40.350426" lon="-74.268783"></trkpt>
    <trkpt lat="40.349224" lon="-74.268655"></trkpt>
    <trkpt lat="40.347284" lon="-74.268460"></trkpt>
    <trkpt lat="40.346573" lon="-74.268372"></trkpt>
    <trkpt lat="40.346271" lon="-74.268359"></trkpt>
    <trkpt lat="40.345799" lon="-74.268375"></trkpt>
    <trkpt lat="40.345437" lon="-74.268519"></trkpt>
    <trkpt lat="40.345141" lon="-74.268691"></trkpt>
    <trkpt lat="40.344175" lon="-74.269313"></trkpt>
    <trkpt lat="40.342995" lon="-74.270080"></trkpt>
    <trkpt lat="40.341484" lon="-74.271081"></trkpt>
    <trkpt lat="40.341959" lon="-74.271608"></trkpt>
    <trkpt lat="40.342497" lon="-74.272146"></trkpt>
    <trkpt lat="40.342845" lon="-74.272819"></trkpt>
    <trkpt lat="40.343796" lon="-74.275256"></trkpt>
    <trkpt lat="40.344283" lon="-74.276324"></trkpt>
    <trkpt lat="40.344507" lon="-74.276758"></trkpt>
    <trkpt lat="40.344756" lon="-74.277193"></trkpt>
    <trkpt lat="40.345248" lon="-74.278005"></trkpt>
    <trkpt lat="40.345769" lon="-74.278949"></trkpt>
    <trkpt lat="40.345928" lon="-74.279253"></trkpt>
    <trkpt lat="40.346117" lon="-74.279687"></trkpt>
    <trkpt lat="40.346311" lon="-74.280201"></trkpt>
    <trkpt lat="40.346643" lon="-74.281164"></trkpt>
    <trkpt lat="40.346775" lon="-74.281786"></trkpt>
    <trkpt lat="40.346968" lon="-74.282759"></trkpt>
    <trkpt lat="40.347124" lon="-74.283603"></trkpt>
    <trkpt lat="40.347337" lon="-74.284480"></trkpt>
    <trkpt lat="40.347494" lon="-74.284961"></trkpt>
    <trkpt lat="40.347685" lon="-74.285320"></trkpt>
    <trkpt lat="40.348093" lon="-74.285920"></trkpt>
    <trkpt lat="40.348324" lon="-74.286291"></trkpt>
    <trkpt lat="40.348633" lon="-74.286798"></trkpt>
    <trkpt lat="40.348796" lon="-74.287116"></trkpt>
    <trkpt lat="40.349006" lon="-74.287805"></trkpt>
    <trkpt lat="40.349095" lon="-74.288423"></trkpt>
    <trkpt lat="40.349243" lon="-74.289131"></trkpt>
    <trkpt lat="40.349318" lon="-74.289483"></trkpt>
    <trkpt lat="40.349403" lon="-74.289782"></trkpt>
    <trkpt lat="40.349476" lon="-74.290112"></trkpt>
    <trkpt lat="40.350155" lon="-74.293008"></trkpt>
    <trkpt lat="40.350237" lon="-74.293411"></trkpt>
    <trkpt lat="40.350561" lon="-74.294936"></trkpt>
    <trkpt lat="40.350779" lon="-74.295964"></trkpt>
    <trkpt lat="40.350886" lon="-74.296470"></trkpt>
    <trkpt lat="40.350951" lon="-74.296775"></trkpt>
    <trkpt lat="40.351127" lon="-74.297569"></trkpt>
    <trkpt lat="40.351300" lon="-74.298425"></trkpt>
    <trkpt lat="40.351377" lon="-74.298793"></trkpt>
    <trkpt lat="40.351725" lon="-74.300423"></trkpt>
    <trkpt lat="40.351791" lon="-74.300742"></trkpt>
    <trkpt lat="40.351865" lon="-74.301089"></trkpt>
    <trkpt lat="40.351985" lon="-74.301656"></trkpt>
    <trkpt lat="40.352133" lon="-74.302353"></trkpt>
    <trkpt lat="40.352257" lon="-74.302833"></trkpt>
    <trkpt lat="40.352356" lon="-74.303320"></trkpt>
    <trkpt lat="40.352494" lon="-74.303968"></trkpt>
    <trkpt lat="40.352612" lon="-74.304487"></trkpt>
    <trkpt lat="40.352683" lon="-74.304814"></trkpt>
    <trkpt lat="40.352813" lon="-74.305414"></trkpt>
    <trkpt lat="40.352906" lon="-74.305850"></trkpt>
    <trkpt lat="40.352998" lon="-74.306299"></trkpt>
    <trkpt lat="40.353099" lon="-74.306845"></trkpt>
    <trkpt lat="40.353145" lon="-74.307139"></trkpt>
    <trkpt lat="40.353268" lon="-74.307718"></trkpt>
    <trkpt lat="40.353380" lon="-74.308046"></trkpt>
    <trkpt lat="40.353731" lon="-74.308776"></trkpt>
    <trkpt lat="40.354187" lon="-74.309724"></trkpt>
    <trkpt lat="40.354658" lon="-74.310718"></trkpt>
    <trkpt lat="40.354889" lon="-74.311236"></trkpt>
    <trkpt lat="40.355135" lon="-74.311775"></trkpt>
    <trkpt lat="40.355434" lon="-74.312327"></trkpt>
    <trkpt lat="40.355669" lon="-74.312656"></trkpt>
    <trkpt lat="40.355942" lon="-74.312916"></trkpt>
    <trkpt lat="40.356342" lon="-74.313114"></trkpt>
    <trkpt lat="40.357945" lon="-74.314084"></trkpt>
    <trkpt lat="40.358170" lon="-74.314404"></trkpt>
    <trkpt lat="40.358370" lon="-74.314173"></trkpt>
    <trkpt lat="40.358295" lon="-74.314599"></trkpt>
    <trkpt lat="40.359286" lon="-74.316144"></trkpt>
    <trkpt lat="40.359495" lon="-74.316419"></trkpt>
    <trkpt lat="40.360679" lon="-74.317612"></trkpt>
    <trkpt lat="40.361204" lon="-74.318096"></trkpt>
    <trkpt lat="40.361484" lon="-74.318311"></trkpt>
    <trkpt lat="40.361808" lon="-74.318385"></trkpt>
    <trkpt lat="40.362196" lon="-74.318433"></trkpt>
    <trkpt lat="40.363181" lon="-74.318385"></trkpt>
    <trkpt lat="40.364536" lon="-74.318320"></trkpt>
    <trkpt lat="40.364959" lon="-74.318319"></trkpt>
    <trkpt lat="40.365430" lon="-74.318424"></trkpt>
    <trkpt lat="40.365983" lon="-74.318588"></trkpt>
    <trkpt lat="40.366229" lon="-74.318680"></trkpt>
    <trkpt lat="40.366815" lon="-74.318951"></trkpt>
    <trkpt lat="40.368425" lon="-74.319771"></trkpt>
    <trkpt lat="40.372281" lon="-74.322166"></trkpt>
    <trkpt lat="40.372879" lon="-74.322480"></trkpt>
    <trkpt lat="40.373170" lon="-74.322477"></trkpt>
    <trkpt lat="40.373744" lon="-74.322047"></trkpt>
    <trkpt lat="40.373978" lon="-74.321894"></trkpt>
    <trkpt lat="40.374807" lon="-74.321491"></trkpt>
    <trkpt lat="40.375506" lon="-74.321086"></trkpt>
    <trkpt lat="40.376977" lon="-74.320267"></trkpt>
    <trkpt lat="40.377300" lon="-74.319924"></trkpt>
    <trkpt lat="40.377530" lon="-74.319715"></trkpt>
    <trkpt lat="40.377722" lon="-74.319538"></trkpt>
    <trkpt lat="40.378294" lon="-74.320461"></trkpt>
    <trkpt lat="40.380468" lon="-74.324041"></trkpt>
    <trkpt lat="40.380672" lon="-74.324377"></trkpt>
    <trkpt lat="40.381543" lon="-74.325857"></trkpt>
    <trkpt lat="40.381956" lon="-74.326499"></trkpt>
    <trkpt lat="40.382258" lon="-74.326968"></trkpt>
    <trkpt lat="40.382613" lon="-74.327579"></trkpt>
    <trkpt lat="40.383026" lon="-74.328292"></trkpt>
    <trkpt lat="40.383612" lon="-74.329300"></trkpt>
    <trkpt lat="40.384029" lon="-74.329983"></trkpt>
    <trkpt lat="40.385246" lon="-74.331798"></trkpt>
    <trkpt lat="40.386745" lon="-74.333727"></trkpt>
    <trkpt lat="40.389419" lon="-74.336997"></trkpt>
    <trkpt lat="40.392036" lon="-74.340095"></trkpt>
    <trkpt lat="40.394385" lon="-74.342930"></trkpt>
    <trkpt lat="40.394660" lon="-74.343239"></trkpt>
    <trkpt lat="40.397078" lon="-74.346114"></trkpt>
    <trkpt lat="40.397699" lon="-74.346912"></trkpt>
    <trkpt lat="40.399784" lon="-74.349344"></trkpt>
    <trkpt lat="40.400315" lon="-74.349972"></trkpt>
    <trkpt lat="40.400656" lon="-74.349815"></trkpt>
    <trkpt lat="40.401080" lon="-74.349279"></trkpt>
    <trkpt lat="40.400875" lon="-74.347815"></trkpt>
    <trkpt lat="40.400666" lon="-74.347618"></trkpt>
    <trkpt lat="40.400375" lon="-74.347443"></trkpt>
    <trkpt lat="40.400202" lon="-74.347106"></trkpt>
    <trkpt lat="40.399414" lon="-74.345796"></trkpt>
    <trkpt lat="40.399882" lon="-74.345174"></trkpt>
    <trkpt lat="40.400182" lon="-74.345601"></trkpt>
  </trkseg></trk>
</gpx>