<?xml version="1.0" encoding="UTF-8"?>
<gpx version="1.1" creator="loopgen" xmlns="http://www.topografix.com/GPX/1/1">
  <trk><name>loop_seed1_59.9km</name><trkseg>
    <trkpt lat="40.400182" lon="-74.345601"></trkpt>
    <trkpt lat="40.400653" lon="-74.346271"></trkpt>
    <trkpt lat="40.401137" lon="-74.346691"></trkpt>
    <trkpt lat="40.400927" lon="-74.347234"></trkpt>
    <trkpt lat="40.400872" lon="-74.347658"></trkpt>
    <trkpt lat="40.401080" lon="-74.349279"></trkpt>
    <trkpt lat="40.400656" lon="-74.349815"></trkpt>
    <trkpt lat="40.400427" lon="-74.350105"></trkpt>
    <trkpt lat="40.400272" lon="-74.350324"></trkpt>
    <trkpt lat="40.398842" lon="-74.348687"></trkpt>
    <trkpt lat="40.398673" lon="-74.348483"></trkpt>
    <trkpt lat="40.396974" lon="-74.346447"></trkpt>
    <trkpt lat="40.396778" lon="-74.346217"></trkpt>
    <trkpt lat="40.394431" lon="-74.343410"></trkpt>
    <trkpt lat="40.394228" lon="-74.343170"></trkpt>
    <trkpt lat="40.394016" lon="-74.342914"></trkpt>
    <trkpt lat="40.393823" lon="-74.342683"></trkpt>
    <trkpt lat="40.392498" lon="-74.341090"></trkpt>
    <trkpt lat="40.391848" lon="-74.340309"></trkpt>
    <trkpt lat="40.390954" lon="-74.339225"></trkpt>
    <trkpt lat="40.390099" lon="-74.338188"></trkpt>
    <trkpt lat="40.386585" lon="-74.333925"></trkpt>
    <trkpt lat="40.385188" lon="-74.332095"></trkpt>
    <trkpt lat="40.384772" lon="-74.331505"></trkpt>
    <trkpt lat="40.384420" lon="-74.331011"></trkpt>
    <trkpt lat="40.383602" lon="-74.329671"></trkpt>
    <trkpt lat="40.383234" lon="-74.329067"></trkpt>
    <trkpt lat="40.382611" lon="-74.328046"></trkpt>
    <trkpt lat="40.382187" lon="-74.327351"></trkpt>
    <trkpt lat="40.381384" lon="-74.326034"></trkpt>
    <trkpt lat="40.381688" lon="-74.325465"></trkpt>
    <trkpt lat="40.381797" lon="-74.325092"></trkpt>
    <trkpt lat="40.381867" lon="-74.324636"></trkpt>
    <trkpt lat="40.381935" lon="-74.323842"></trkpt>
    <trkpt lat="40.382114" lon="-74.322483"></trkpt>
    <trkpt lat="40.382174" lon="-74.322064"></trkpt>
    <trkpt lat="40.382378" lon="-74.320758"></trkpt>
    <trkpt lat="40.382520" lon="-74.319161"></trkpt>
    <trkpt lat="40.382632" lon="-74.318615"></trkpt>
    <trkpt lat="40.382868" lon="-74.317997"></trkpt>
    <trkpt lat="40.383045" lon="-74.317601"></trkpt>
    <trkpt lat="40.383538" lon="-74.316436"></trkpt>
    <trkpt lat="40.383681" lon="-74.316093"></trkpt>
    <trkpt lat="40.383821" lon="-74.315656"></trkpt>
    <trkpt lat="40.384020" lon="-74.314856"></trkpt>
    <trkpt lat="40.384101" lon="-74.314434"></trkpt>
    <trkpt lat="40.384159" lon="-74.314015"></trkpt>
    <trkpt lat="40.384208" lon="-74.313349"></trkpt>
    <trkpt lat="40.384202" lon="-74.312636"></trkpt>
    <trkpt lat="40.384169" lon="-74.310705"></trkpt>
    <trkpt lat="40.384162" lon="-74.309806"></trkpt>
    <trkpt lat="40.384160" lon="-74.309426"></trkpt>
    <trkpt lat="40.384156" lon="-74.309015"></trkpt>
    <trkpt lat="40.384132" lon="-74.308375"></trkpt>
    <trkpt lat="40.385599" lon="-74.308118"></trkpt>
    <trkpt lat="40.387123" lon="-74.307973"></trkpt>
    <trkpt lat="40.387859" lon="-74.307927"></trkpt>
    <trkpt lat="40.388117" lon="-74.307911"></trkpt>
    <trkpt lat="40.388834" lon="-74.307866"></trkpt>
    <trkpt lat="40.390063" lon="-74.307871"></trkpt>
    <trkpt lat="40.390789" lon="-74.307904"></trkpt>
    <trkpt lat="40.392231" lon="-74.307722"></trkpt>
    <trkpt lat="40.392570" lon="-74.307695"></trkpt>
    <trkpt lat="40.393169" lon="-74.307593"></trkpt>
    <trkpt lat="40.393384" lon="-74.307494"></trkpt>
    <trkpt lat="40.393755" lon="-74.307166"></trkpt>
    <trkpt lat="40.394288" lon="-74.306501"></trkpt>
    <trkpt lat="40.394550" lon="-74.306270"></trkpt>
    <trkpt lat="40.394866" lon="-74.306067"></trkpt>
    <trkpt lat="40.395289" lon="-74.305907"></trkpt>
    <trkpt lat="40.396157" lon="-74.305787"></trkpt>
    <trkpt lat="40.396539" lon="-74.305747"></trkpt>
    <trkpt lat="40.396489" lon="-74.305134"></trkpt>
    <trkpt lat="40.396467" lon="-74.304831"></trkpt>
    <trkpt lat="40.396367" lon="-74.303432"></trkpt>
    <trkpt lat="40.396277" lon="-74.302320"></trkpt>
    <trkpt lat="40.396087" lon="-74.300812"></trkpt>
    <trkpt lat="40.396011" lon="-74.300329"></trkpt>
    <trkpt lat="40.395841" lon="-74.299864"></trkpt>
    <trkpt lat="40.395340" lon="-74.299030"></trkpt>
    <trkpt lat="40.394569" lon="-74.297969"></trkpt>
    <trkpt lat="40.394255" lon="-74.297555"></trkpt>
    <trkpt lat="40.393735" lon="-74.296642"></trkpt>
    <trkpt lat="40.393155" lon="-74.295617"></trkpt>
    <trkpt lat="40.392666" lon="-74.294586"></trkpt>
    <trkpt lat="40.392511" lon="-74.294232"></trkpt>
    <trkpt lat="40.392381" lon="-74.293804"></trkpt>
    <trkpt lat="40.392320" lon="-74.293498"></trkpt>
    <trkpt lat="40.392296" lon="-74.293185"></trkpt>
    <trkpt lat="40.392526" lon="-74.292248"></trkpt>
    <trkpt lat="40.392750" lon="-74.291394"></trkpt>
    <trkpt lat="40.391962" lon="-74.291147"></trkpt>
    <trkpt lat="40.391722" lon="-74.291031"></trkpt>
    <trkpt lat="40.391244" lon="-74.290796"></trkpt>
    <trkpt lat="40.390411" lon="-74.290548"></trkpt>
    <trkpt lat="40.390532" lon="-74.289713"></trkpt>
    <trkpt lat="40.390495" lon="-74.289288"></trkpt>
    <trkpt lat="40.390302" lon="-74.289021"></trkpt>
    <trkpt lat="40.389413" lon="-74.288562"></trkpt>
    <trkpt lat="40.389182" lon="-74.288452"></trkpt>
    <trkpt lat="40.389118" lon="-74.288085"></trkpt>
    <trkpt lat="40.389156" lon="-74.287781"></trkpt>
    <trkpt lat="40.389599" lon="-74.286120"></trkpt>
    <trkpt lat="40.389912" lon="-74.286214"></trkpt>
    <trkpt lat="40.390141" lon="-74.286229"></trkpt>
    <trkpt lat="40.390520" lon="-74.286166"></trkpt>
    <trkpt lat="40.390787" lon="-74.286012"></trkpt>
    <trkpt lat="40.391517" lon="-74.285478"></trkpt>
    <trkpt lat="40.392351" lon="-74.284618"></trkpt>
    <trkpt lat="40.392909" lon="-74.284384"></trkpt>
    <trkpt lat="40.393200" lon="-74.284385"></trkpt>
    <trkpt lat="40.393500" lon="-74.284414"></trkpt>
    <trkpt lat="40.393561" lon="-74.283153"></trkpt>
    <trkpt lat="40.393669" lon="-74.281090"></trkpt>
    <trkpt lat="40.393727" lon="-74.279989"></trkpt>
    <trkpt lat="40.393702" lon="-74.279643"></trkpt>
    <trkpt lat="40.393580" lon="-74.278684"></trkpt>
    <trkpt lat="40.393345" lon="-74.277180"></trkpt>
    <trkpt lat="40.393265" lon="-74.276844"></trkpt>
    <trkpt lat="40.392385" lon="-74.275730"></trkpt>
    <trkpt lat="40.392083" lon="-74.275086"></trkpt>
    <trkpt lat="40.391501" lon="-74.273358"></trkpt>
    <trkpt lat="40.391248" lon="-74.272730"></trkpt>
    <trkpt lat="40.391078" lon="-74.272070"></trkpt>
    <trkpt lat="40.390944" lon="-74.271237"></trkpt>
    <trkpt lat="40.390894" lon="-74.270387"></trkpt>
    <trkpt lat="40.390893" lon="-74.269805"></trkpt>
    <trkpt lat="40.390941" lon="-74.268907"></trkpt>
    <trkpt lat="40.390990" lon="-74.268289"></trkpt>
    <trkpt lat="40.391047" lon="-74.267399"></trkpt>
    <trkpt lat="40.391086" lon="-74.266679"></trkpt>
    <trkpt lat="40.391098" lon="-74.266100"></trkpt>
    <trkpt lat="40.391024" lon="-74.265285"></trkpt>
    <trkpt lat="40.391032" lon="-74.264686"></trkpt>
    <trkpt lat="40.391067" lon="-74.264172"></trkpt>
    <trkpt lat="40.391128" lon="-74.263828"></trkpt>
    <trkpt lat="40.391208" lon="-74.263213"></trkpt>
    <trkpt lat="40.391144" lon="-74.262592"></trkpt>
    <trkpt lat="40.391203" lon="-74.262185"></trkpt>
    <trkpt lat="40.391603" lon="-74.261397"></trkpt>
    <trkpt lat="40.391677" lon="-74.261108"></trkpt>
    <trkpt lat="40.391678" lon="-74.260621"></trkpt>
    <trkpt lat="40.391777" lon="-74.259838"></trkpt>
    <trkpt lat="40.392048" lon="-74.258773"></trkpt>
    <trkpt lat="40.392203" lon="-74.258445"></trkpt>
    <trkpt lat="40.392698" lon="-74.257655"></trkpt>
    <trkpt lat="40.392261" lon="-74.257075"></trkpt>
    <trkpt lat="40.390400" lon="-74.255227"></trkpt>
    <trkpt lat="40.389802" lon="-74.254638"></trkpt>
    <trkpt lat="40.389169" lon="-74.253982"></trkpt>
    <trkpt lat="40.388452" lon="-74.253273"></trkpt>
    <trkpt lat="40.387744" lon="-74.252559"></trkpt>
    <trkpt lat="40.386553" lon="-74.251330"></trkpt>
    <trkpt lat="40.384909" lon="-74.249469"></trkpt>
    <trkpt lat="40.384299" lon="-74.248815"></trkpt>
    <trkpt lat="40.383603" lon="-74.248099"></trkpt>
    <trkpt lat="40.383186" lon="-74.247676"></trkpt>
    <trkpt lat="40.381713" lon="-74.246206"></trkpt>
    <trkpt lat="40.381880" lon="-74.245574"></trkpt>
    <trkpt lat="40.382054" lon="-74.245297"></trkpt>
    <trkpt lat="40.382217" lon="-74.244907"></trkpt>
    <trkpt lat="40.382358" lon="-74.244306"></trkpt>
    <trkpt lat="40.382447" lon="-74.243927"></trkpt>
    <trkpt lat="40.382589" lon="-74.243057"></trkpt>
    <trkpt lat="40.382671" lon="-74.242648"></trkpt>
    <trkpt lat="40.382741" lon="-74.242242"></trkpt>
    <trkpt lat="40.382841" lon="-74.241734"></trkpt>
    <trkpt lat="40.382916" lon="-74.241291"></trkpt>
    <trkpt lat="40.382663" lon="-74.241405"></trkpt>
    <trkpt lat="40.382372" lon="-74.241552"></trkpt>
    <trkpt lat="40.382101" lon="-74.241688"></trkpt>
    <trkpt lat="40.381487" lon="-74.241994"></trkpt>
    <trkpt lat="40.381062" lon="-74.242197"></trkpt>
    <trkpt lat="40.380083" lon="-74.242697"></trkpt>
    <trkpt lat="40.379823" lon="-74.242823"></trkpt>
    <trkpt lat="40.378115" lon="-74.243643"></trkpt>
    <trkpt lat="40.377885" lon="-74.243756"></trkpt>
    <trkpt lat="40.377615" lon="-74.243888"></trkpt>
    <trkpt lat="40.376843" lon="-74.244270"></trkpt>
    <trkpt lat="40.376407" lon="-74.244483"></trkpt>
    <trkpt lat="40.375964" lon="-74.244693"></trkpt>
    <trkpt lat="40.375434" lon="-74.244918"></trkpt>
    <trkpt lat="40.374791" lon="-74.245145"></trkpt>
    <trkpt lat="40.373672" lon="-74.245535"></trkpt>
    <trkpt lat="40.372593" lon="-74.245906"></trkpt>
    <trkpt lat="40.371906" lon="-74.246143"></trkpt>
    <trkpt lat="40.371421" lon="-74.246310"></trkpt>
    <trkpt lat="40.370945" lon="-74.246474"></trkpt>
    <trkpt lat="40.370029" lon="-74.246794"></trkpt>
    <trkpt lat="40.368618" lon="-74.247276"></trkpt>
    <trkpt lat="40.368123" lon="-74.247433"></trkpt>
    <trkpt lat="40.367408" lon="-74.247654"></trkpt>
    <trkpt lat="40.366973" lon="-74.247740"></trkpt>
    <trkpt lat="40.365663" lon="-74.247895"></trkpt>
    <trkpt lat="40.364945" lon="-74.247995"></trkpt>
    <trkpt lat="40.361471" lon="-74.248505"></trkpt>
    <trkpt lat="40.360838" lon="-74.248573"></trkpt>
    <trkpt lat="40.359970" lon="-74.248703"></trkpt>
    <trkpt lat="40.358474" lon="-74.248916"></trkpt>
    <trkpt lat="40.358241" lon="-74.248948"></trkpt>
    <trkpt lat="40.357798" lon="-74.249009"></trkpt>
    <trkpt lat="40.357241" lon="-74.249084"></trkpt>
    <trkpt lat="40.356805" lon="-74.249142"></trkpt>
    <trkpt lat="40.356319" lon="-74.249207"></trkpt>
    <trkpt lat="40.355790" lon="-74.249278"></trkpt>
    <trkpt lat="40.353916" lon="-74.249537"></trkpt>
    <trkpt lat="40.353357" lon="-74.249617"></trkpt>
    <trkpt lat="40.353022" lon="-74.249665"></trkpt>
    <trkpt lat="40.352601" lon="-74.249726"></trkpt>
    <trkpt lat="40.351359" lon="-74.249904"></trkpt>
    <trkpt lat="40.350582" lon="-74.250017"></trkpt>
    <trkpt lat="40.350226" lon="-74.250065"></trkpt>
    <trkpt lat="40.349267" lon="-74.250204"></trkpt>
    <trkpt lat="40.348879" lon="-74.250247"></trkpt>
    <trkpt lat="40.348570" lon="-74.250260"></trkpt>
    <trkpt lat="40.348153" lon="-74.250222"></trkpt>
    <trkpt lat="40.347539" lon="-74.250065"></trkpt>
    <trkpt lat="40.346028" lon="-74.249604"></trkpt>
    <trkpt lat="40.345468" lon="-74.250583"></trkpt>
    <trkpt lat="40.344500" lon="-74.252157"></trkpt>
    <trkpt lat="40.344274" lon="-74.252533"></trkpt>
    <trkpt lat="40.343965" lon="-74.253100"></trkpt>
    <trkpt lat="40.343229" lon="-74.254463"></trkpt>
    <trkpt lat="40.342931" lon="-74.255058"></trkpt>
    <trkpt lat="40.343536" lon="-74.255473"></trkpt>
    <trkpt lat="40.343953" lon="-74.255675"></trkpt>
    <trkpt lat="40.344190" lon="-74.255687"></trkpt>
    <trkpt lat="40.344427" lon="-74.255605"></trkpt>
    <trkpt lat="40.344651" lon="-74.255492"></trkpt>
    <trkpt lat="40.345144" lon="-74.255244"></trkpt>
    <trkpt lat="40.345410" lon="-74.255162"></trkpt>
    <trkpt lat="40.345686" lon="-74.255194"></trkpt>
    <trkpt lat="40.345935" lon="-74.255287"></trkpt>
    <trkpt lat="40.346446" lon="-74.255541"></trkpt>
    <trkpt lat="40.347101" lon="-74.255866"></trkpt>
    <trkpt lat="40.347315" lon="-74.256064"></trkpt>
    <trkpt lat="40.347472" lon="-74.256340"></trkpt>
    <trkpt lat="40.347534" lon="-74.256674"></trkpt>
    <trkpt lat="40.347478" lon="-74.257110"></trkpt>
    <trkpt lat="40.347404" lon="-74.257675"></trkpt>
    <trkpt lat="40.348150" lon="-74.258007"></trkpt>
    <trkpt lat="40.348408" lon="-74.257840"></trkpt>
    <trkpt lat="40.348982" lon="-74.256328"></trkpt>
    <trkpt lat="40.349195" lon="-74.255629"></trkpt>
    <trkpt lat="40.349835" lon="-74.255963"></trkpt>
    <trkpt lat="40.350087" lon="-74.256177"></trkpt>
    <trkpt lat="40.350306" lon="-74.256460"></trkpt>
    <trkpt lat="40.350498" lon="-74.256884"></trkpt>
    <trkpt lat="40.350780" lon="-74.257649"></trkpt>
    <trkpt lat="40.350931" lon="-74.257914"></trkpt>
    <trkpt lat="40.351206" lon="-74.258135"></trkpt>
    <trkpt lat="40.351892" lon="-74.258347"></trkpt>
    <trkpt lat="40.351528" lon="-74.260622"></trkpt>
    <trkpt lat="40.351575" lon="-74.261439"></trkpt>
    <trkpt lat="40.351714" lon="-74.262620"></trkpt>
    <trkpt lat="40.351850" lon="-74.263575"></trkpt>
    <trkpt lat="40.352056" lon="-74.265226"></trkpt>
    <trkpt lat="40.352135" lon="-74.265830"></trkpt>
    <trkpt lat="40.352338" lon="-74.267121"></trkpt>
    <trkpt lat="40.352563" lon="-74.268554"></trkpt>
    <trkpt lat="40.352588" lon="-74.268927"></trkpt>
    <trkpt lat="40.352138" lon="-74.268948"></trkpt>
    <trkpt lat="40.350770" lon="-74.268820"></trkpt>
    <trkpt lat="40.350426" lon="-74.268783"></trkpt>
    <trkpt lat="40.349224" lon="-74.268655"></trkpt>
    <trkpt lat="40.347284" lon="-74.268460"></trkpt>
    <trkpt lat="40.346573" lon="-74.268372"></trkpt>
    <trkpt lat="40.346271" lon="-74.268359"></trkpt>
    <trkpt lat="40.345799" lon="-74.268375"></trkpt>
    <trkpt lat="40.345437" lon="-74.268519"></trkpt>
    <trkpt lat="40.345141" lon="-74.268691"></trkpt>
    <trkpt lat="40.344175" lon="-74.269313"></trkpt>
    <trkpt lat="40.342995" lon="-74.270080"></trkpt>
    <trkpt lat="40.341484" lon="-74.271081"></trkpt>
    <trkpt lat="40.341127" lon="-74.270772"></trkpt>
    <trkpt lat="40.340835" lon="-74.270633"></trkpt>
    <trkpt lat="40.340600" lon="-74.270591"></trkpt>
    <trkpt lat="40.339875" lon="-74.270623"></trkpt>
    <trkpt lat="40.339601" lon="-74.270600"></trkpt>
    <trkpt lat="40.339330" lon="-74.270512"></trkpt>
    <trkpt lat="40.338588" lon="-74.270163"></trkpt>
    <trkpt lat="40.337942" lon="-74.269817"></trkpt>
    <trkpt lat="40.337459" lon="-74.269501"></trkpt>
    <trkpt lat="40.336949" lon="-74.269114"></trkpt>
    <trkpt lat="40.335783" lon="-74.268075"></trkpt>
    <trkpt lat="40.335569" lon="-74.267845"></trkpt>
    <trkpt lat="40.335142" lon="-74.266999"></trkpt>
    <trkpt lat="40.334858" lon="-74.266325"></trkpt>
    <trkpt lat="40.334253" lon="-74.264887"></trkpt>
    <trkpt lat="40.334099" lon="-74.264585"></trkpt>
    <trkpt lat="40.333863" lon="-74.264217"></trkpt>
    <trkpt lat="40.333619" lon="-74.263938"></trkpt>
    <trkpt lat="40.332934" lon="-74.263220"></trkpt>
    <trkpt lat="40.332758" lon="-74.263034"></trkpt>
    <trkpt lat="40.331768" lon="-74.261991"></trkpt>
    <trkpt lat="40.331383" lon="-74.261554"></trkpt>
    <trkpt lat="40.331183" lon="-74.261086"></trkpt>
    <trkpt lat="40.330397" lon="-74.261376"></trkpt>
    <trkpt lat="40.330140" lon="-74.261559"></trkpt>
    <trkpt lat="40.329201" lon="-74.262225"></trkpt>
    <trkpt lat="40.328979" lon="-74.262401"></trkpt>
    <trkpt lat="40.328298" lon="-74.263063"></trkpt>
    <trkpt lat="40.327344" lon="-74.264030"></trkpt>
    <trkpt lat="40.326161" lon="-74.265275"></trkpt>
    <trkpt lat="40.325897" lon="-74.265630"></trkpt>
    <trkpt lat="40.325283" lon="-74.266508"></trkpt>
    <trkpt lat="40.324861" lon="-74.266874"></trkpt>
    <trkpt lat="40.324491" lon="-74.267010"></trkpt>
    <trkpt lat="40.324294" lon="-74.267318"></trkpt>
    <trkpt lat="40.323760" lon="-74.268383"></trkpt>
    <trkpt lat="40.323415" lon="-74.269082"></trkpt>
    <trkpt lat="40.323034" lon="-74.269842"></trkpt>
    <trkpt lat="40.322815" lon="-74.269631"></trkpt>
    <trkpt lat="40.322364" lon="-74.268787"></trkpt>
    <trkpt lat="40.321299" lon="-74.267902"></trkpt>
    <trkpt lat="40.320758" lon="-74.267519"></trkpt>
    <trkpt lat="40.319785" lon="-74.266790"></trkpt>
    <trkpt lat="40.319413" lon="-74.266515"></trkpt>
    <trkpt lat="40.318061" lon="-74.265512"></trkpt>
    <trkpt lat="40.314932" lon="-74.263207"></trkpt>
    <trkpt lat="40.314708" lon="-74.263282"></trkpt>
    <trkpt lat="40.313534" lon="-74.264509"></trkpt>
    <trkpt lat="40.313109" lon="-74.264929"></trkpt>
    <trkpt lat="40.312552" lon="-74.265499"></trkpt>
    <trkpt lat="40.311773" lon="-74.266021"></trkpt>
    <trkpt lat="40.311518" lon="-74.266153"></trkpt>
    <trkpt lat="40.311063" lon="-74.266290"></trkpt>
    <trkpt lat="40.310742" lon="-74.266572"></trkpt>
    <trkpt lat="40.309978" lon="-74.267967"></trkpt>
    <trkpt lat="40.307662" lon="-74.272134"></trkpt>
    <trkpt lat="40.307296" lon="-74.272793"></trkpt>
    <trkpt lat="40.306883" lon="-74.273541"></trkpt>
    <trkpt lat="40.306559" lon="-74.274108"></trkpt>
    <trkpt lat="40.304623" lon="-74.277606"></trkpt>
    <trkpt lat="40.303645" lon="-74.279416"></trkpt>
    <trkpt lat="40.300232" lon="-74.278312"></trkpt>
    <trkpt lat="40.299812" lon="-74.278151"></trkpt>
    <trkpt lat="40.299183" lon="-74.277975"></trkpt>
    <trkpt lat="40.298737" lon="-74.277794"></trkpt>
    <trkpt lat="40.298449" lon="-74.277603"></trkpt>
    <trkpt lat="40.296785" lon="-74.276488"></trkpt>
    <trkpt lat="40.296668" lon="-74.277562"></trkpt>
    <trkpt lat="40.296620" lon="-74.278216"></trkpt>
    <trkpt lat="40.296412" lon="-74.279793"></trkpt>
    <trkpt lat="40.296159" lon="-74.281891"></trkpt>
    <trkpt lat="40.296004" lon="-74.283241"></trkpt>
    <trkpt lat="40.295813" lon="-74.284899"></trkpt>
    <trkpt lat="40.295667" lon="-74.286222"></trkpt>
    <trkpt lat="40.295521" lon="-74.287606"></trkpt>
    <trkpt lat="40.295441" lon="-74.288192"></trkpt>
    <trkpt lat="40.295198" lon="-74.290284"></trkpt>
    <trkpt lat="40.294881" lon="-74.293095"></trkpt>
    <trkpt lat="40.294751" lon="-74.294235"></trkpt>
    <trkpt lat="40.294618" lon="-74.294793"></trkpt>
    <trkpt lat="40.294206" lon="-74.295881"></trkpt>
    <trkpt lat="40.293780" lon="-74.297019"></trkpt>
    <trkpt lat="40.293563" lon="-74.297535"></trkpt>
    <trkpt lat="40.293243" lon="-74.298372"></trkpt>
    <trkpt lat="40.293018" lon="-74.299729"></trkpt>
    <trkpt lat="40.292746" lon="-74.301585"></trkpt>
    <trkpt lat="40.292509" lon="-74.303006"></trkpt>
    <trkpt lat="40.292366" lon="-74.303861"></trkpt>
    <trkpt lat="40.292198" lon="-74.304871"></trkpt>
    <trkpt lat="40.292008" lon="-74.306097"></trkpt>
    <trkpt lat="40.291840" lon="-74.306534"></trkpt>
    <trkpt lat="40.291378" lon="-74.307131"></trkpt>
    <trkpt lat="40.291075" lon="-74.307521"></trkpt>
    <trkpt lat="40.290825" lon="-74.307988"></trkpt>
    <trkpt lat="40.290690" lon="-74.308465"></trkpt>
    <trkpt lat="40.290647" lon="-74.308973"></trkpt>
    <trkpt lat="40.290655" lon="-74.309607"></trkpt>
    <trkpt lat="40.290734" lon="-74.311505"></trkpt>
    <trkpt lat="40.290725" lon="-74.311870"></trkpt>
    <trkpt lat="40.290699" lon="-74.312382"></trkpt>
    <trkpt lat="40.290629" lon="-74.313183"></trkpt>
    <trkpt lat="40.290470" lon="-74.314851"></trkpt>
    <trkpt lat="40.290209" lon="-74.316797"></trkpt>
    <trkpt lat="40.290038" lon="-74.317650"></trkpt>
    <trkpt lat="40.289765" lon="-74.318560"></trkpt>
    <trkpt lat="40.289318" lon="-74.319384"></trkpt>
    <trkpt lat="40.288982" lon="-74.319876"></trkpt>
    <trkpt lat="40.288751" lon="-74.320164"></trkpt>
    <trkpt lat="40.287880" lon="-74.321268"></trkpt>
    <trkpt lat="40.287407" lon="-74.321931"></trkpt>
    <trkpt lat="40.287125" lon="-74.322264"></trkpt>
    <trkpt lat="40.286797" lon="-74.322488"></trkpt>
    <trkpt lat="40.286525" lon="-74.322589"></trkpt>
    <trkpt lat="40.285816" lon="-74.322682"></trkpt>
    <trkpt lat="40.285845" lon="-74.323065"></trkpt>
    <trkpt lat="40.286026" lon="-74.325451"></trkpt>
    <trkpt lat="40.286091" lon="-74.325823"></trkpt>
    <trkpt lat="40.286210" lon="-74.326168"></trkpt>
    <trkpt lat="40.285614" lon="-74.326542"></trkpt>
    <trkpt lat="40.284614" lon="-74.327202"></trkpt>
    <trkpt lat="40.283388" lon="-74.327710"></trkpt>
    <trkpt lat="40.283062" lon="-74.327985"></trkpt>
    <trkpt lat="40.281927" lon="-74.329977"></trkpt>
    <trkpt lat="40.281746" lon="-74.330290"></trkpt>
    <trkpt lat="40.281577" lon="-74.330581"></trkpt>
    <trkpt lat="40.282568" lon="-74.331789"></trkpt>
    <trkpt lat="40.282918" lon="-74.332214"></trkpt>
    <trkpt lat="40.283146" lon="-74.332490"></trkpt>
    <trkpt lat="40.283455" lon="-74.332870"></trkpt>
    <trkpt lat="40.283681" lon="-74.333140"></trkpt>
    <trkpt lat="40.284024" lon="-74.333555"></trkpt>
    <trkpt lat="40.284237" lon="-74.333808"></trkpt>
    <trkpt lat="40.284498" lon="-74.334130"></trkpt>
    <trkpt lat="40.285414" lon="-74.335241"></trkpt>
    <trkpt lat="40.285782" lon="-74.335684"></trkpt>
    <trkpt lat="40.286151" lon="-74.336122"></trkpt>
    <trkpt lat="40.288597" lon="-74.339048"></trkpt>
    <trkpt lat="40.288929" lon="-74.339538"></trkpt>
    <trkpt lat="40.289238" lon="-74.340089"></trkpt>
    <trkpt lat="40.289437" lon="-74.340556"></trkpt>
    <trkpt lat="40.289568" lon="-74.340933"></trkpt>
    <trkpt lat="40.289699" lon="-74.341433"></trkpt>
    <trkpt lat="40.289765" lon="-74.341747"></trkpt>
    <trkpt lat="40.289837" lon="-74.342081"></trkpt>
    <trkpt lat="40.290120" lon="-74.343505"></trkpt>
    <trkpt lat="40.290350" lon="-74.344706"></trkpt>
    <trkpt lat="40.290460" lon="-74.345239"></trkpt>
    <trkpt lat="40.290569" lon="-74.345781"></trkpt>
    <trkpt lat="40.290670" lon="-74.346283"></trkpt>
    <trkpt lat="40.290831" lon="-74.346728"></trkpt>
    <trkpt lat="40.291547" lon="-74.347916"></trkpt>
    <trkpt lat="40.291956" lon="-74.348565"></trkpt>
    <trkpt lat="40.292409" lon="-74.349284"></trkpt>
    <trkpt lat="40.293151" lon="-74.350456"></trkpt>
    <trkpt lat="40.293452" lon="-74.350931"></trkpt>
    <trkpt lat="40.294766" lon="-74.353014"></trkpt>
    <trkpt lat="40.294905" lon="-74.353273"></trkpt>
    <trkpt lat="40.295080" lon="-74.353855"></trkpt>
    <trkpt lat="40.295200" lon="-74.354541"></trkpt>
    <trkpt lat="40.295328" lon="-74.355368"></trkpt>
    <trkpt lat="40.295380" lon="-74.355840"></trkpt>
    <trkpt lat="40.295403" lon="-74.356408"></trkpt>
    <trkpt lat="40.295459" lon="-74.357917"></trkpt>
    <trkpt lat="40.295469" lon="-74.358355"></trkpt>
    <trkpt lat="40.296154" lon="-74.358381"></trkpt>
    <trkpt lat="40.296425" lon="-74.358395"></trkpt>
    <trkpt lat="40.297003" lon="-74.358405"></trkpt>
    <trkpt lat="40.297124" lon="-74.359045"></trkpt>
    <trkpt lat="40.297158" lon="-74.359454"></trkpt>
    <trkpt lat="40.297212" lon="-74.360121"></trkpt>
    <trkpt lat="40.297281" lon="-74.361441"></trkpt>
    <trkpt lat="40.297375" lon="-74.361781"></trkpt>
    <trkpt lat="40.297674" lon="-74.362268"></trkpt>
    <trkpt lat="40.297913" lon="-74.362621"></trkpt>
    <trkpt lat="40.297430" lon="-74.362973"></trkpt>
    <trkpt lat="40.297406" lon="-74.364743"></trkpt>
    <trkpt lat="40.297366" lon="-74.365387"></trkpt>
    <trkpt lat="40.297227" lon="-74.367235"></trkpt>
    <trkpt lat="40.297228" lon="-74.367859"></trkpt>
    <trkpt lat="40.297269" lon="-74.368420"></trkpt>
    <trkpt lat="40.297318" lon="-74.368774"></trkpt>
    <trkpt lat="40.297399" lon="-74.369176"></trkpt>
    <trkpt lat="40.297816" lon="-74.370351"></trkpt>
    <trkpt lat="40.298107" lon="-74.371029"></trkpt>
    <trkpt lat="40.298316" lon="-74.371352"></trkpt>
    <trkpt lat="40.298625" lon="-74.371654"></trkpt>
    <trkpt lat="40.299565" lon="-74.372464"></trkpt>
    <trkpt lat="40.300447" lon="-74.373229"></trkpt>
    <trkpt lat="40.300683" lon="-74.373486"></trkpt>
    <trkpt lat="40.299926" lon="-74.374994"></trkpt>
    <trkpt lat="40.299506" lon="-74.375755"></trkpt>
    <trkpt lat="40.299264" lon="-74.376031"></trkpt>
    <trkpt lat="40.299015" lon="-74.376255"></trkpt>
    <trkpt lat="40.298256" lon="-74.377002"></trkpt>
    <trkpt lat="40.297940" lon="-74.377326"></trkpt>
    <trkpt lat="40.297809" lon="-74.377610"></trkpt>
    <trkpt lat="40.297695" lon="-74.379150"></trkpt>
    <trkpt lat="40.297630" lon="-74.380579"></trkpt>
    <trkpt lat="40.298183" lon="-74.380621"></trkpt>
    <trkpt lat="40.298239" lon="-74.379763"></trkpt>
    <trkpt lat="40.298373" lon="-74.379344"></trkpt>
    <trkpt lat="40.299162" lon="-74.378606"></trkpt>
    <trkpt lat="40.298256" lon="-74.377002"></trkpt>
    <trkpt lat="40.299015" lon="-74.376255"></trkpt>
    <trkpt lat="40.299264" lon="-74.376031"></trkpt>
    <trkpt lat="40.299506" lon="-74.375755"></trkpt>
    <trkpt lat="40.299926" lon="-74.374994"></trkpt>
    <trkpt lat="40.300683" lon="-74.373486"></trkpt>
    <trkpt lat="40.301156" lon="-74.374061"></trkpt>
    <trkpt lat="40.301419" lon="-74.374363"></trkpt>
    <trkpt lat="40.302101" lon="-74.375075"></trkpt>
    <trkpt lat="40.302313" lon="-74.375327"></trkpt>
    <trkpt lat="40.302828" lon="-74.375996"></trkpt>
    <trkpt lat="40.303022" lon="-74.376260"></trkpt>
    <trkpt lat="40.303657" lon="-74.377163"></trkpt>
    <trkpt lat="40.304120" lon="-74.377898"></trkpt>
    <trkpt lat="40.304276" lon="-74.378170"></trkpt>
    <trkpt lat="40.304884" lon="-74.379265"></trkpt>
    <trkpt lat="40.306100" lon="-74.379137"></trkpt>
    <trkpt lat="40.308453" lon="-74.378904"></trkpt>
    <trkpt lat="40.308858" lon="-74.379465"></trkpt>
    <trkpt lat="40.309087" lon="-74.379725"></trkpt>
    <trkpt lat="40.309526" lon="-74.380169"></trkpt>
    <trkpt lat="40.310305" lon="-74.380945"></trkpt>
    <trkpt lat="40.310613" lon="-74.381274"></trkpt>
    <trkpt lat="40.310869" lon="-74.381553"></trkpt>
    <trkpt lat="40.312291" lon="-74.383130"></trkpt>
    <trkpt lat="40.312662" lon="-74.383624"></trkpt>
    <trkpt lat="40.312871" lon="-74.383974"></trkpt>
    <trkpt lat="40.313601" lon="-74.385538"></trkpt>
    <trkpt lat="40.315228" lon="-74.388990"></trkpt>
    <trkpt lat="40.316586" lon="-74.390977"></trkpt>
    <trkpt lat="40.318095" lon="-74.393105"></trkpt>
    <trkpt lat="40.319278" lon="-74.394743"></trkpt>
    <trkpt lat="40.319982" lon="-74.395732"></trkpt>
    <trkpt lat="40.320378" lon="-74.396322"></trkpt>
    <trkpt lat="40.321425" lon="-74.397767"></trkpt>
    <trkpt lat="40.322102" lon="-74.399028"></trkpt>
    <trkpt lat="40.322417" lon="-74.399644"></trkpt>
    <trkpt lat="40.323679" lon="-74.402216"></trkpt>
    <trkpt lat="40.323900" lon="-74.402666"></trkpt>
    <trkpt lat="40.324142" lon="-74.403050"></trkpt>
    <trkpt lat="40.325594" lon="-74.404908"></trkpt>
    <trkpt lat="40.326308" lon="-74.405821"></trkpt>
    <trkpt lat="40.326480" lon="-74.406041"></trkpt>
    <trkpt lat="40.327609" lon="-74.407486"></trkpt>
    <trkpt lat="40.328020" lon="-74.408012"></trkpt>
    <trkpt lat="40.328466" lon="-74.408647"></trkpt>
    <trkpt lat="40.328900" lon="-74.409354"></trkpt>
    <trkpt lat="40.329659" lon="-74.410611"></trkpt>
    <trkpt lat="40.330055" lon="-74.411336"></trkpt>
    <trkpt lat="40.330294" lon="-74.411759"></trkpt>
    <trkpt lat="40.331812" lon="-74.408328"></trkpt>
    <trkpt lat="40.332118" lon="-74.407726"></trkpt>
    <trkpt lat="40.332351" lon="-74.407268"></trkpt>
    <trkpt lat="40.332638" lon="-74.406846"></trkpt>
    <trkpt lat="40.332858" lon="-74.406667"></trkpt>
    <trkpt lat="40.332716" lon="-74.406419"></trkpt>
    <trkpt lat="40.332858" lon="-74.406667"></trkpt>
    <trkpt lat="40.333178" lon="-74.406483"></trkpt>
    <trkpt lat="40.333458" lon="-74.406386"></trkpt>
    <trkpt lat="40.333724" lon="-74.406340"></trkpt>
    <trkpt lat="40.334458" lon="-74.406217"></trkpt>
    <trkpt lat="40.334721" lon="-74.406173"></trkpt>
    <trkpt lat="40.335498" lon="-74.406042"></trkpt>
    <trkpt lat="40.335921" lon="-74.405983"></trkpt>
    <trkpt lat="40.337123" lon="-74.405752"></trkpt>
    <trkpt lat="40.338552" lon="-74.405526"></trkpt>
    <trkpt lat="40.342662" lon="-74.404777"></trkpt>
    <trkpt lat="40.344874" lon="-74.404395"></trkpt>
    <trkpt lat="40.346903" lon="-74.404045"></trkpt>
    <trkpt lat="40.348648" lon="-74.404485"></trkpt>
    <trkpt lat="40.349172" lon="-74.404601"></trkpt>
    <trkpt lat="40.350851" lon="-74.405013"></trkpt>
    <trkpt lat="40.351224" lon="-74.405103"></trkpt>
    <trkpt lat="40.352298" lon="-74.405364"></trkpt>
    <trkpt lat="40.352984" lon="-74.405517"></trkpt>
    <trkpt lat="40.355138" lon="-74.406006"></trkpt>
    <trkpt lat="40.355140" lon="-74.405526"></trkpt>
    <trkpt lat="40.355142" lon="-74.403949"></trkpt>
    <trkpt lat="40.355162" lon="-74.400831"></trkpt>
    <trkpt lat="40.355164" lon="-74.400471"></trkpt>
    <trkpt lat="40.355182" lon="-74.397569"></trkpt>
    <trkpt lat="40.355190" lon="-74.396383"></trkpt>
    <trkpt lat="40.355193" lon="-74.395654"></trkpt>
    <trkpt lat="40.355205" lon="-74.394565"></trkpt>
    <trkpt lat="40.355240" lon="-74.394169"></trkpt>
    <trkpt lat="40.355340" lon="-74.393434"></trkpt>
    <trkpt lat="40.355871" lon="-74.389708"></trkpt>
    <trkpt lat="40.356202" lon="-74.387648"></trkpt>
    <trkpt lat="40.356361" lon="-74.386281"></trkpt>
    <trkpt lat="40.357246" lon="-74.386433"></trkpt>
    <trkpt lat="40.357661" lon="-74.386504"></trkpt>
    <trkpt lat="40.358247" lon="-74.386605"></trkpt>
    <trkpt lat="40.359788" lon="-74.386869"></trkpt>
    <trkpt lat="40.360400" lon="-74.386975"></trkpt>
    <trkpt lat="40.361634" lon="-74.387224"></trkpt>
    <trkpt lat="40.362775" lon="-74.387472"></trkpt>
    <trkpt lat="40.363075" lon="-74.387534"></trkpt>
    <trkpt lat="40.364845" lon="-74.387902"></trkpt>
    <trkpt lat="40.365272" lon="-74.387975"></trkpt>
    <trkpt lat="40.365845" lon="-74.388073"></trkpt>
    <trkpt lat="40.366325" lon="-74.388155"></trkpt>
    <trkpt lat="40.366644" lon="-74.388209"></trkpt>
    <trkpt lat="40.368395" lon="-74.388508"></trkpt>
    <trkpt lat="40.368844" lon="-74.388584"></trkpt>
    <trkpt lat="40.369974" lon="-74.388777"></trkpt>
    <trkpt lat="40.370484" lon="-74.388864"></trkpt>
    <trkpt lat="40.370787" lon="-74.388922"></trkpt>
    <trkpt lat="40.371340" lon="-74.388944"></trkpt>
    <trkpt lat="40.371715" lon="-74.388909"></trkpt>
    <trkpt lat="40.372449" lon="-74.388891"></trkpt>
    <trkpt lat="40.372743" lon="-74.388883"></trkpt>
    <trkpt lat="40.373696" lon="-74.388859"></trkpt>
    <trkpt lat="40.373720" lon="-74.389925"></trkpt>
    <trkpt lat="40.373735" lon="-74.390826"></trkpt>
    <trkpt lat="40.374259" lon="-74.390801"></trkpt>
    <trkpt lat="40.374877" lon="-74.390771"></trkpt>
    <trkpt lat="40.375094" lon="-74.390346"></trkpt>
    <trkpt lat="40.374930" lon="-74.389946"></trkpt>
    <trkpt lat="40.373720" lon="-74.389925"></trkpt>
    <trkpt lat="40.373696" lon="-74.388859"></trkpt>
    <trkpt lat="40.374616" lon="-74.388801"></trkpt>
    <trkpt lat="40.375187" lon="-74.388765"></trkpt>
    <trkpt lat="40.375844" lon="-74.388723"></trkpt>
    <trkpt lat="40.376221" lon="-74.388719"></trkpt>
    <trkpt lat="40.376573" lon="-74.388715"></trkpt>
    <trkpt lat="40.377923" lon="-74.388701"></trkpt>
    <trkpt lat="40.378396" lon="-74.388696"></trkpt>
    <trkpt lat="40.378876" lon="-74.388703"></trkpt>
    <trkpt lat="40.379109" lon="-74.388694"></trkpt>
    <trkpt lat="40.379519" lon="-74.388679"></trkpt>
    <trkpt lat="40.379766" lon="-74.388669"></trkpt>
    <trkpt lat="40.380115" lon="-74.388656"></trkpt>
    <trkpt lat="40.380435" lon="-74.388641"></trkpt>
    <trkpt lat="40.380823" lon="-74.388619"></trkpt>
    <trkpt lat="40.381072" lon="-74.388613"></trkpt>
    <trkpt lat="40.381338" lon="-74.388598"></trkpt>
    <trkpt lat="40.381928" lon="-74.388572"></trkpt>
    <trkpt lat="40.382157" lon="-74.388556"></trkpt>
    <trkpt lat="40.382445" lon="-74.388547"></trkpt>
    <trkpt lat="40.382768" lon="-74.388537"></trkpt>
    <trkpt lat="40.383333" lon="-74.388503"></trkpt>
    <trkpt lat="40.384363" lon="-74.388206"></trkpt>
    <trkpt lat="40.385314" lon="-74.387910"></trkpt>
    <trkpt lat="40.386244" lon="-74.387629"></trkpt>
    <trkpt lat="40.387125" lon="-74.387328"></trkpt>
    <trkpt lat="40.387551" lon="-74.387199"></trkpt>
    <trkpt lat="40.387942" lon="-74.387191"></trkpt>
    <trkpt lat="40.388356" lon="-74.387311"></trkpt>
    <trkpt lat="40.388669" lon="-74.387538"></trkpt>
    <trkpt lat="40.389328" lon="-74.388709"></trkpt>
    <trkpt lat="40.389767" lon="-74.389338"></trkpt>
    <trkpt lat="40.389989" lon="-74.389559"></trkpt>
    <trkpt lat="40.390199" lon="-74.389770"></trkpt>
    <trkpt lat="40.390431" lon="-74.389869"></trkpt>
    <trkpt lat="40.390655" lon="-74.389963"></trkpt>
    <trkpt lat="40.390922" lon="-74.390074"></trkpt>
    <trkpt lat="40.391617" lon="-74.390319"></trkpt>
    <trkpt lat="40.391747" lon="-74.389872"></trkpt>
    <trkpt lat="40.391905" lon="-74.389563"></trkpt>
    <trkpt lat="40.392049" lon="-74.389319"></trkpt>
    <trkpt lat="40.392355" lon="-74.388822"></trkpt>
    <trkpt lat="40.392699" lon="-74.388262"></trkpt>
    <trkpt lat="40.393028" lon="-74.387757"></trkpt>
    <trkpt lat="40.393589" lon="-74.386995"></trkpt>
    <trkpt lat="40.393781" lon="-74.386785"></trkpt>
    <trkpt lat="40.393971" lon="-74.386609"></trkpt>
    <trkpt lat="40.394263" lon="-74.386388"></trkpt>
    <trkpt lat="40.394582" lon="-74.386174"></trkpt>
    <trkpt lat="40.395184" lon="-74.385751"></trkpt>
    <trkpt lat="40.395461" lon="-74.385528"></trkpt>
    <trkpt lat="40.395895" lon="-74.385141"></trkpt>
    <trkpt lat="40.396215" lon="-74.384847"></trkpt>
    <trkpt lat="40.396510" lon="-74.384577"></trkpt>
    <trkpt lat="40.397502" lon="-74.383663"></trkpt>
    <trkpt lat="40.397693" lon="-74.383485"></trkpt>
    <trkpt lat="40.398222" lon="-74.382987"></trkpt>
    <trkpt lat="40.398507" lon="-74.382718"></trkpt>
    <trkpt lat="40.399294" lon="-74.381995"></trkpt>
    <trkpt lat="40.401642" lon="-74.379828"></trkpt>
    <trkpt lat="40.402108" lon="-74.379401"></trkpt>
    <trkpt lat="40.402398" lon="-74.379138"></trkpt>
    <trkpt lat="40.402646" lon="-74.378912"></trkpt>
    <trkpt lat="40.403721" lon="-74.377925"></trkpt>
    <trkpt lat="40.403933" lon="-74.377734"></trkpt>
    <trkpt lat="40.404620" lon="-74.377108"></trkpt>
    <trkpt lat="40.404952" lon="-74.376795"></trkpt>
    <trkpt lat="40.405240" lon="-74.376536"></trkpt>
    <trkpt lat="40.405521" lon="-74.376272"></trkpt>
    <trkpt lat="40.405769" lon="-74.376038"></trkpt>
    <trkpt lat="40.406078" lon="-74.375751"></trkpt>
    <trkpt lat="40.406747" lon="-74.375131"></trkpt>
    <trkpt lat="40.407314" lon="-74.374605"></trkpt>
    <trkpt lat="40.407869" lon="-74.374091"></trkpt>
    <trkpt lat="40.408369" lon="-74.373626"></trkpt>
    <trkpt lat="40.408659" lon="-74.373354"></trkpt>
    <trkpt lat="40.408879" lon="-74.373147"></trkpt>
    <trkpt lat="40.409238" lon="-74.372807"></trkpt>
    <trkpt lat="40.409562" lon="-74.372497"></trkpt>
    <trkpt lat="40.410089" lon="-74.371994"></trkpt>
    <trkpt lat="40.410647" lon="-74.371461"></trkpt>
    <trkpt lat="40.411197" lon="-74.370938"></trkpt>
    <trkpt lat="40.411458" lon="-74.370690"></trkpt>
    <trkpt lat="40.412334" lon="-74.369843"></trkpt>
    <trkpt lat="40.412835" lon="-74.369385"></trkpt>
    <trkpt lat="40.413166" lon="-74.369442"></trkpt>
    <trkpt lat="40.413429" lon="-74.369290"></trkpt>
    <trkpt lat="40.413784" lon="-74.368473"></trkpt>
    <trkpt lat="40.413817" lon="-74.368120"></trkpt>
    <trkpt lat="40.413792" lon="-74.367824"></trkpt>
    <trkpt lat="40.412655" lon="-74.366407"></trkpt>
    <trkpt lat="40.411921" lon="-74.365409"></trkpt>
    <trkpt lat="40.411595" lon="-74.364916"></trkpt>
    <trkpt lat="40.411289" lon="-74.364401"></trkpt>
    <trkpt lat="40.410306" lon="-74.362637"></trkpt>
    <trkpt lat="40.409937" lon="-74.362025"></trkpt>
    <trkpt lat="40.409671" lon="-74.361664"></trkpt>
    <trkpt lat="40.409252" lon="-74.361196"></trkpt>
    <trkpt lat="40.408903" lon="-74.360860"></trkpt>
    <trkpt lat="40.407543" lon="-74.359675"></trkpt>
    <trkpt lat="40.407241" lon="-74.359324"></trkpt>
    <trkpt lat="40.406803" lon="-74.358717"></trkpt>
    <trkpt lat="40.406496" lon="-74.358272"></trkpt>
    <trkpt lat="40.406175" lon="-74.357793"></trkpt>
    <trkpt lat="40.405910" lon="-74.357399"></trkpt>
    <trkpt lat="40.405578" lon="-74.356911"></trkpt>
    <trkpt lat="40.405239" lon="-74.356416"></trkpt>
    <trkpt lat="40.404860" lon="-74.355904"></trkpt>
    <trkpt lat="40.404696" lon="-74.355678"></trkpt>
    <trkpt lat="40.403688" lon="-74.354421"></trkpt>
    <trkpt lat="40.402741" lon="-74.353288"></trkpt>
    <trkpt lat="40.401000" lon="-74.351203"></trkpt>
    <trkpt lat="40.400272" lon="-74.350324"></trkpt>
    <trkpt lat="40.400427" lon="-74.350105"></trkpt>
    <trkpt lat="40.400656" lon="-74.349815"></trkpt>
    <trkpt lat="40.401080" lon="-74.349279"></trkpt>
    <trkpt lat="40.400875" lon="-74.347815"></trkpt>
    <trkpt lat="40.400666" lon="-74.347618"></trkpt>
    <trkpt lat="40.400375" lon="-74.347443"></trkpt>
    <trkpt lat="40.400202" lon="-74.347106"></trkpt>
    <trkpt lat="40.399414" lon="-74.345796"></trkpt>
    <trkpt lat="40.399882" lon="-74.345174"></trkpt>
    <trkpt lat="40.400182" lon="-74.345601"></trkpt>
  </trkseg></trk>
</gpx>