<?xml version="1.0" encoding="UTF-8"?>
<gpx version="1.1" creator="loopgen" xmlns="http://www.topografix.com/GPX/1/1">
  <trk><name>loop_seed4_69.8km</name><trkseg>
    <trkpt lat="40.400182" lon="-74.345601"></trkpt>
    <trkpt lat="40.400653" lon="-74.346271"></trkpt>
    <trkpt lat="40.401137" lon="-74.346691"></trkpt>
    <trkpt lat="40.400927" lon="-74.347234"></trkpt>
    <trkpt lat="40.400872" lon="-74.347658"></trkpt>
    <trkpt lat="40.401080" lon="-74.349279"></trkpt>
    <trkpt lat="40.400656" lon="-74.349815"></trkpt>
    <trkpt lat="40.400427" lon="-74.350105"></trkpt>
    <trkpt lat="40.400272" lon="-74.350324"></trkpt>
    <trkpt lat="40.398842" lon="-74.348687"></trkpt>
    <trkpt lat="40.398673" lon="-74.348483"></trkpt>
    <trkpt lat="40.396974" lon="-74.346447"></trkpt>
    <trkpt lat="40.396778" lon="-74.346217"></trkpt>
    <trkpt lat="40.394431" lon="-74.343410"></trkpt>
    <trkpt lat="40.394228" lon="-74.343170"></trkpt>
    <trkpt lat="40.394016" lon="-74.342914"></trkpt>
    <trkpt lat="40.393823" lon="-74.342683"></trkpt>
    <trkpt lat="40.392498" lon="-74.341090"></trkpt>
    <trkpt lat="40.391848" lon="-74.340309"></trkpt>
    <trkpt lat="40.390954" lon="-74.339225"></trkpt>
    <trkpt lat="40.390099" lon="-74.338188"></trkpt>
    <trkpt lat="40.386585" lon="-74.333925"></trkpt>
    <trkpt lat="40.385188" lon="-74.332095"></trkpt>
    <trkpt lat="40.384772" lon="-74.331505"></trkpt>
    <trkpt lat="40.384420" lon="-74.331011"></trkpt>
    <trkpt lat="40.383602" lon="-74.329671"></trkpt>
    <trkpt lat="40.383234" lon="-74.329067"></trkpt>
    <trkpt lat="40.382611" lon="-74.328046"></trkpt>
    <trkpt lat="40.382187" lon="-74.327351"></trkpt>
    <trkpt lat="40.381384" lon="-74.326034"></trkpt>
    <trkpt lat="40.381688" lon="-74.325465"></trkpt>
    <trkpt lat="40.381797" lon="-74.325092"></trkpt>
    <trkpt lat="40.381867" lon="-74.324636"></trkpt>
    <trkpt lat="40.381935" lon="-74.323842"></trkpt>
    <trkpt lat="40.382114" lon="-74.322483"></trkpt>
    <trkpt lat="40.382174" lon="-74.322064"></trkpt>
    <trkpt lat="40.382378" lon="-74.320758"></trkpt>
    <trkpt lat="40.382520" lon="-74.319161"></trkpt>
    <trkpt lat="40.382632" lon="-74.318615"></trkpt>
    <trkpt lat="40.382868" lon="-74.317997"></trkpt>
    <trkpt lat="40.383045" lon="-74.317601"></trkpt>
    <trkpt lat="40.383538" lon="-74.316436"></trkpt>
    <trkpt lat="40.383681" lon="-74.316093"></trkpt>
    <trkpt lat="40.383821" lon="-74.315656"></trkpt>
    <trkpt lat="40.384020" lon="-74.314856"></trkpt>
    <trkpt lat="40.384101" lon="-74.314434"></trkpt>
    <trkpt lat="40.384159" lon="-74.314015"></trkpt>
    <trkpt lat="40.384208" lon="-74.313349"></trkpt>
    <trkpt lat="40.384202" lon="-74.312636"></trkpt>
    <trkpt lat="40.384169" lon="-74.310705"></trkpt>
    <trkpt lat="40.384162" lon="-74.309806"></trkpt>
    <trkpt lat="40.384160" lon="-74.309426"></trkpt>
    <trkpt lat="40.384156" lon="-74.309015"></trkpt>
    <trkpt lat="40.384132" lon="-74.308375"></trkpt>
    <trkpt lat="40.385599" lon="-74.308118"></trkpt>
    <trkpt lat="40.387123" lon="-74.307973"></trkpt>
    <trkpt lat="40.387859" lon="-74.307927"></trkpt>
    <trkpt lat="40.388117" lon="-74.307911"></trkpt>
    <trkpt lat="40.388834" lon="-74.307866"></trkpt>
    <trkpt lat="40.390063" lon="-74.307871"></trkpt>
    <trkpt lat="40.390789" lon="-74.307904"></trkpt>
    <trkpt lat="40.392231" lon="-74.307722"></trkpt>
    <trkpt lat="40.392570" lon="-74.307695"></trkpt>
    <trkpt lat="40.392983" lon="-74.307678"></trkpt>
    <trkpt lat="40.393735" lon="-74.307601"></trkpt>
    <trkpt lat="40.394309" lon="-74.307515"></trkpt>
    <trkpt lat="40.394749" lon="-74.307440"></trkpt>
    <trkpt lat="40.396697" lon="-74.307182"></trkpt>
    <trkpt lat="40.398058" lon="-74.306885"></trkpt>
    <trkpt lat="40.398583" lon="-74.306832"></trkpt>
    <trkpt lat="40.398767" lon="-74.306628"></trkpt>
    <trkpt lat="40.398712" lon="-74.305640"></trkpt>
    <trkpt lat="40.398748" lon="-74.305295"></trkpt>
    <trkpt lat="40.398990" lon="-74.304493"></trkpt>
    <trkpt lat="40.399171" lon="-74.304163"></trkpt>
    <trkpt lat="40.399445" lon="-74.303957"></trkpt>
    <trkpt lat="40.401342" lon="-74.303256"></trkpt>
    <trkpt lat="40.401738" lon="-74.303247"></trkpt>
    <trkpt lat="40.401983" lon="-74.303112"></trkpt>
    <trkpt lat="40.402247" lon="-74.300926"></trkpt>
    <trkpt lat="40.402439" lon="-74.299831"></trkpt>
    <trkpt lat="40.402601" lon="-74.298992"></trkpt>
    <trkpt lat="40.402909" lon="-74.297345"></trkpt>
    <trkpt lat="40.403172" lon="-74.295996"></trkpt>
    <trkpt lat="40.403567" lon="-74.295875"></trkpt>
    <trkpt lat="40.403904" lon="-74.295779"></trkpt>
    <trkpt lat="40.404467" lon="-74.295607"></trkpt>
    <trkpt lat="40.405484" lon="-74.295305"></trkpt>
    <trkpt lat="40.406985" lon="-74.294872"></trkpt>
    <trkpt lat="40.407546" lon="-74.294965"></trkpt>
    <trkpt lat="40.408739" lon="-74.295099"></trkpt>
    <trkpt lat="40.409064" lon="-74.295141"></trkpt>
    <trkpt lat="40.410599" lon="-74.295220"></trkpt>
    <trkpt lat="40.411597" lon="-74.295087"></trkpt>
    <trkpt lat="40.414620" lon="-74.294263"></trkpt>
    <trkpt lat="40.415392" lon="-74.293978"></trkpt>
    <trkpt lat="40.415940" lon="-74.293775"></trkpt>
    <trkpt lat="40.417800" lon="-74.293087"></trkpt>
    <trkpt lat="40.419132" lon="-74.292390"></trkpt>
    <trkpt lat="40.419397" lon="-74.292477"></trkpt>
    <trkpt lat="40.419299" lon="-74.293468"></trkpt>
    <trkpt lat="40.419204" lon="-74.294052"></trkpt>
    <trkpt lat="40.419014" lon="-74.294595"></trkpt>
    <trkpt lat="40.418903" lon="-74.295096"></trkpt>
    <trkpt lat="40.418934" lon="-74.294783"></trkpt>
    <trkpt lat="40.419204" lon="-74.294052"></trkpt>
    <trkpt lat="40.419299" lon="-74.293468"></trkpt>
    <trkpt lat="40.419397" lon="-74.292477"></trkpt>
    <trkpt lat="40.419132" lon="-74.292390"></trkpt>
    <trkpt lat="40.419941" lon="-74.292008"></trkpt>
    <trkpt lat="40.420293" lon="-74.291782"></trkpt>
    <trkpt lat="40.420648" lon="-74.291484"></trkpt>
    <trkpt lat="40.422002" lon="-74.290041"></trkpt>
    <trkpt lat="40.422714" lon="-74.289426"></trkpt>
    <trkpt lat="40.424467" lon="-74.287849"></trkpt>
    <trkpt lat="40.424744" lon="-74.287606"></trkpt>
    <trkpt lat="40.424672" lon="-74.286732"></trkpt>
    <trkpt lat="40.424682" lon="-74.286332"></trkpt>
    <trkpt lat="40.424698" lon="-74.285644"></trkpt>
    <trkpt lat="40.424804" lon="-74.284140"></trkpt>
    <trkpt lat="40.424842" lon="-74.283380"></trkpt>
    <trkpt lat="40.424897" lon="-74.282421"></trkpt>
    <trkpt lat="40.424987" lon="-74.281700"></trkpt>
    <trkpt lat="40.425036" lon="-74.281337"></trkpt>
    <trkpt lat="40.425088" lon="-74.280953"></trkpt>
    <trkpt lat="40.425138" lon="-74.280580"></trkpt>
    <trkpt lat="40.425186" lon="-74.280261"></trkpt>
    <trkpt lat="40.425232" lon="-74.279968"></trkpt>
    <trkpt lat="40.425342" lon="-74.279181"></trkpt>
    <trkpt lat="40.425411" lon="-74.278503"></trkpt>
    <trkpt lat="40.425446" lon="-74.277743"></trkpt>
    <trkpt lat="40.425431" lon="-74.276711"></trkpt>
    <trkpt lat="40.425411" lon="-74.276027"></trkpt>
    <trkpt lat="40.425372" lon="-74.275062"></trkpt>
    <trkpt lat="40.425333" lon="-74.274579"></trkpt>
    <trkpt lat="40.425188" lon="-74.274250"></trkpt>
    <trkpt lat="40.424911" lon="-74.273865"></trkpt>
    <trkpt lat="40.424615" lon="-74.273438"></trkpt>
    <trkpt lat="40.424398" lon="-74.273101"></trkpt>
    <trkpt lat="40.422755" lon="-74.270706"></trkpt>
    <trkpt lat="40.422284" lon="-74.270147"></trkpt>
    <trkpt lat="40.421820" lon="-74.269648"></trkpt>
    <trkpt lat="40.421529" lon="-74.269352"></trkpt>
    <trkpt lat="40.421147" lon="-74.268972"></trkpt>
    <trkpt lat="40.418953" lon="-74.267375"></trkpt>
    <trkpt lat="40.418567" lon="-74.267045"></trkpt>
    <trkpt lat="40.417404" lon="-74.265948"></trkpt>
    <trkpt lat="40.417000" lon="-74.265606"></trkpt>
    <trkpt lat="40.416669" lon="-74.265367"></trkpt>
    <trkpt lat="40.414575" lon="-74.264138"></trkpt>
    <trkpt lat="40.414109" lon="-74.263733"></trkpt>
    <trkpt lat="40.413318" lon="-74.263028"></trkpt>
    <trkpt lat="40.413091" lon="-74.262734"></trkpt>
    <trkpt lat="40.412865" lon="-74.261934"></trkpt>
    <trkpt lat="40.412716" lon="-74.261407"></trkpt>
    <trkpt lat="40.412393" lon="-74.260225"></trkpt>
    <trkpt lat="40.412052" lon="-74.259237"></trkpt>
    <trkpt lat="40.411836" lon="-74.258697"></trkpt>
    <trkpt lat="40.411696" lon="-74.258359"></trkpt>
    <trkpt lat="40.411557" lon="-74.258051"></trkpt>
    <trkpt lat="40.411358" lon="-74.257630"></trkpt>
    <trkpt lat="40.410845" lon="-74.256519"></trkpt>
    <trkpt lat="40.410656" lon="-74.256193"></trkpt>
    <trkpt lat="40.410432" lon="-74.255904"></trkpt>
    <trkpt lat="40.409587" lon="-74.254939"></trkpt>
    <trkpt lat="40.409374" lon="-74.254682"></trkpt>
    <trkpt lat="40.409135" lon="-74.254352"></trkpt>
    <trkpt lat="40.408933" lon="-74.254123"></trkpt>
    <trkpt lat="40.408785" lon="-74.253832"></trkpt>
    <trkpt lat="40.408365" lon="-74.253150"></trkpt>
    <trkpt lat="40.408164" lon="-74.252672"></trkpt>
    <trkpt lat="40.407936" lon="-74.252004"></trkpt>
    <trkpt lat="40.407845" lon="-74.251621"></trkpt>
    <trkpt lat="40.407760" lon="-74.251248"></trkpt>
    <trkpt lat="40.407686" lon="-74.250837"></trkpt>
    <trkpt lat="40.407541" lon="-74.249872"></trkpt>
    <trkpt lat="40.407495" lon="-74.249576"></trkpt>
    <trkpt lat="40.407316" lon="-74.248413"></trkpt>
    <trkpt lat="40.407213" lon="-74.247776"></trkpt>
    <trkpt lat="40.407103" lon="-74.247329"></trkpt>
    <trkpt lat="40.407023" lon="-74.247039"></trkpt>
    <trkpt lat="40.406889" lon="-74.246639"></trkpt>
    <trkpt lat="40.406623" lon="-74.245801"></trkpt>
    <trkpt lat="40.406384" lon="-74.244718"></trkpt>
    <trkpt lat="40.406260" lon="-74.244312"></trkpt>
    <trkpt lat="40.406017" lon="-74.243777"></trkpt>
    <trkpt lat="40.405323" lon="-74.242328"></trkpt>
    <trkpt lat="40.404960" lon="-74.241573"></trkpt>
    <trkpt lat="40.404596" lon="-74.240820"></trkpt>
    <trkpt lat="40.404461" lon="-74.240525"></trkpt>
    <trkpt lat="40.404289" lon="-74.240076"></trkpt>
    <trkpt lat="40.404214" lon="-74.239541"></trkpt>
    <trkpt lat="40.404187" lon="-74.238897"></trkpt>
    <trkpt lat="40.404172" lon="-74.238145"></trkpt>
    <trkpt lat="40.404148" lon="-74.237279"></trkpt>
    <trkpt lat="40.403819" lon="-74.237329"></trkpt>
    <trkpt lat="40.403493" lon="-74.237373"></trkpt>
    <trkpt lat="40.403001" lon="-74.237443"></trkpt>
    <trkpt lat="40.402708" lon="-74.237491"></trkpt>
    <trkpt lat="40.402239" lon="-74.237578"></trkpt>
    <trkpt lat="40.401870" lon="-74.237595"></trkpt>
    <trkpt lat="40.401484" lon="-74.237468"></trkpt>
    <trkpt lat="40.400921" lon="-74.237233"></trkpt>
    <trkpt lat="40.400432" lon="-74.237034"></trkpt>
    <trkpt lat="40.399816" lon="-74.236781"></trkpt>
    <trkpt lat="40.399545" lon="-74.236677"></trkpt>
    <trkpt lat="40.399114" lon="-74.236496"></trkpt>
    <trkpt lat="40.398608" lon="-74.236294"></trkpt>
    <trkpt lat="40.398117" lon="-74.236172"></trkpt>
    <trkpt lat="40.397855" lon="-74.236187"></trkpt>
    <trkpt lat="40.397445" lon="-74.236254"></trkpt>
    <trkpt lat="40.396030" lon="-74.236523"></trkpt>
    <trkpt lat="40.395288" lon="-74.236633"></trkpt>
    <trkpt lat="40.394686" lon="-74.236708"></trkpt>
    <trkpt lat="40.394242" lon="-74.236768"></trkpt>
    <trkpt lat="40.393700" lon="-74.236849"></trkpt>
    <trkpt lat="40.393444" lon="-74.236907"></trkpt>
    <trkpt lat="40.393020" lon="-74.237055"></trkpt>
    <trkpt lat="40.392380" lon="-74.237290"></trkpt>
    <trkpt lat="40.391778" lon="-74.237487"></trkpt>
    <trkpt lat="40.391432" lon="-74.237631"></trkpt>
    <trkpt lat="40.390793" lon="-74.237870"></trkpt>
    <trkpt lat="40.390219" lon="-74.238081"></trkpt>
    <trkpt lat="40.389615" lon="-74.238307"></trkpt>
    <trkpt lat="40.388853" lon="-74.238581"></trkpt>
    <trkpt lat="40.388598" lon="-74.238673"></trkpt>
    <trkpt lat="40.388228" lon="-74.238806"></trkpt>
    <trkpt lat="40.388000" lon="-74.238888"></trkpt>
    <trkpt lat="40.387741" lon="-74.238981"></trkpt>
    <trkpt lat="40.387340" lon="-74.239129"></trkpt>
    <trkpt lat="40.387078" lon="-74.239236"></trkpt>
    <trkpt lat="40.386321" lon="-74.239608"></trkpt>
    <trkpt lat="40.385909" lon="-74.239816"></trkpt>
    <trkpt lat="40.385670" lon="-74.239939"></trkpt>
    <trkpt lat="40.385443" lon="-74.240043"></trkpt>
    <trkpt lat="40.385044" lon="-74.240238"></trkpt>
    <trkpt lat="40.385181" lon="-74.239904"></trkpt>
    <trkpt lat="40.385616" lon="-74.238968"></trkpt>
    <trkpt lat="40.386348" lon="-74.237399"></trkpt>
    <trkpt lat="40.386652" lon="-74.236753"></trkpt>
    <trkpt lat="40.386953" lon="-74.236110"></trkpt>
    <trkpt lat="40.387133" lon="-74.235718"></trkpt>
    <trkpt lat="40.387989" lon="-74.234313"></trkpt>
    <trkpt lat="40.387270" lon="-74.234113"></trkpt>
    <trkpt lat="40.386674" lon="-74.233956"></trkpt>
    <trkpt lat="40.386376" lon="-74.233781"></trkpt>
    <trkpt lat="40.385467" lon="-74.233027"></trkpt>
    <trkpt lat="40.384985" lon="-74.232655"></trkpt>
    <trkpt lat="40.384598" lon="-74.232291"></trkpt>
    <trkpt lat="40.384261" lon="-74.231907"></trkpt>
    <trkpt lat="40.383508" lon="-74.230791"></trkpt>
    <trkpt lat="40.383256" lon="-74.230493"></trkpt>
    <trkpt lat="40.382602" lon="-74.229761"></trkpt>
    <trkpt lat="40.382421" lon="-74.229577"></trkpt>
    <trkpt lat="40.381821" lon="-74.228837"></trkpt>
    <trkpt lat="40.381572" lon="-74.228473"></trkpt>
    <trkpt lat="40.381165" lon="-74.227978"></trkpt>
    <trkpt lat="40.380844" lon="-74.227690"></trkpt>
    <trkpt lat="40.380367" lon="-74.227422"></trkpt>
    <trkpt lat="40.380085" lon="-74.227153"></trkpt>
    <trkpt lat="40.379681" lon="-74.226019"></trkpt>
    <trkpt lat="40.379531" lon="-74.225717"></trkpt>
    <trkpt lat="40.379000" lon="-74.225287"></trkpt>
    <trkpt lat="40.378541" lon="-74.224997"></trkpt>
    <trkpt lat="40.378046" lon="-74.224549"></trkpt>
    <trkpt lat="40.377678" lon="-74.224053"></trkpt>
    <trkpt lat="40.377237" lon="-74.223434"></trkpt>
    <trkpt lat="40.376876" lon="-74.222883"></trkpt>
    <trkpt lat="40.376542" lon="-74.222299"></trkpt>
    <trkpt lat="40.376432" lon="-74.222037"></trkpt>
    <trkpt lat="40.376297" lon="-74.221219"></trkpt>
    <trkpt lat="40.376217" lon="-74.220859"></trkpt>
    <trkpt lat="40.376035" lon="-74.220328"></trkpt>
    <trkpt lat="40.375627" lon="-74.219354"></trkpt>
    <trkpt lat="40.375548" lon="-74.218901"></trkpt>
    <trkpt lat="40.375568" lon="-74.218442"></trkpt>
    <trkpt lat="40.375746" lon="-74.217903"></trkpt>
    <trkpt lat="40.375847" lon="-74.217470"></trkpt>
    <trkpt lat="40.375838" lon="-74.217041"></trkpt>
    <trkpt lat="40.375333" lon="-74.217119"></trkpt>
    <trkpt lat="40.374571" lon="-74.216956"></trkpt>
    <trkpt lat="40.374247" lon="-74.216831"></trkpt>
    <trkpt lat="40.374040" lon="-74.216709"></trkpt>
    <trkpt lat="40.373805" lon="-74.216495"></trkpt>
    <trkpt lat="40.373440" lon="-74.215847"></trkpt>
    <trkpt lat="40.373159" lon="-74.215369"></trkpt>
    <trkpt lat="40.372890" lon="-74.215131"></trkpt>
    <trkpt lat="40.372512" lon="-74.214970"></trkpt>
    <trkpt lat="40.371912" lon="-74.214659"></trkpt>
    <trkpt lat="40.371630" lon="-74.214586"></trkpt>
    <trkpt lat="40.371338" lon="-74.214610"></trkpt>
    <trkpt lat="40.371109" lon="-74.214669"></trkpt>
    <trkpt lat="40.370882" lon="-74.214778"></trkpt>
    <trkpt lat="40.370483" lon="-74.215055"></trkpt>
    <trkpt lat="40.370130" lon="-74.215118"></trkpt>
    <trkpt lat="40.369535" lon="-74.215077"></trkpt>
    <trkpt lat="40.369290" lon="-74.215079"></trkpt>
    <trkpt lat="40.368547" lon="-74.215293"></trkpt>
    <trkpt lat="40.368234" lon="-74.215307"></trkpt>
    <trkpt lat="40.367970" lon="-74.215235"></trkpt>
    <trkpt lat="40.367752" lon="-74.215889"></trkpt>
    <trkpt lat="40.367361" lon="-74.216949"></trkpt>
    <trkpt lat="40.367164" lon="-74.217469"></trkpt>
    <trkpt lat="40.366182" lon="-74.217193"></trkpt>
    <trkpt lat="40.367164" lon="-74.217469"></trkpt>
    <trkpt lat="40.366507" lon="-74.219282"></trkpt>
    <trkpt lat="40.366349" lon="-74.219710"></trkpt>
    <trkpt lat="40.366201" lon="-74.219974"></trkpt>
    <trkpt lat="40.365594" lon="-74.220483"></trkpt>
    <trkpt lat="40.365024" lon="-74.220953"></trkpt>
    <trkpt lat="40.364179" lon="-74.221754"></trkpt>
    <trkpt lat="40.363975" lon="-74.221975"></trkpt>
    <trkpt lat="40.363701" lon="-74.222331"></trkpt>
    <trkpt lat="40.363222" lon="-74.223226"></trkpt>
    <trkpt lat="40.362126" lon="-74.225321"></trkpt>
    <trkpt lat="40.361049" lon="-74.227357"></trkpt>
    <trkpt lat="40.360595" lon="-74.228248"></trkpt>
    <trkpt lat="40.360183" lon="-74.228987"></trkpt>
    <trkpt lat="40.359961" lon="-74.229410"></trkpt>
    <trkpt lat="40.359780" lon="-74.229755"></trkpt>
    <trkpt lat="40.359303" lon="-74.230666"></trkpt>
    <trkpt lat="40.358469" lon="-74.232260"></trkpt>
    <trkpt lat="40.357076" lon="-74.234902"></trkpt>
    <trkpt lat="40.356817" lon="-74.235364"></trkpt>
    <trkpt lat="40.356438" lon="-74.235961"></trkpt>
    <trkpt lat="40.356218" lon="-74.236209"></trkpt>
    <trkpt lat="40.355758" lon="-74.236504"></trkpt>
    <trkpt lat="40.355430" lon="-74.236817"></trkpt>
    <trkpt lat="40.353210" lon="-74.239014"></trkpt>
    <trkpt lat="40.352954" lon="-74.239284"></trkpt>
    <trkpt lat="40.352377" lon="-74.240000"></trkpt>
    <trkpt lat="40.351840" lon="-74.240697"></trkpt>
    <trkpt lat="40.351632" lon="-74.241057"></trkpt>
    <trkpt lat="40.350402" lon="-74.243820"></trkpt>
    <trkpt lat="40.349576" lon="-74.245703"></trkpt>
    <trkpt lat="40.349070" lon="-74.246778"></trkpt>
    <trkpt lat="40.348573" lon="-74.247831"></trkpt>
    <trkpt lat="40.347928" lon="-74.249169"></trkpt>
    <trkpt lat="40.347662" lon="-74.249752"></trkpt>
    <trkpt lat="40.347539" lon="-74.250065"></trkpt>
    <trkpt lat="40.346028" lon="-74.249604"></trkpt>
    <trkpt lat="40.344117" lon="-74.249029"></trkpt>
    <trkpt lat="40.341768" lon="-74.248294"></trkpt>
    <trkpt lat="40.341223" lon="-74.248123"></trkpt>
    <trkpt lat="40.340283" lon="-74.247829"></trkpt>
    <trkpt lat="40.339951" lon="-74.247727"></trkpt>
    <trkpt lat="40.338685" lon="-74.247349"></trkpt>
    <trkpt lat="40.334256" lon="-74.246125"></trkpt>
    <trkpt lat="40.333776" lon="-74.246000"></trkpt>
    <trkpt lat="40.333488" lon="-74.245938"></trkpt>
    <trkpt lat="40.332945" lon="-74.245775"></trkpt>
    <trkpt lat="40.332697" lon="-74.245708"></trkpt>
    <trkpt lat="40.332421" lon="-74.245638"></trkpt>
    <trkpt lat="40.332117" lon="-74.245561"></trkpt>
    <trkpt lat="40.331727" lon="-74.245462"></trkpt>
    <trkpt lat="40.331303" lon="-74.245361"></trkpt>
    <trkpt lat="40.330290" lon="-74.245153"></trkpt>
    <trkpt lat="40.330024" lon="-74.245117"></trkpt>
    <trkpt lat="40.328732" lon="-74.244931"></trkpt>
    <trkpt lat="40.328147" lon="-74.244847"></trkpt>
    <trkpt lat="40.326561" lon="-74.244638"></trkpt>
    <trkpt lat="40.326187" lon="-74.244600"></trkpt>
    <trkpt lat="40.325283" lon="-74.244475"></trkpt>
    <trkpt lat="40.324931" lon="-74.244441"></trkpt>
    <trkpt lat="40.324337" lon="-74.244379"></trkpt>
    <trkpt lat="40.322808" lon="-74.244169"></trkpt>
    <trkpt lat="40.322573" lon="-74.244148"></trkpt>
    <trkpt lat="40.322225" lon="-74.244162"></trkpt>
    <trkpt lat="40.321978" lon="-74.244203"></trkpt>
    <trkpt lat="40.321441" lon="-74.244420"></trkpt>
    <trkpt lat="40.320550" lon="-74.244938"></trkpt>
    <trkpt lat="40.320342" lon="-74.245059"></trkpt>
    <trkpt lat="40.320173" lon="-74.244586"></trkpt>
    <trkpt lat="40.319984" lon="-74.243342"></trkpt>
    <trkpt lat="40.319890" lon="-74.242786"></trkpt>
    <trkpt lat="40.319749" lon="-74.242105"></trkpt>
    <trkpt lat="40.319250" lon="-74.239947"></trkpt>
    <trkpt lat="40.319079" lon="-74.239212"></trkpt>
    <trkpt lat="40.319449" lon="-74.239069"></trkpt>
    <trkpt lat="40.320072" lon="-74.239132"></trkpt>
    <trkpt lat="40.320330" lon="-74.239101"></trkpt>
    <trkpt lat="40.320731" lon="-74.238805"></trkpt>
    <trkpt lat="40.320882" lon="-74.238519"></trkpt>
    <trkpt lat="40.321283" lon="-74.236508"></trkpt>
    <trkpt lat="40.321314" lon="-74.236024"></trkpt>
    <trkpt lat="40.321261" lon="-74.235182"></trkpt>
    <trkpt lat="40.321204" lon="-74.234874"></trkpt>
    <trkpt lat="40.321087" lon="-74.234451"></trkpt>
    <trkpt lat="40.320825" lon="-74.233745"></trkpt>
    <trkpt lat="40.320069" lon="-74.234259"></trkpt>
    <trkpt lat="40.319673" lon="-74.234664"></trkpt>
    <trkpt lat="40.319340" lon="-74.234136"></trkpt>
    <trkpt lat="40.319222" lon="-74.233810"></trkpt>
    <trkpt lat="40.319179" lon="-74.233432"></trkpt>
    <trkpt lat="40.319258" lon="-74.232663"></trkpt>
    <trkpt lat="40.319420" lon="-74.231327"></trkpt>
    <trkpt lat="40.319464" lon="-74.230670"></trkpt>
    <trkpt lat="40.318615" lon="-74.230573"></trkpt>
    <trkpt lat="40.317861" lon="-74.230726"></trkpt>
    <trkpt lat="40.317396" lon="-74.230709"></trkpt>
    <trkpt lat="40.316730" lon="-74.230467"></trkpt>
    <trkpt lat="40.316432" lon="-74.230440"></trkpt>
    <trkpt lat="40.316144" lon="-74.230503"></trkpt>
    <trkpt lat="40.315879" lon="-74.230673"></trkpt>
    <trkpt lat="40.315532" lon="-74.230989"></trkpt>
    <trkpt lat="40.315282" lon="-74.231136"></trkpt>
    <trkpt lat="40.314578" lon="-74.231405"></trkpt>
    <trkpt lat="40.315010" lon="-74.233385"></trkpt>
    <trkpt lat="40.314824" lon="-74.234642"></trkpt>
    <trkpt lat="40.314740" lon="-74.235122"></trkpt>
    <trkpt lat="40.314641" lon="-74.235701"></trkpt>
    <trkpt lat="40.314499" lon="-74.236487"></trkpt>
    <trkpt lat="40.314193" lon="-74.238226"></trkpt>
    <trkpt lat="40.314112" lon="-74.238686"></trkpt>
    <trkpt lat="40.313973" lon="-74.239470"></trkpt>
    <trkpt lat="40.313819" lon="-74.240325"></trkpt>
    <trkpt lat="40.313787" lon="-74.240701"></trkpt>
    <trkpt lat="40.313960" lon="-74.241372"></trkpt>
    <trkpt lat="40.314066" lon="-74.241678"></trkpt>
    <trkpt lat="40.314570" lon="-74.243123"></trkpt>
    <trkpt lat="40.314694" lon="-74.243479"></trkpt>
    <trkpt lat="40.314818" lon="-74.243835"></trkpt>
    <trkpt lat="40.315014" lon="-74.244387"></trkpt>
    <trkpt lat="40.315656" lon="-74.246260"></trkpt>
    <trkpt lat="40.316114" lon="-74.247546"></trkpt>
    <trkpt lat="40.315861" lon="-74.247709"></trkpt>
    <trkpt lat="40.315638" lon="-74.247846"></trkpt>
    <trkpt lat="40.315184" lon="-74.248126"></trkpt>
    <trkpt lat="40.314724" lon="-74.248409"></trkpt>
    <trkpt lat="40.314942" lon="-74.248936"></trkpt>
    <trkpt lat="40.315101" lon="-74.249447"></trkpt>
    <trkpt lat="40.315349" lon="-74.250243"></trkpt>
    <trkpt lat="40.315695" lon="-74.251368"></trkpt>
    <trkpt lat="40.316006" lon="-74.252594"></trkpt>
    <trkpt lat="40.316186" lon="-74.253313"></trkpt>
    <trkpt lat="40.316387" lon="-74.254123"></trkpt>
    <trkpt lat="40.316567" lon="-74.254843"></trkpt>
    <trkpt lat="40.316716" lon="-74.255447"></trkpt>
    <trkpt lat="40.316780" lon="-74.256190"></trkpt>
    <trkpt lat="40.316827" lon="-74.256799"></trkpt>
    <trkpt lat="40.316914" lon="-74.257848"></trkpt>
    <trkpt lat="40.316965" lon="-74.258402"></trkpt>
    <trkpt lat="40.317166" lon="-74.260723"></trkpt>
    <trkpt lat="40.317196" lon="-74.261054"></trkpt>
    <trkpt lat="40.317283" lon="-74.262003"></trkpt>
    <trkpt lat="40.318945" lon="-74.263217"></trkpt>
    <trkpt lat="40.321055" lon="-74.264771"></trkpt>
    <trkpt lat="40.322234" lon="-74.265602"></trkpt>
    <trkpt lat="40.323636" lon="-74.266612"></trkpt>
    <trkpt lat="40.323999" lon="-74.266862"></trkpt>
    <trkpt lat="40.324491" lon="-74.267010"></trkpt>
    <trkpt lat="40.324294" lon="-74.267318"></trkpt>
    <trkpt lat="40.323760" lon="-74.268383"></trkpt>
    <trkpt lat="40.323415" lon="-74.269082"></trkpt>
    <trkpt lat="40.323034" lon="-74.269842"></trkpt>
    <trkpt lat="40.322291" lon="-74.271351"></trkpt>
    <trkpt lat="40.321880" lon="-74.272177"></trkpt>
    <trkpt lat="40.321235" lon="-74.273459"></trkpt>
    <trkpt lat="40.320867" lon="-74.274180"></trkpt>
    <trkpt lat="40.320595" lon="-74.274849"></trkpt>
    <trkpt lat="40.319982" lon="-74.276281"></trkpt>
    <trkpt lat="40.319371" lon="-74.277713"></trkpt>
    <trkpt lat="40.319121" lon="-74.278336"></trkpt>
    <trkpt lat="40.318590" lon="-74.279732"></trkpt>
    <trkpt lat="40.318108" lon="-74.280979"></trkpt>
    <trkpt lat="40.317895" lon="-74.281523"></trkpt>
    <trkpt lat="40.316585" lon="-74.284319"></trkpt>
    <trkpt lat="40.316044" lon="-74.285484"></trkpt>
    <trkpt lat="40.315732" lon="-74.286072"></trkpt>
    <trkpt lat="40.315330" lon="-74.286632"></trkpt>
    <trkpt lat="40.315025" lon="-74.287009"></trkpt>
    <trkpt lat="40.314830" lon="-74.287249"></trkpt>
    <trkpt lat="40.313937" lon="-74.288362"></trkpt>
    <trkpt lat="40.313686" lon="-74.288657"></trkpt>
    <trkpt lat="40.313458" lon="-74.288991"></trkpt>
    <trkpt lat="40.313094" lon="-74.289867"></trkpt>
    <trkpt lat="40.312914" lon="-74.290314"></trkpt>
    <trkpt lat="40.312776" lon="-74.290658"></trkpt>
    <trkpt lat="40.312644" lon="-74.290987"></trkpt>
    <trkpt lat="40.311371" lon="-74.294161"></trkpt>
    <trkpt lat="40.311205" lon="-74.294472"></trkpt>
    <trkpt lat="40.310806" lon="-74.295128"></trkpt>
    <trkpt lat="40.310653" lon="-74.295392"></trkpt>
    <trkpt lat="40.309977" lon="-74.296371"></trkpt>
    <trkpt lat="40.309394" lon="-74.297229"></trkpt>
    <trkpt lat="40.309096" lon="-74.297551"></trkpt>
    <trkpt lat="40.308851" lon="-74.297743"></trkpt>
    <trkpt lat="40.308607" lon="-74.297882"></trkpt>
    <trkpt lat="40.308340" lon="-74.297988"></trkpt>
    <trkpt lat="40.308047" lon="-74.298050"></trkpt>
    <trkpt lat="40.306566" lon="-74.298009"></trkpt>
    <trkpt lat="40.305953" lon="-74.297993"></trkpt>
    <trkpt lat="40.303758" lon="-74.297896"></trkpt>
    <trkpt lat="40.303962" lon="-74.294307"></trkpt>
    <trkpt lat="40.303618" lon="-74.294280"></trkpt>
    <trkpt lat="40.303327" lon="-74.294340"></trkpt>
    <trkpt lat="40.302637" lon="-74.294954"></trkpt>
    <trkpt lat="40.302422" lon="-74.295122"></trkpt>
    <trkpt lat="40.301908" lon="-74.295320"></trkpt>
    <trkpt lat="40.301331" lon="-74.295308"></trkpt>
    <trkpt lat="40.301071" lon="-74.295345"></trkpt>
    <trkpt lat="40.300640" lon="-74.295630"></trkpt>
    <trkpt lat="40.300331" lon="-74.295182"></trkpt>
    <trkpt lat="40.300090" lon="-74.294963"></trkpt>
    <trkpt lat="40.299363" lon="-74.294557"></trkpt>
    <trkpt lat="40.298128" lon="-74.293879"></trkpt>
    <trkpt lat="40.297861" lon="-74.293842"></trkpt>
    <trkpt lat="40.297604" lon="-74.294011"></trkpt>
    <trkpt lat="40.297128" lon="-74.295081"></trkpt>
    <trkpt lat="40.296802" lon="-74.295850"></trkpt>
    <trkpt lat="40.296732" lon="-74.296142"></trkpt>
    <trkpt lat="40.296722" lon="-74.296561"></trkpt>
    <trkpt lat="40.296837" lon="-74.297208"></trkpt>
    <trkpt lat="40.296913" lon="-74.297629"></trkpt>
    <trkpt lat="40.297082" lon="-74.298113"></trkpt>
    <trkpt lat="40.297350" lon="-74.298524"></trkpt>
    <trkpt lat="40.297517" lon="-74.298920"></trkpt>
    <trkpt lat="40.297657" lon="-74.299521"></trkpt>
    <trkpt lat="40.297886" lon="-74.300583"></trkpt>
    <trkpt lat="40.298031" lon="-74.300839"></trkpt>
    <trkpt lat="40.299503" lon="-74.301686"></trkpt>
    <trkpt lat="40.299387" lon="-74.302158"></trkpt>
    <trkpt lat="40.299446" lon="-74.302706"></trkpt>
    <trkpt lat="40.300129" lon="-74.303025"></trkpt>
    <trkpt lat="40.300828" lon="-74.303276"></trkpt>
    <trkpt lat="40.301102" lon="-74.303357"></trkpt>
    <trkpt lat="40.301549" lon="-74.303471"></trkpt>
    <trkpt lat="40.301833" lon="-74.303355"></trkpt>
    <trkpt lat="40.302395" lon="-74.302914"></trkpt>
    <trkpt lat="40.302682" lon="-74.303017"></trkpt>
    <trkpt lat="40.302551" lon="-74.303621"></trkpt>
    <trkpt lat="40.302435" lon="-74.304168"></trkpt>
    <trkpt lat="40.302344" lon="-74.304679"></trkpt>
    <trkpt lat="40.302238" lon="-74.305194"></trkpt>
    <trkpt lat="40.302172" lon="-74.305529"></trkpt>
    <trkpt lat="40.302054" lon="-74.306091"></trkpt>
    <trkpt lat="40.301940" lon="-74.306651"></trkpt>
    <trkpt lat="40.301822" lon="-74.307231"></trkpt>
    <trkpt lat="40.301701" lon="-74.307647"></trkpt>
    <trkpt lat="40.301471" lon="-74.308111"></trkpt>
    <trkpt lat="40.301204" lon="-74.308577"></trkpt>
    <trkpt lat="40.301025" lon="-74.308870"></trkpt>
    <trkpt lat="40.300651" lon="-74.309527"></trkpt>
    <trkpt lat="40.300158" lon="-74.310419"></trkpt>
    <trkpt lat="40.299948" lon="-74.310856"></trkpt>
    <trkpt lat="40.299858" lon="-74.311155"></trkpt>
    <trkpt lat="40.299794" lon="-74.311675"></trkpt>
    <trkpt lat="40.299685" lon="-74.313295"></trkpt>
    <trkpt lat="40.299593" lon="-74.314533"></trkpt>
    <trkpt lat="40.299523" lon="-74.315459"></trkpt>
    <trkpt lat="40.299471" lon="-74.316307"></trkpt>
    <trkpt lat="40.299454" lon="-74.316640"></trkpt>
    <trkpt lat="40.299432" lon="-74.317094"></trkpt>
    <trkpt lat="40.299401" lon="-74.317684"></trkpt>
    <trkpt lat="40.299389" lon="-74.318100"></trkpt>
    <trkpt lat="40.299351" lon="-74.319173"></trkpt>
    <trkpt lat="40.299334" lon="-74.319614"></trkpt>
    <trkpt lat="40.301228" lon="-74.319597"></trkpt>
    <trkpt lat="40.302643" lon="-74.319578"></trkpt>
    <trkpt lat="40.303312" lon="-74.319558"></trkpt>
    <trkpt lat="40.304461" lon="-74.319538"></trkpt>
    <trkpt lat="40.304700" lon="-74.319573"></trkpt>
    <trkpt lat="40.304965" lon="-74.319738"></trkpt>
    <trkpt lat="40.305641" lon="-74.320299"></trkpt>
    <trkpt lat="40.305948" lon="-74.320571"></trkpt>
    <trkpt lat="40.307778" lon="-74.322121"></trkpt>
    <trkpt lat="40.308671" lon="-74.322882"></trkpt>
    <trkpt lat="40.308242" lon="-74.323701"></trkpt>
    <trkpt lat="40.307869" lon="-74.324487"></trkpt>
    <trkpt lat="40.307624" lon="-74.325004"></trkpt>
    <trkpt lat="40.307234" lon="-74.325829"></trkpt>
    <trkpt lat="40.307047" lon="-74.326223"></trkpt>
    <trkpt lat="40.306463" lon="-74.327456"></trkpt>
    <trkpt lat="40.306036" lon="-74.328358"></trkpt>
    <trkpt lat="40.305746" lon="-74.328973"></trkpt>
    <trkpt lat="40.305616" lon="-74.329272"></trkpt>
    <trkpt lat="40.305336" lon="-74.329840"></trkpt>
    <trkpt lat="40.304336" lon="-74.331950"></trkpt>
    <trkpt lat="40.303689" lon="-74.333324"></trkpt>
    <trkpt lat="40.303465" lon="-74.333787"></trkpt>
    <trkpt lat="40.303106" lon="-74.334550"></trkpt>
    <trkpt lat="40.302975" lon="-74.334949"></trkpt>
    <trkpt lat="40.302883" lon="-74.335346"></trkpt>
    <trkpt lat="40.302789" lon="-74.337482"></trkpt>
    <trkpt lat="40.302777" lon="-74.337872"></trkpt>
    <trkpt lat="40.302751" lon="-74.338796"></trkpt>
    <trkpt lat="40.302740" lon="-74.339164"></trkpt>
    <trkpt lat="40.302717" lon="-74.339895"></trkpt>
    <trkpt lat="40.302724" lon="-74.340429"></trkpt>
    <trkpt lat="40.302834" lon="-74.341670"></trkpt>
    <trkpt lat="40.302871" lon="-74.342030"></trkpt>
    <trkpt lat="40.303509" lon="-74.341921"></trkpt>
    <trkpt lat="40.303991" lon="-74.341647"></trkpt>
    <trkpt lat="40.304347" lon="-74.341566"></trkpt>
    <trkpt lat="40.306454" lon="-74.341761"></trkpt>
    <trkpt lat="40.307469" lon="-74.341852"></trkpt>
    <trkpt lat="40.308588" lon="-74.341951"></trkpt>
    <trkpt lat="40.310533" lon="-74.342088"></trkpt>
    <trkpt lat="40.311291" lon="-74.342156"></trkpt>
    <trkpt lat="40.312506" lon="-74.342265"></trkpt>
    <trkpt lat="40.312802" lon="-74.342386"></trkpt>
    <trkpt lat="40.313063" lon="-74.342658"></trkpt>
    <trkpt lat="40.313410" lon="-74.343661"></trkpt>
    <trkpt lat="40.313603" lon="-74.343994"></trkpt>
    <trkpt lat="40.313948" lon="-74.344266"></trkpt>
    <trkpt lat="40.314392" lon="-74.344370"></trkpt>
    <trkpt lat="40.314257" lon="-74.345472"></trkpt>
    <trkpt lat="40.314215" lon="-74.345925"></trkpt>
    <trkpt lat="40.314257" lon="-74.345472"></trkpt>
    <trkpt lat="40.314392" lon="-74.344370"></trkpt>
    <trkpt lat="40.314410" lon="-74.344069"></trkpt>
    <trkpt lat="40.314360" lon="-74.341924"></trkpt>
    <trkpt lat="40.314268" lon="-74.341617"></trkpt>
    <trkpt lat="40.313693" lon="-74.340697"></trkpt>
    <trkpt lat="40.313464" lon="-74.340671"></trkpt>
    <trkpt lat="40.310619" lon="-74.340504"></trkpt>
    <trkpt lat="40.308950" lon="-74.340350"></trkpt>
    <trkpt lat="40.308612" lon="-74.339980"></trkpt>
    <trkpt lat="40.308332" lon="-74.340187"></trkpt>
    <trkpt lat="40.308011" lon="-74.340248"></trkpt>
    <trkpt lat="40.306539" lon="-74.340118"></trkpt>
    <trkpt lat="40.305128" lon="-74.339987"></trkpt>
    <trkpt lat="40.304421" lon="-74.340038"></trkpt>
    <trkpt lat="40.303924" lon="-74.339997"></trkpt>
    <trkpt lat="40.302717" lon="-74.339895"></trkpt>
    <trkpt lat="40.302724" lon="-74.340429"></trkpt>
    <trkpt lat="40.302834" lon="-74.341670"></trkpt>
    <trkpt lat="40.302871" lon="-74.342030"></trkpt>
    <trkpt lat="40.303053" lon="-74.344098"></trkpt>
    <trkpt lat="40.303166" lon="-74.345375"></trkpt>
    <trkpt lat="40.303283" lon="-74.346945"></trkpt>
    <trkpt lat="40.303380" lon="-74.348168"></trkpt>
    <trkpt lat="40.303426" lon="-74.348773"></trkpt>
    <trkpt lat="40.303403" lon="-74.349287"></trkpt>
    <trkpt lat="40.303204" lon="-74.350444"></trkpt>
    <trkpt lat="40.303152" lon="-74.350747"></trkpt>
    <trkpt lat="40.303078" lon="-74.351188"></trkpt>
    <trkpt lat="40.302746" lon="-74.353236"></trkpt>
    <trkpt lat="40.302582" lon="-74.354223"></trkpt>
    <trkpt lat="40.302512" lon="-74.354643"></trkpt>
    <trkpt lat="40.302436" lon="-74.355101"></trkpt>
    <trkpt lat="40.302139" lon="-74.356725"></trkpt>
    <trkpt lat="40.302797" lon="-74.356986"></trkpt>
    <trkpt lat="40.303226" lon="-74.357164"></trkpt>
    <trkpt lat="40.303575" lon="-74.357315"></trkpt>
    <trkpt lat="40.304265" lon="-74.357613"></trkpt>
    <trkpt lat="40.304874" lon="-74.357885"></trkpt>
    <trkpt lat="40.305491" lon="-74.358142"></trkpt>
    <trkpt lat="40.305778" lon="-74.358261"></trkpt>
    <trkpt lat="40.306206" lon="-74.358438"></trkpt>
    <trkpt lat="40.306525" lon="-74.358572"></trkpt>
    <trkpt lat="40.306821" lon="-74.358700"></trkpt>
    <trkpt lat="40.307083" lon="-74.358813"></trkpt>
    <trkpt lat="40.307495" lon="-74.358990"></trkpt>
    <trkpt lat="40.307936" lon="-74.359177"></trkpt>
    <trkpt lat="40.309384" lon="-74.359791"></trkpt>
    <trkpt lat="40.309862" lon="-74.359989"></trkpt>
    <trkpt lat="40.310634" lon="-74.360321"></trkpt>
    <trkpt lat="40.311171" lon="-74.360549"></trkpt>
    <trkpt lat="40.311608" lon="-74.360732"></trkpt>
    <trkpt lat="40.311828" lon="-74.360824"></trkpt>
    <trkpt lat="40.312509" lon="-74.361109"></trkpt>
    <trkpt lat="40.312769" lon="-74.361218"></trkpt>
    <trkpt lat="40.313113" lon="-74.361354"></trkpt>
    <trkpt lat="40.313889" lon="-74.361667"></trkpt>
    <trkpt lat="40.314200" lon="-74.361793"></trkpt>
    <trkpt lat="40.316009" lon="-74.362530"></trkpt>
    <trkpt lat="40.316353" lon="-74.362640"></trkpt>
    <trkpt lat="40.316606" lon="-74.362691"></trkpt>
    <trkpt lat="40.316877" lon="-74.362691"></trkpt>
    <trkpt lat="40.317753" lon="-74.362601"></trkpt>
    <trkpt lat="40.318545" lon="-74.362479"></trkpt>
    <trkpt lat="40.318798" lon="-74.362440"></trkpt>
    <trkpt lat="40.319672" lon="-74.362225"></trkpt>
    <trkpt lat="40.320174" lon="-74.362101"></trkpt>
    <trkpt lat="40.320455" lon="-74.362026"></trkpt>
    <trkpt lat="40.321151" lon="-74.361841"></trkpt>
    <trkpt lat="40.322186" lon="-74.361582"></trkpt>
    <trkpt lat="40.323152" lon="-74.361367"></trkpt>
    <trkpt lat="40.324227" lon="-74.361114"></trkpt>
    <trkpt lat="40.324512" lon="-74.361063"></trkpt>
    <trkpt lat="40.325134" lon="-74.360966"></trkpt>
    <trkpt lat="40.325641" lon="-74.361011"></trkpt>
    <trkpt lat="40.325889" lon="-74.361075"></trkpt>
    <trkpt lat="40.326810" lon="-74.361433"></trkpt>
    <trkpt lat="40.327109" lon="-74.361519"></trkpt>
    <trkpt lat="40.327631" lon="-74.361571"></trkpt>
    <trkpt lat="40.328046" lon="-74.361559"></trkpt>
    <trkpt lat="40.328359" lon="-74.362557"></trkpt>
    <trkpt lat="40.328577" lon="-74.363342"></trkpt>
    <trkpt lat="40.328723" lon="-74.363871"></trkpt>
    <trkpt lat="40.328977" lon="-74.364715"></trkpt>
    <trkpt lat="40.329084" lon="-74.365133"></trkpt>
    <trkpt lat="40.329351" lon="-74.366072"></trkpt>
    <trkpt lat="40.329499" lon="-74.366716"></trkpt>
    <trkpt lat="40.329572" lon="-74.367202"></trkpt>
    <trkpt lat="40.329441" lon="-74.368939"></trkpt>
    <trkpt lat="40.329377" lon="-74.369609"></trkpt>
    <trkpt lat="40.329238" lon="-74.371036"></trkpt>
    <trkpt lat="40.329120" lon="-74.372464"></trkpt>
    <trkpt lat="40.328778" lon="-74.376036"></trkpt>
    <trkpt lat="40.329180" lon="-74.376087"></trkpt>
    <trkpt lat="40.329408" lon="-74.376149"></trkpt>
    <trkpt lat="40.330181" lon="-74.376431"></trkpt>
    <trkpt lat="40.333057" lon="-74.377458"></trkpt>
    <trkpt lat="40.333447" lon="-74.377595"></trkpt>
    <trkpt lat="40.334447" lon="-74.377947"></trkpt>
    <trkpt lat="40.336441" lon="-74.378718"></trkpt>
    <trkpt lat="40.337872" lon="-74.379210"></trkpt>
    <trkpt lat="40.338326" lon="-74.379366"></trkpt>
    <trkpt lat="40.338639" lon="-74.379474"></trkpt>
    <trkpt lat="40.339509" lon="-74.379774"></trkpt>
    <trkpt lat="40.339974" lon="-74.379937"></trkpt>
    <trkpt lat="40.340196" lon="-74.380040"></trkpt>
    <trkpt lat="40.340841" lon="-74.380219"></trkpt>
    <trkpt lat="40.341152" lon="-74.380329"></trkpt>
    <trkpt lat="40.341456" lon="-74.380465"></trkpt>
    <trkpt lat="40.343569" lon="-74.381472"></trkpt>
    <trkpt lat="40.343842" lon="-74.381603"></trkpt>
    <trkpt lat="40.344256" lon="-74.381802"></trkpt>
    <trkpt lat="40.344650" lon="-74.381965"></trkpt>
    <trkpt lat="40.345216" lon="-74.382221"></trkpt>
    <trkpt lat="40.347162" lon="-74.383101"></trkpt>
    <trkpt lat="40.347234" lon="-74.382766"></trkpt>
    <trkpt lat="40.346827" lon="-74.381453"></trkpt>
    <trkpt lat="40.346788" lon="-74.380989"></trkpt>
    <trkpt lat="40.346959" lon="-74.380208"></trkpt>
    <trkpt lat="40.347085" lon="-74.379935"></trkpt>
    <trkpt lat="40.347320" lon="-74.379692"></trkpt>
    <trkpt lat="40.347700" lon="-74.379453"></trkpt>
    <trkpt lat="40.350159" lon="-74.377981"></trkpt>
    <trkpt lat="40.350710" lon="-74.377534"></trkpt>
    <trkpt lat="40.351587" lon="-74.377009"></trkpt>
    <trkpt lat="40.351345" lon="-74.376307"></trkpt>
    <trkpt lat="40.350846" lon="-74.375651"></trkpt>
    <trkpt lat="40.350495" lon="-74.375884"></trkpt>
    <trkpt lat="40.349299" lon="-74.376755"></trkpt>
    <trkpt lat="40.349084" lon="-74.376859"></trkpt>
    <trkpt lat="40.348777" lon="-74.376877"></trkpt>
    <trkpt lat="40.348168" lon="-74.376694"></trkpt>
    <trkpt lat="40.347869" lon="-74.376694"></trkpt>
    <trkpt lat="40.347551" lon="-74.376878"></trkpt>
    <trkpt lat="40.346995" lon="-74.377282"></trkpt>
    <trkpt lat="40.346361" lon="-74.377652"></trkpt>
    <trkpt lat="40.346958" lon="-74.379391"></trkpt>
    <trkpt lat="40.347214" lon="-74.379802"></trkpt>
    <trkpt lat="40.347016" lon="-74.380052"></trkpt>
    <trkpt lat="40.346788" lon="-74.380989"></trkpt>
    <trkpt lat="40.346827" lon="-74.381453"></trkpt>
    <trkpt lat="40.347217" lon="-74.382545"></trkpt>
    <trkpt lat="40.347162" lon="-74.383101"></trkpt>
    <trkpt lat="40.350463" lon="-74.384424"></trkpt>
    <trkpt lat="40.350773" lon="-74.384559"></trkpt>
    <trkpt lat="40.351435" lon="-74.384858"></trkpt>
    <trkpt lat="40.351766" lon="-74.385007"></trkpt>
    <trkpt lat="40.352343" lon="-74.385245"></trkpt>
    <trkpt lat="40.352809" lon="-74.385479"></trkpt>
    <trkpt lat="40.353397" lon="-74.385714"></trkpt>
    <trkpt lat="40.354192" lon="-74.385897"></trkpt>
    <trkpt lat="40.356361" lon="-74.386281"></trkpt>
    <trkpt lat="40.357246" lon="-74.386433"></trkpt>
    <trkpt lat="40.357661" lon="-74.386504"></trkpt>
    <trkpt lat="40.358247" lon="-74.386605"></trkpt>
    <trkpt lat="40.359788" lon="-74.386869"></trkpt>
    <trkpt lat="40.360400" lon="-74.386975"></trkpt>
    <trkpt lat="40.361634" lon="-74.387224"></trkpt>
    <trkpt lat="40.362775" lon="-74.387472"></trkpt>
    <trkpt lat="40.363075" lon="-74.387534"></trkpt>
    <trkpt lat="40.364845" lon="-74.387902"></trkpt>
    <trkpt lat="40.365272" lon="-74.387975"></trkpt>
    <trkpt lat="40.365845" lon="-74.388073"></trkpt>
    <trkpt lat="40.366325" lon="-74.388155"></trkpt>
    <trkpt lat="40.366644" lon="-74.388209"></trkpt>
    <trkpt lat="40.368395" lon="-74.388508"></trkpt>
    <trkpt lat="40.368844" lon="-74.388584"></trkpt>
    <trkpt lat="40.369974" lon="-74.388777"></trkpt>
    <trkpt lat="40.370484" lon="-74.388864"></trkpt>
    <trkpt lat="40.370787" lon="-74.388922"></trkpt>
    <trkpt lat="40.371340" lon="-74.388944"></trkpt>
    <trkpt lat="40.371715" lon="-74.388909"></trkpt>
    <trkpt lat="40.372449" lon="-74.388891"></trkpt>
    <trkpt lat="40.372743" lon="-74.388883"></trkpt>
    <trkpt lat="40.373696" lon="-74.388859"></trkpt>
    <trkpt lat="40.374616" lon="-74.388801"></trkpt>
    <trkpt lat="40.375187" lon="-74.388765"></trkpt>
    <trkpt lat="40.375844" lon="-74.388723"></trkpt>
    <trkpt lat="40.376221" lon="-74.388719"></trkpt>
    <trkpt lat="40.376573" lon="-74.388715"></trkpt>
    <trkpt lat="40.377923" lon="-74.388701"></trkpt>
    <trkpt lat="40.378396" lon="-74.388696"></trkpt>
    <trkpt lat="40.378876" lon="-74.388703"></trkpt>
    <trkpt lat="40.379109" lon="-74.388694"></trkpt>
    <trkpt lat="40.379519" lon="-74.388679"></trkpt>
    <trkpt lat="40.379766" lon="-74.388669"></trkpt>
    <trkpt lat="40.380115" lon="-74.388656"></trkpt>
    <trkpt lat="40.380435" lon="-74.388641"></trkpt>
    <trkpt lat="40.380823" lon="-74.388619"></trkpt>
    <trkpt lat="40.381072" lon="-74.388613"></trkpt>
    <trkpt lat="40.381338" lon="-74.388598"></trkpt>
    <trkpt lat="40.381928" lon="-74.388572"></trkpt>
    <trkpt lat="40.382157" lon="-74.388556"></trkpt>
    <trkpt lat="40.382445" lon="-74.388547"></trkpt>
    <trkpt lat="40.382768" lon="-74.388537"></trkpt>
    <trkpt lat="40.383333" lon="-74.388503"></trkpt>
    <trkpt lat="40.384363" lon="-74.388206"></trkpt>
    <trkpt lat="40.385314" lon="-74.387910"></trkpt>
    <trkpt lat="40.386244" lon="-74.387629"></trkpt>
    <trkpt lat="40.387125" lon="-74.387328"></trkpt>
    <trkpt lat="40.387551" lon="-74.387199"></trkpt>
    <trkpt lat="40.387942" lon="-74.387191"></trkpt>
    <trkpt lat="40.388356" lon="-74.387311"></trkpt>
    <trkpt lat="40.388669" lon="-74.387538"></trkpt>
    <trkpt lat="40.389328" lon="-74.388709"></trkpt>
    <trkpt lat="40.389767" lon="-74.389338"></trkpt>
    <trkpt lat="40.389989" lon="-74.389559"></trkpt>
    <trkpt lat="40.390199" lon="-74.389770"></trkpt>
    <trkpt lat="40.390431" lon="-74.389869"></trkpt>
    <trkpt lat="40.390655" lon="-74.389963"></trkpt>
    <trkpt lat="40.390922" lon="-74.390074"></trkpt>
    <trkpt lat="40.391617" lon="-74.390319"></trkpt>
    <trkpt lat="40.391747" lon="-74.389872"></trkpt>
    <trkpt lat="40.391905" lon="-74.389563"></trkpt>
    <trkpt lat="40.392049" lon="-74.389319"></trkpt>
    <trkpt lat="40.392355" lon="-74.388822"></trkpt>
    <trkpt lat="40.392699" lon="-74.388262"></trkpt>
    <trkpt lat="40.393028" lon="-74.387757"></trkpt>
    <trkpt lat="40.393589" lon="-74.386995"></trkpt>
    <trkpt lat="40.393781" lon="-74.386785"></trkpt>
    <trkpt lat="40.393971" lon="-74.386609"></trkpt>
    <trkpt lat="40.394263" lon="-74.386388"></trkpt>
    <trkpt lat="40.394582" lon="-74.386174"></trkpt>
    <trkpt lat="40.395184" lon="-74.385751"></trkpt>
    <trkpt lat="40.395461" lon="-74.385528"></trkpt>
    <trkpt lat="40.395895" lon="-74.385141"></trkpt>
    <trkpt lat="40.396215" lon="-74.384847"></trkpt>
    <trkpt lat="40.396510" lon="-74.384577"></trkpt>
    <trkpt lat="40.397502" lon="-74.383663"></trkpt>
    <trkpt lat="40.397693" lon="-74.383485"></trkpt>
    <trkpt lat="40.398222" lon="-74.382987"></trkpt>
    <trkpt lat="40.398507" lon="-74.382718"></trkpt>
    <trkpt lat="40.399294" lon="-74.381995"></trkpt>
    <trkpt lat="40.401642" lon="-74.379828"></trkpt>
    <trkpt lat="40.402108" lon="-74.379401"></trkpt>
    <trkpt lat="40.402398" lon="-74.379138"></trkpt>
    <trkpt lat="40.402646" lon="-74.378912"></trkpt>
    <trkpt lat="40.403721" lon="-74.377925"></trkpt>
    <trkpt lat="40.403933" lon="-74.377734"></trkpt>
    <trkpt lat="40.404620" lon="-74.377108"></trkpt>
    <trkpt lat="40.404952" lon="-74.376795"></trkpt>
    <trkpt lat="40.405240" lon="-74.376536"></trkpt>
    <trkpt lat="40.405521" lon="-74.376272"></trkpt>
    <trkpt lat="40.405769" lon="-74.376038"></trkpt>
    <trkpt lat="40.406078" lon="-74.375751"></trkpt>
    <trkpt lat="40.406747" lon="-74.375131"></trkpt>
    <trkpt lat="40.407314" lon="-74.374605"></trkpt>
    <trkpt lat="40.407869" lon="-74.374091"></trkpt>
    <trkpt lat="40.408369" lon="-74.373626"></trkpt>
    <trkpt lat="40.408659" lon="-74.373354"></trkpt>
    <trkpt lat="40.408879" lon="-74.373147"></trkpt>
    <trkpt lat="40.409238" lon="-74.372807"></trkpt>
    <trkpt lat="40.409562" lon="-74.372497"></trkpt>
    <trkpt lat="40.410089" lon="-74.371994"></trkpt>
    <trkpt lat="40.410647" lon="-74.371461"></trkpt>
    <trkpt lat="40.411197" lon="-74.370938"></trkpt>
    <trkpt lat="40.411458" lon="-74.370690"></trkpt>
    <trkpt lat="40.412334" lon="-74.369843"></trkpt>
    <trkpt lat="40.412835" lon="-74.369385"></trkpt>
    <trkpt lat="40.413166" lon="-74.369442"></trkpt>
    <trkpt lat="40.413429" lon="-74.369290"></trkpt>
    <trkpt lat="40.413784" lon="-74.368473"></trkpt>
    <trkpt lat="40.413817" lon="-74.368120"></trkpt>
    <trkpt lat="40.413792" lon="-74.367824"></trkpt>
    <trkpt lat="40.412655" lon="-74.366407"></trkpt>
    <trkpt lat="40.411921" lon="-74.365409"></trkpt>
    <trkpt lat="40.411595" lon="-74.364916"></trkpt>
    <trkpt lat="40.411289" lon="-74.364401"></trkpt>
    <trkpt lat="40.410306" lon="-74.362637"></trkpt>
    <trkpt lat="40.409937" lon="-74.362025"></trkpt>
    <trkpt lat="40.409671" lon="-74.361664"></trkpt>
    <trkpt lat="40.409252" lon="-74.361196"></trkpt>
    <trkpt lat="40.408903" lon="-74.360860"></trkpt>
    <trkpt lat="40.407543" lon="-74.359675"></trkpt>
    <trkpt lat="40.407241" lon="-74.359324"></trkpt>
    <trkpt lat="40.406803" lon="-74.358717"></trkpt>
    <trkpt lat="40.406496" lon="-74.358272"></trkpt>
    <trkpt lat="40.406175" lon="-74.357793"></trkpt>
    <trkpt lat="40.405910" lon="-74.357399"></trkpt>
    <trkpt lat="40.405578" lon="-74.356911"></trkpt>
    <trkpt lat="40.405239" lon="-74.356416"></trkpt>
    <trkpt lat="40.404860" lon="-74.355904"></trkpt>
    <trkpt lat="40.404696" lon="-74.355678"></trkpt>
    <trkpt lat="40.403688" lon="-74.354421"></trkpt>
    <trkpt lat="40.402741" lon="-74.353288"></trkpt>
    <trkpt lat="40.401000" lon="-74.351203"></trkpt>
    <trkpt lat="40.400272" lon="-74.350324"></trkpt>
    <trkpt lat="40.400427" lon="-74.350105"></trkpt>
    <trkpt lat="40.400656" lon="-74.349815"></trkpt>
    <trkpt lat="40.401080" lon="-74.349279"></trkpt>
    <trkpt lat="40.400875" lon="-74.347815"></trkpt>
    <trkpt lat="40.400666" lon="-74.347618"></trkpt>
    <trkpt lat="40.400375" lon="-74.347443"></trkpt>
    <trkpt lat="40.400202" lon="-74.347106"></trkpt>
    <trkpt lat="40.399414" lon="-74.345796"></trkpt>
    <trkpt lat="40.399882" lon="-74.345174"></trkpt>
    <trkpt lat="40.400182" lon="-74.345601"></trkpt>
  </trkseg></trk>
</gpx>